{
  "type": "FeatureCollection",
  "generator": "overpass-turbo",
  "copyright": "The data included in this document is from www.openstreetmap.org. The data is made available under ODbL.",
  "timestamp": "2026-04-26T09:11:35Z",
  "features": [
    {
      "type": "Feature",
      "properties": {
        "@id": "relation/11949072",
        "building": "yes",
        "name": "ВЕЦ \"Ивайловград\"",
        "name:en": "Ivailovgrad Hydroelectric Power Station",
        "operator": "НЕК ЕАД",
        "operator:wikidata": "Q12287911",
        "plant:method": "water-storage",
        "plant:output:electricity": "120 MW",
        "plant:source": "hydro",
        "power": "plant",
        "ref:EU:ENTSOE_EIC": "32W0011001000854",
        "source": "https://nek.bg/vec/index.php/bg/za-nas/centrali",
        "type": "multipolygon",
        "waterway": "dam",
        "wikidata": "Q12274444"
      },
      "geometry": {
        "type": "Polygon",
        "coordinates": [
          [
            [
              26.1067322,
              41.5836468
            ],
            [
              26.1069361,
              41.5836015
            ],
            [
              26.1077692,
              41.583414
            ],
            [
              26.1079667,
              41.583371
            ],
            [
              26.1080338,
              41.5835511
            ],
            [
              26.1088284,
              41.5838039
            ],
            [
              26.1089026,
              41.5839446
            ],
            [
              26.1080591,
              41.5841348
            ],
            [
              26.107226,
              41.5843223
            ],
            [
              26.106716,
              41.5844316
            ],
            [
              26.1065337,
              41.5844535
            ],
            [
              26.1063565,
              41.5844438
            ],
            [
              26.1061826,
              41.5843991
            ],
            [
              26.1062408,
              41.5843219
            ],
            [
              26.1067952,
              41.5838223
            ],
            [
              26.1067322,
              41.5836468
            ]
          ]
        ]
      },
      "id": "relation/11949072"
    },
    {
      "type": "Feature",
      "properties": {
        "@id": "way/168092719",
        "building": "yes",
        "level": "1",
        "name": "ВЕЦ Кърджали",
        "name:en": "Kardzhali Hydroelectric Power Station",
        "operator": "НЕК ЕАД",
        "operator:wikidata": "Q12287911",
        "plant:method": "water-storage",
        "plant:output:electricity": "106.4 MW",
        "plant:source": "hydro",
        "power": "plant",
        "ref:EU:ENTSOE_EIC": "32W0011001000838",
        "wikidata": "Q6369166"
      },
      "geometry": {
        "type": "Polygon",
        "coordinates": [
          [
            [
              25.3382017,
              41.632344
            ],
            [
              25.3385034,
              41.6324871
            ],
            [
              25.3388385,
              41.632646
            ],
            [
              25.338696,
              41.6328139
            ],
            [
              25.3386242,
              41.6327792
            ],
            [
              25.3385369,
              41.6327421
            ],
            [
              25.3383599,
              41.6326545
            ],
            [
              25.3380592,
              41.6325119
            ],
            [
              25.3382017,
              41.632344
            ]
          ]
        ]
      },
      "id": "way/168092719"
    },
    {
      "type": "Feature",
      "properties": {
        "@id": "way/485280749",
        "barrier": "fence",
        "name": "ВЕЦ \"Студен кладенец\"",
        "name:en": "Studen Kladenets Hydroelectric Power Station",
        "operator": "НЕК ЕАД",
        "operator:wikidata": "Q12287911",
        "plant:method": "water-storage",
        "plant:output:electricity": "85 MW",
        "plant:source": "hydro",
        "power": "plant",
        "source": "https://nek.bg/vec/index.php/bg/za-nas/centrali",
        "wikidata": "Q6395863"
      },
      "geometry": {
        "type": "Polygon",
        "coordinates": [
          [
            [
              25.6401577,
              41.6127871
            ],
            [
              25.6392962,
              41.6121847
            ],
            [
              25.6394427,
              41.6120742
            ],
            [
              25.6395855,
              41.6119666
            ],
            [
              25.6398479,
              41.6119272
            ],
            [
              25.6399415,
              41.6118398
            ],
            [
              25.6399553,
              41.6118198
            ],
            [
              25.6398953,
              41.6117721
            ],
            [
              25.6399674,
              41.6115915
            ],
            [
              25.6399353,
              41.611524
            ],
            [
              25.6400032,
              41.6115082
            ],
            [
              25.6400912,
              41.6114933
            ],
            [
              25.6401947,
              41.611508
            ],
            [
              25.6401405,
              41.611664
            ],
            [
              25.6408872,
              41.6121038
            ],
            [
              25.6411379,
              41.6122868
            ],
            [
              25.6415618,
              41.6125962
            ],
            [
              25.6415939,
              41.6126528
            ],
            [
              25.641658,
              41.6127618
            ],
            [
              25.6418475,
              41.6128686
            ],
            [
              25.6419378,
              41.6129427
            ],
            [
              25.6418145,
              41.612959
            ],
            [
              25.6417123,
              41.6130058
            ],
            [
              25.6414428,
              41.6129155
            ],
            [
              25.6413797,
              41.6129171
            ],
            [
              25.6412834,
              41.6128764
            ],
            [
              25.6411451,
              41.6127702
            ],
            [
              25.6408853,
              41.6125767
            ],
            [
              25.6408106,
              41.6126303
            ],
            [
              25.6404886,
              41.6126073
            ],
            [
              25.640344,
              41.6126859
            ],
            [
              25.6401577,
              41.6127871
            ]
          ]
        ]
      },
      "id": "way/485280749"
    }
  ]
}