{"type": "FeatureCollection", "features": [{"type": "Feature", "properties": {"GID_2": "BGR.2.1_1", "GID_0": "BGR", "COUNTRY": "Bulgaria", "GID_1": "BGR.2_1", "NAME_1": "Burgas", "NL_NAME_1": "\u0411\u0443\u0440\u0433\u0430\u0441", "NAME_2": "Aitos", "VARNAME_2": "Aytos|Aet\u00f3s|Ajtos", "NL_NAME_2": "\u0410\u0439\u0442\u043e\u0441", "TYPE_2": "Obshtina", "ENGTYPE_2": "Municipality", "CC_2": "NA", "HASC_2": "BG.BR.AI"}, "geometry": {"type": "MultiPolygon", "coordinates": [[[[27.4322, 42.725], [27.4153, 42.7135], [27.4151, 42.7056], [27.4201, 42.6983], [27.4204, 42.6924], [27.4171, 42.688], [27.4098, 42.6838], [27.3995, 42.6747], [27.3885, 42.6704], [27.3566, 42.6689], [27.3389, 42.6645], [27.3272, 42.6572], [27.3151, 42.6448], [27.3058, 42.6378], [27.2725, 42.6347], [27.2661, 42.6297], [27.246, 42.624], [27.2259, 42.6145], [27.2138, 42.6208], [27.2106, 42.6264], [27.2128, 42.6319], [27.2228, 42.6397], [27.2241, 42.6451], [27.2206, 42.6467], [27.1842, 42.6332], [27.1583, 42.6199], [27.1517, 42.6256], [27.1153, 42.6404], [27.1046, 42.6492], [27.1016, 42.6558], [27.1008, 42.6685], [27.1109, 42.6901], [27.1068, 42.694], [27.0978, 42.6975], [27.0934, 42.7025], [27.0818, 42.7055], [27.0747, 42.7117], [27.0766, 42.718], [27.0807, 42.7241], [27.1039, 42.7452], [27.1089, 42.7573], [27.1105, 42.7672], [27.1075, 42.7747], [27.1024, 42.7781], [27.0969, 42.7782], [27.092, 42.7751], [27.0917, 42.7699], [27.0982, 42.759], [27.0976, 42.7547], [27.0955, 42.7493], [27.0922, 42.746], [27.0818, 42.7432], [27.0772, 42.7446], [27.0714, 42.7524], [27.0651, 42.7572], [27.0488, 42.7611], [27.0435, 42.7679], [27.0432, 42.7743], [27.044, 42.7763], [27.0505, 42.7804], [27.0725, 42.7826], [27.0773, 42.7893], [27.0896, 42.7979], [27.1061, 42.802], [27.1203, 42.801], [27.1319, 42.798], [27.1412, 42.7932], [27.1566, 42.78], [27.1645, 42.7778], [27.1793, 42.7791], [27.2039, 42.7863], [27.218, 42.7876], [27.2598, 42.7886], [27.2973, 42.7835], [27.317, 42.7859], [27.3308, 42.7887], [27.3361, 42.7914], [27.3552, 42.7939], [27.381, 42.783], [27.3905, 42.7807], [27.4225, 42.7773], [27.4229, 42.772], [27.434, 42.7502], [27.4322, 42.725]]]]}}, {"type": "Feature", "properties": {"GID_2": "BGR.2.2_1", "GID_0": "BGR", "COUNTRY": "Bulgaria", "GID_1": "BGR.2_1", "NAME_1": "Burgas", "NL_NAME_1": "\u0411\u0443\u0440\u0433\u0430\u0441", "NAME_2": "Burgas", "VARNAME_2": "Bourgas", "NL_NAME_2": "\u0411\u0443\u0440\u0433\u0430\u0441", "TYPE_2": "City", "ENGTYPE_2": "City", "CC_2": "NA", "HASC_2": "BG.BR.BU"}, "geometry": {"type": "MultiPolygon", "coordinates": [[[[27.2259, 42.6145], [27.246, 42.624], [27.2661, 42.6297], [27.2725, 42.6347], [27.3058, 42.6378], [27.3151, 42.6448], [27.3272, 42.6572], [27.3445, 42.6665], [27.3566, 42.6689], [27.3821, 42.6695], [27.395, 42.6723], [27.4171, 42.688], [27.4204, 42.6924], [27.4201, 42.6983], [27.4151, 42.7056], [27.4153, 42.7135], [27.4322, 42.725], [27.4345, 42.7204], [27.4414, 42.717], [27.4609, 42.7151], [27.4713, 42.7127], [27.477, 42.7096], [27.4857, 42.7035], [27.4949, 42.6895], [27.5078, 42.6802], [27.5115, 42.6746], [27.5065, 42.6591], [27.4968, 42.643], [27.4972, 42.6351], [27.5041, 42.6201], [27.5117, 42.612], [27.5299, 42.6019], [27.5312, 42.5959], [27.5382, 42.5847], [27.5427, 42.5735], [27.5534, 42.5661], [27.5617, 42.5629], [27.569, 42.5551], [27.5654, 42.5521], [27.5582, 42.5504], [27.5404, 42.5588], [27.5326, 42.5596], [27.5232, 42.5582], [27.5093, 42.5515], [27.5004, 42.5424], [27.4951, 42.5335], [27.4915, 42.5307], [27.4876, 42.5215], [27.4862, 42.5215], [27.4835, 42.5054], [27.484, 42.4951], [27.4815, 42.4899], [27.4837, 42.4868], [27.4837, 42.4821], [27.4815, 42.4832], [27.4815, 42.4863], [27.4796, 42.4879], [27.4726, 42.4868], [27.4796, 42.4843], [27.4793, 42.4829], [27.4718, 42.4829], [27.466, 42.4882], [27.4635, 42.4882], [27.4638, 42.4846], [27.4607, 42.4807], [27.456, 42.4821], [27.4551, 42.4843], [27.4568, 42.486], [27.4551, 42.4863], [27.4526, 42.4832], [27.4499, 42.4829], [27.4521, 42.4815], [27.4513, 42.479], [27.4465, 42.4765], [27.4468, 42.4679], [27.4499, 42.4626], [27.4438, 42.4607], [27.4482, 42.4588], [27.449, 42.4568], [27.4524, 42.4571], [27.4518, 42.4532], [27.4554, 42.4526], [27.4579, 42.4496], [27.4615, 42.4501], [27.461, 42.4482], [27.464, 42.4496], [27.4674, 42.446], [27.4749, 42.4501], [27.4718, 42.4529], [27.4749, 42.4562], [27.4735, 42.4582], [27.4796, 42.4621], [27.4815, 42.4565], [27.4901, 42.4476], [27.4954, 42.4443], [27.4979, 42.4446], [27.5029, 42.4399], [27.509, 42.4379], [27.5104, 42.4343], [27.5085, 42.4301], [27.5107, 42.4285], [27.5226, 42.4307], [27.5229, 42.4338], [27.529, 42.4376], [27.5287, 42.4407], [27.5312, 42.4451], [27.5385, 42.4476], [27.5346, 42.4529], [27.5387, 42.4571], [27.5432, 42.4549], [27.5468, 42.4551], [27.5529, 42.4504], [27.5507, 42.4508], [27.544, 42.4308], [27.5466, 42.4226], [27.5506, 42.419], [27.5554, 42.4106], [27.5546, 42.4043], [27.5521, 42.4001], [27.5179, 42.3673], [27.5111, 42.3625], [27.507, 42.3619], [27.5016, 42.3648], [27.4902, 42.3811], [27.4859, 42.383], [27.4769, 42.3796], [27.472, 42.373], [27.4677, 42.3735], [27.4579, 42.3924], [27.4547, 42.3948], [27.4383, 42.3943], [27.4171, 42.3889], [27.4063, 42.3879], [27.3603, 42.3854], [27.3429, 42.3872], [27.3452, 42.3896], [27.3623, 42.3964], [27.3679, 42.4006], [27.3685, 42.4028], [27.3598, 42.4166], [27.3584, 42.4263], [27.3593, 42.4428], [27.3554, 42.4498], [27.3527, 42.4618], [27.3504, 42.4647], [27.3447, 42.4638], [27.3375, 42.4652], [27.3327, 42.4677], [27.3244, 42.4775], [27.3131, 42.4797], [27.3105, 42.4824], [27.307, 42.4989], [27.3002, 42.5008], [27.2925, 42.5002], [27.2833, 42.492], [27.2697, 42.488], [27.2668, 42.4809], [27.2576, 42.4729], [27.2548, 42.4711], [27.2504, 42.4724], [27.2469, 42.4766], [27.2444, 42.4834], [27.2268, 42.4946], [27.2138, 42.5057], [27.2122, 42.5111], [27.215, 42.5177], [27.2141, 42.5271], [27.2087, 42.5401], [27.197, 42.5541], [27.1964, 42.5581], [27.2026, 42.5599], [27.2201, 42.5579], [27.2415, 42.5576], [27.2483, 42.555], [27.2564, 42.5479], [27.2826, 42.5363], [27.2891, 42.5308], [27.2939, 42.5295], [27.3108, 42.5316], [27.321, 42.5352], [27.3467, 42.5557], [27.3594, 42.563], [27.3687, 42.576], [27.3709, 42.5869], [27.3692, 42.5902], [27.3624, 42.5907], [27.351, 42.5847], [27.3468, 42.5848], [27.3352, 42.5926], [27.3281, 42.5997], [27.3136, 42.6029], [27.3088, 42.606], [27.3025, 42.6071], [27.287, 42.604], [27.2732, 42.6049], [27.2529, 42.6015], [27.2395, 42.605], [27.2259, 42.6145]]]]}}, {"type": "Feature", "properties": {"GID_2": "BGR.2.3_1", "GID_0": "BGR", "COUNTRY": "Bulgaria", "GID_1": "BGR.2_1", "NAME_1": "Burgas", "NL_NAME_1": "\u0411\u0443\u0440\u0433\u0430\u0441", "NAME_2": "Kameno", "VARNAME_2": "NA", "NL_NAME_2": "NA", "TYPE_2": "Obshtina", "ENGTYPE_2": "Municipality", "CC_2": "NA", "HASC_2": "BG.BR.KM"}, "geometry": {"type": "MultiPolygon", "coordinates": [[[[27.1583, 42.6199], [27.1842, 42.6332], [27.2038, 42.6412], [27.2146, 42.6453], [27.223, 42.6465], [27.2241, 42.6451], [27.2228, 42.6397], [27.2128, 42.6319], [27.2106, 42.6264], [27.2138, 42.6208], [27.2395, 42.605], [27.2529, 42.6015], [27.2732, 42.6049], [27.287, 42.604], [27.3025, 42.6071], [27.3281, 42.5997], [27.3352, 42.5926], [27.3468, 42.5848], [27.351, 42.5847], [27.3624, 42.5907], [27.3692, 42.5902], [27.3709, 42.5869], [27.3687, 42.576], [27.3594, 42.563], [27.3467, 42.5557], [27.321, 42.5352], [27.3108, 42.5316], [27.2939, 42.5295], [27.2891, 42.5308], [27.2826, 42.5363], [27.2564, 42.5479], [27.2483, 42.555], [27.2415, 42.5576], [27.2201, 42.5579], [27.2026, 42.5599], [27.1964, 42.5581], [27.197, 42.5541], [27.2087, 42.5401], [27.2141, 42.5271], [27.215, 42.5177], [27.2122, 42.5111], [27.2138, 42.5057], [27.2268, 42.4946], [27.2444, 42.4834], [27.2469, 42.4766], [27.2504, 42.4724], [27.2548, 42.4711], [27.2576, 42.4729], [27.2668, 42.4809], [27.2697, 42.488], [27.2833, 42.492], [27.2925, 42.5002], [27.3002, 42.5008], [27.307, 42.4989], [27.3105, 42.4824], [27.3131, 42.4797], [27.3244, 42.4775], [27.3327, 42.4677], [27.3375, 42.4652], [27.3447, 42.4638], [27.3504, 42.4647], [27.3527, 42.4618], [27.3554, 42.4498], [27.3593, 42.4428], [27.3584, 42.4263], [27.3601, 42.4161], [27.3273, 42.4027], [27.3149, 42.4028], [27.2894, 42.4118], [27.2645, 42.4111], [27.2586, 42.4144], [27.2517, 42.4222], [27.2324, 42.4243], [27.2173, 42.4307], [27.1974, 42.4297], [27.1838, 42.4316], [27.166, 42.4375], [27.158, 42.444], [27.1434, 42.4627], [27.1359, 42.4661], [27.1357, 42.4777], [27.1245, 42.4892], [27.1217, 42.4957], [27.122, 42.4983], [27.1334, 42.5075], [27.1341, 42.5114], [27.1229, 42.5277], [27.1229, 42.5364], [27.1073, 42.5508], [27.1061, 42.5561], [27.0986, 42.5683], [27.099, 42.5775], [27.1035, 42.5851], [27.1193, 42.5962], [27.1235, 42.6014], [27.1392, 42.6084], [27.154, 42.6113], [27.1583, 42.6155], [27.1583, 42.6199]]]]}}, {"type": "Feature", "properties": {"GID_2": "BGR.2.4_1", "GID_0": "BGR", "COUNTRY": "Bulgaria", "GID_1": "BGR.2_1", "NAME_1": "Burgas", "NL_NAME_1": "\u0411\u0443\u0440\u0433\u0430\u0441", "NAME_2": "Karnobat", "VARNAME_2": "NA", "NL_NAME_2": "\u041a\u0430\u0440\u043d\u043e\u0431\u0430\u0442", "TYPE_2": "Obshtina", "ENGTYPE_2": "Municipality", "CC_2": "NA", "HASC_2": "BG.BR.KR"}, "geometry": {"type": "MultiPolygon", "coordinates": [[[[27.0766, 42.7881], [27.0725, 42.7826], [27.0505, 42.7804], [27.0472, 42.7787], [27.0432, 42.7743], [27.0435, 42.7679], [27.0488, 42.7611], [27.0651, 42.7572], [27.0714, 42.7524], [27.0787, 42.7435], [27.0861, 42.7436], [27.0922, 42.746], [27.0955, 42.7493], [27.098, 42.7563], [27.0982, 42.759], [27.0917, 42.7699], [27.092, 42.7751], [27.0969, 42.7782], [27.1024, 42.7781], [27.1075, 42.7747], [27.1105, 42.7672], [27.1089, 42.7573], [27.1039, 42.7452], [27.0807, 42.7241], [27.0766, 42.718], [27.0747, 42.7117], [27.0818, 42.7055], [27.0934, 42.7025], [27.0978, 42.6975], [27.1068, 42.694], [27.1109, 42.6901], [27.1008, 42.6685], [27.1016, 42.6558], [27.1046, 42.6492], [27.1153, 42.6404], [27.1517, 42.6256], [27.1581, 42.6205], [27.159, 42.618], [27.154, 42.6113], [27.1392, 42.6084], [27.1235, 42.6014], [27.1193, 42.5962], [27.1035, 42.5851], [27.099, 42.5775], [27.0986, 42.5683], [27.1061, 42.5561], [27.1073, 42.5508], [27.1229, 42.5364], [27.1229, 42.5277], [27.1341, 42.5114], [27.1334, 42.5075], [27.122, 42.4983], [27.1217, 42.4957], [27.1245, 42.4892], [27.1357, 42.4777], [27.1359, 42.4661], [27.1266, 42.4664], [27.1094, 42.4624], [27.1019, 42.4625], [27.0849, 42.4562], [27.0647, 42.4538], [27.0455, 42.4482], [27.0152, 42.4515], [27.008, 42.4484], [26.9927, 42.4473], [26.9802, 42.4313], [26.9639, 42.4221], [26.9584, 42.427], [26.9518, 42.4399], [26.9398, 42.4513], [26.9269, 42.4529], [26.8918, 42.4501], [26.8841, 42.4516], [26.8796, 42.4546], [26.8744, 42.4624], [26.8723, 42.4758], [26.8726, 42.4955], [26.8696, 42.4985], [26.852, 42.505], [26.846, 42.5122], [26.8356, 42.5341], [26.825, 42.5438], [26.8069, 42.5688], [26.8001, 42.5806], [26.7972, 42.5946], [26.792, 42.6057], [26.7921, 42.6179], [26.7899, 42.6237], [26.7703, 42.6422], [26.7599, 42.6552], [26.7532, 42.66], [26.7503, 42.6641], [26.7505, 42.6669], [26.7639, 42.6717], [26.7736, 42.6716], [26.7868, 42.6781], [26.7927, 42.677], [26.8123, 42.6599], [26.8176, 42.6577], [26.8295, 42.6577], [26.8362, 42.6599], [26.8393, 42.6627], [26.8415, 42.6692], [26.8392, 42.7], [26.8402, 42.7087], [26.8446, 42.7171], [26.8575, 42.7249], [26.8906, 42.7324], [26.8976, 42.7364], [26.904, 42.7434], [26.9061, 42.7496], [26.9116, 42.7577], [26.9148, 42.7676], [26.923, 42.7784], [26.9257, 42.7796], [26.9284, 42.7733], [26.9353, 42.774], [26.9406, 42.7831], [26.9465, 42.7855], [26.9517, 42.7824], [26.9557, 42.7771], [26.9626, 42.777], [26.9661, 42.7786], [26.9713, 42.7835], [26.9734, 42.7881], [26.9758, 42.8042], [26.9781, 42.8097], [26.9887, 42.8172], [27.0013, 42.8196], [27.0438, 42.8173], [27.0444, 42.8093], [27.0484, 42.8028], [27.0555, 42.7981], [27.0653, 42.7951], [27.0642, 42.7898], [27.0654, 42.788], [27.0766, 42.7881]]]]}}, {"type": "Feature", "properties": {"GID_2": "BGR.2.5_1", "GID_0": "BGR", "COUNTRY": "Bulgaria", "GID_1": "BGR.2_1", "NAME_1": "Burgas", "NL_NAME_1": "\u0411\u0443\u0440\u0433\u0430\u0441", "NAME_2": "MalkoTarnovo", "VARNAME_2": "NA", "NL_NAME_2": "\u041c\u0430\u043b\u043a\u043e\u0422\u044a\u0440\u043d\u043e\u0432\u043e", "TYPE_2": "Obshtina", "ENGTYPE_2": "Municipality", "CC_2": "NA", "HASC_2": "BG.BR.MT"}, "geometry": {"type": "MultiPolygon", "coordinates": [[[[27.304, 42.2005], [27.3165, 42.2006], [27.3301, 42.1926], [27.3352, 42.1927], [27.353, 42.2004], [27.3716, 42.2029], [27.3939, 42.1874], [27.4137, 42.1912], [27.423, 42.1915], [27.4389, 42.1873], [27.4535, 42.1863], [27.4722, 42.1874], [27.486, 42.1838], [27.5064, 42.1811], [27.5234, 42.1742], [27.5285, 42.1675], [27.5347, 42.1547], [27.5519, 42.1455], [27.5607, 42.1431], [27.5669, 42.1446], [27.572, 42.1482], [27.5743, 42.1612], [27.5918, 42.1746], [27.5932, 42.1783], [27.5903, 42.1896], [27.6026, 42.1877], [27.6095, 42.1839], [27.6148, 42.1787], [27.6219, 42.1642], [27.6279, 42.1606], [27.6497, 42.1563], [27.6542, 42.1381], [27.65, 42.1277], [27.642, 42.1187], [27.6382, 42.1108], [27.6379, 42.1046], [27.6458, 42.0915], [27.6605, 42.08], [27.6642, 42.0665], [27.6676, 42.0648], [27.6881, 42.0617], [27.6936, 42.0593], [27.702, 42.0509], [27.7054, 42.0435], [27.7134, 42.0341], [27.7253, 42.0275], [27.7448, 42.0196], [27.7495, 42.0155], [27.7601, 42.0037], [27.7673, 41.9903], [27.7705, 41.9807], [27.7683, 41.9749], [27.7621, 41.9657], [27.7541, 41.9598], [27.7375, 41.9603], [27.7349, 41.9625], [27.7404, 41.9677], [27.7291, 41.9727], [27.7251, 41.9679], [27.7223, 41.967], [27.7152, 41.9707], [27.6926, 41.973], [27.692, 41.9709], [27.6961, 41.9665], [27.6936, 41.9649], [27.6813, 41.9669], [27.6761, 41.9649], [27.6738, 41.9584], [27.6704, 41.9575], [27.6685, 41.9526], [27.6654, 41.9522], [27.6632, 41.9577], [27.6536, 41.9516], [27.6512, 41.9521], [27.6496, 41.9566], [27.6429, 41.9554], [27.634, 41.9504], [27.6323, 41.9544], [27.625, 41.9518], [27.6166, 41.9543], [27.6141, 41.9532], [27.6147, 41.9509], [27.6226, 41.9452], [27.6081, 41.9376], [27.6026, 41.9361], [27.6023, 41.9424], [27.5969, 41.9442], [27.5807, 41.9309], [27.5774, 41.9315], [27.5716, 41.9366], [27.5686, 41.9366], [27.5687, 41.9315], [27.5608, 41.922], [27.5686, 41.9204], [27.569, 41.9178], [27.5574, 41.9136], [27.5574, 41.9122], [27.5654, 41.9103], [27.5674, 41.9063], [27.5639, 41.9014], [27.5514, 41.8996], [27.5354, 41.9131], [27.5216, 41.9367], [27.509, 41.9507], [27.5053, 41.9532], [27.4899, 41.9511], [27.4807, 41.9524], [27.4709, 41.9592], [27.4635, 41.9683], [27.4605, 41.9696], [27.4528, 41.9685], [27.4414, 41.9699], [27.4361, 41.9748], [27.4319, 41.9869], [27.4282, 41.9899], [27.4197, 41.9889], [27.4159, 41.9901], [27.4108, 41.9998], [27.3943, 42.0133], [27.387, 42.0248], [27.3842, 42.0344], [27.3769, 42.0495], [27.3716, 42.0544], [27.3647, 42.0581], [27.3548, 42.0607], [27.3396, 42.0622], [27.3381, 42.064], [27.3396, 42.0657], [27.3387, 42.0716], [27.3356, 42.0781], [27.3294, 42.0841], [27.3095, 42.0904], [27.2987, 42.0964], [27.2857, 42.099], [27.2757, 42.1051], [27.2814, 42.1122], [27.2825, 42.1396], [27.2793, 42.1504], [27.266, 42.1749], [27.2666, 42.1858], [27.2705, 42.193], [27.2785, 42.1975], [27.304, 42.2005]]]]}}, {"type": "Feature", "properties": {"GID_2": "BGR.2.6_1", "GID_0": "BGR", "COUNTRY": "Bulgaria", "GID_1": "BGR.2_1", "NAME_1": "Burgas", "NL_NAME_1": "\u0411\u0443\u0440\u0433\u0430\u0441", "NAME_2": "Nesebar", "VARNAME_2": "Neseb\u0103r", "NL_NAME_2": "\u041d\u0435\u0441\u0435\u0431\u044a\u0440", "TYPE_2": "Obshtina", "ENGTYPE_2": "Municipality", "CC_2": "NA", "HASC_2": "BG.BR.NE"}, "geometry": {"type": "MultiPolygon", "coordinates": [[[[27.8826, 42.8337], [27.8913, 42.7965], [27.8979, 42.7821], [27.8971, 42.7796], [27.8985, 42.7754], [27.901, 42.7721], [27.9007, 42.7663], [27.8976, 42.7632], [27.8943, 42.7624], [27.8926, 42.7557], [27.8885, 42.7526], [27.8932, 42.7343], [27.9015, 42.7188], [27.9024, 42.7132], [27.8999, 42.7057], [27.9013, 42.7021], [27.9001, 42.7001], [27.8924, 42.6974], [27.876, 42.7012], [27.8721, 42.7001], [27.8401, 42.7004], [27.8229, 42.7046], [27.8154, 42.7038], [27.8121, 42.7012], [27.8082, 42.7007], [27.8051, 42.7035], [27.7932, 42.7021], [27.7929, 42.7035], [27.7757, 42.7051], [27.7657, 42.7082], [27.7515, 42.7074], [27.7465, 42.7088], [27.7396, 42.7068], [27.7365, 42.709], [27.7299, 42.7093], [27.7215, 42.7043], [27.714, 42.6937], [27.7154, 42.6912], [27.7135, 42.6904], [27.7113, 42.6732], [27.7138, 42.6671], [27.7201, 42.6651], [27.724, 42.6604], [27.7304, 42.659], [27.7324, 42.661], [27.7393, 42.6615], [27.7415, 42.6593], [27.7343, 42.6574], [27.7313, 42.6543], [27.7299, 42.6543], [27.7304, 42.6568], [27.7285, 42.659], [27.7262, 42.6587], [27.7262, 42.6574], [27.7224, 42.6582], [27.7179, 42.6568], [27.7124, 42.6512], [27.7107, 42.646], [27.6993, 42.6518], [27.6918, 42.6521], [27.6918, 42.6499], [27.6893, 42.6499], [27.6849, 42.6457], [27.6771, 42.6351], [27.6768, 42.6374], [27.6751, 42.6379], [27.665, 42.6387], [27.6556, 42.6527], [27.6458, 42.68], [27.6426, 42.6819], [27.6351, 42.6954], [27.6342, 42.7052], [27.63, 42.7165], [27.6169, 42.7317], [27.6165, 42.7368], [27.5951, 42.7582], [27.5836, 42.7766], [27.5824, 42.7795], [27.5833, 42.7912], [27.5751, 42.8047], [27.5754, 42.8065], [27.5782, 42.8077], [27.5967, 42.8094], [27.6175, 42.8281], [27.6289, 42.8356], [27.6336, 42.8415], [27.6341, 42.8505], [27.6388, 42.857], [27.6386, 42.861], [27.6284, 42.8736], [27.6284, 42.8758], [27.6327, 42.8781], [27.6438, 42.8784], [27.646, 42.8806], [27.6434, 42.8888], [27.6397, 42.8927], [27.6389, 42.8975], [27.7007, 42.8894], [27.7088, 42.884], [27.7125, 42.8784], [27.7045, 42.8672], [27.7104, 42.8607], [27.7171, 42.8562], [27.7274, 42.8461], [27.7329, 42.8441], [27.7454, 42.8336], [27.7589, 42.8342], [27.7658, 42.8327], [27.7749, 42.8266], [27.7776, 42.8211], [27.7857, 42.8196], [27.8153, 42.8236], [27.8453, 42.8345], [27.8826, 42.8337]]]]}}, {"type": "Feature", "properties": {"GID_2": "BGR.2.7_1", "GID_0": "BGR", "COUNTRY": "Bulgaria", "GID_1": "BGR.2_1", "NAME_1": "Burgas", "NL_NAME_1": "\u0411\u0443\u0440\u0433\u0430\u0441", "NAME_2": "Pomorie", "VARNAME_2": "Anchialos|Anchialus|Tuthom|Anhia", "NL_NAME_2": "\u041f\u043e\u043c\u043e\u0440\u0438\u0435", "TYPE_2": "Obshtina", "ENGTYPE_2": "Municipality", "CC_2": "NA", "HASC_2": "BG.BR.PO"}, "geometry": {"type": "MultiPolygon", "coordinates": [[[[27.5661, 42.5526], [27.5685, 42.5546], [27.5671, 42.5526], [27.5661, 42.5526]]], [[[27.6649, 42.6387], [27.6649, 42.6389], [27.665, 42.6387], [27.6649, 42.6387]]], [[[27.4327, 42.7284], [27.434, 42.7502], [27.4229, 42.772], [27.4233, 42.7823], [27.4351, 42.7872], [27.4624, 42.7934], [27.4775, 42.8031], [27.4805, 42.8116], [27.4722, 42.8314], [27.4731, 42.8387], [27.4664, 42.8517], [27.4681, 42.8599], [27.4739, 42.8713], [27.4679, 42.8793], [27.4678, 42.8913], [27.5061, 42.8954], [27.5122, 42.8937], [27.5198, 42.8842], [27.5282, 42.8835], [27.5349, 42.8848], [27.5598, 42.8975], [27.5794, 42.9005], [27.6108, 42.9009], [27.6389, 42.8975], [27.6397, 42.8927], [27.6434, 42.8888], [27.646, 42.8806], [27.6438, 42.8784], [27.6327, 42.8781], [27.6284, 42.8758], [27.6284, 42.8736], [27.6386, 42.861], [27.6388, 42.857], [27.6341, 42.8505], [27.6336, 42.8415], [27.6289, 42.8356], [27.6175, 42.8281], [27.5967, 42.8094], [27.5782, 42.8077], [27.5754, 42.8065], [27.5751, 42.8047], [27.5833, 42.7912], [27.5824, 42.7795], [27.5836, 42.7766], [27.5951, 42.7582], [27.6165, 42.7368], [27.6169, 42.7317], [27.63, 42.7165], [27.6342, 42.7052], [27.6351, 42.6954], [27.6426, 42.6819], [27.6458, 42.68], [27.6556, 42.6527], [27.6648, 42.639], [27.6596, 42.6387], [27.6551, 42.636], [27.651, 42.639], [27.6449, 42.6382], [27.6374, 42.6299], [27.6338, 42.6218], [27.631, 42.6076], [27.6324, 42.5849], [27.6354, 42.5726], [27.6513, 42.5549], [27.6399, 42.5507], [27.6421, 42.554], [27.6296, 42.5621], [27.6132, 42.5649], [27.606, 42.5635], [27.5993, 42.5576], [27.5957, 42.5629], [27.5888, 42.5651], [27.5768, 42.5624], [27.569, 42.5553], [27.5617, 42.5629], [27.5534, 42.5661], [27.5427, 42.5735], [27.5382, 42.5847], [27.5312, 42.5959], [27.5299, 42.6019], [27.5117, 42.612], [27.5075, 42.6159], [27.5011, 42.6252], [27.4972, 42.6351], [27.4968, 42.643], [27.5065, 42.6591], [27.5111, 42.6711], [27.5101, 42.6773], [27.4949, 42.6895], [27.4857, 42.7035], [27.477, 42.7096], [27.4665, 42.7139], [27.4379, 42.7184], [27.4345, 42.7204], [27.4322, 42.725], [27.4327, 42.7284]]]]}}, {"type": "Feature", "properties": {"GID_2": "BGR.2.8_1", "GID_0": "BGR", "COUNTRY": "Bulgaria", "GID_1": "BGR.2_1", "NAME_1": "Burgas", "NL_NAME_1": "\u0411\u0443\u0440\u0433\u0430\u0441", "NAME_2": "Primorsko", "VARNAME_2": "NA", "NL_NAME_2": "NA", "TYPE_2": "Obshtina", "ENGTYPE_2": "Municipality", "CC_2": "NA", "HASC_2": "BG.BR.PR"}, "geometry": {"type": "MultiPolygon", "coordinates": [[[[27.6501, 42.1525], [27.6497, 42.1563], [27.6279, 42.1606], [27.6219, 42.1642], [27.6148, 42.1787], [27.6095, 42.1839], [27.6026, 42.1877], [27.5924, 42.1899], [27.5903, 42.1896], [27.5903, 42.1876], [27.5928, 42.1767], [27.5892, 42.1724], [27.5863, 42.1716], [27.5743, 42.1612], [27.572, 42.1482], [27.5639, 42.1435], [27.5561, 42.1437], [27.5347, 42.1547], [27.5285, 42.1675], [27.5212, 42.176], [27.5064, 42.1811], [27.486, 42.1838], [27.4722, 42.1874], [27.4714, 42.1983], [27.4633, 42.2121], [27.4629, 42.2163], [27.4651, 42.223], [27.4826, 42.2451], [27.4906, 42.2606], [27.4903, 42.2637], [27.4944, 42.2756], [27.5021, 42.283], [27.5106, 42.2949], [27.5244, 42.3372], [27.5322, 42.3422], [27.5365, 42.3423], [27.5747, 42.339], [27.5829, 42.3363], [27.5853, 42.332], [27.5855, 42.3233], [27.5897, 42.3149], [27.5985, 42.312], [27.6289, 42.3087], [27.6377, 42.3031], [27.646, 42.2938], [27.6554, 42.2891], [27.6606, 42.2902], [27.671, 42.2985], [27.6786, 42.3017], [27.6943, 42.3036], [27.6989, 42.3095], [27.7082, 42.3158], [27.7189, 42.3167], [27.7253, 42.3229], [27.7246, 42.3284], [27.7356, 42.325], [27.7407, 42.325], [27.7435, 42.329], [27.7524, 42.3249], [27.7557, 42.3274], [27.7565, 42.3329], [27.7588, 42.3343], [27.7638, 42.3329], [27.7726, 42.3376], [27.7746, 42.3329], [27.7757, 42.336], [27.7799, 42.3346], [27.7804, 42.336], [27.7849, 42.3363], [27.7862, 42.334], [27.7829, 42.3304], [27.7838, 42.3282], [27.7804, 42.3262], [27.7826, 42.3251], [27.7824, 42.3237], [27.7726, 42.3201], [27.7821, 42.319], [27.7801, 42.3135], [27.7868, 42.3124], [27.7913, 42.309], [27.7938, 42.309], [27.7951, 42.3068], [27.7857, 42.3071], [27.7821, 42.3057], [27.7787, 42.3018], [27.7699, 42.3007], [27.7696, 42.2993], [27.7738, 42.2968], [27.7732, 42.2946], [27.7693, 42.2935], [27.7657, 42.2893], [27.7593, 42.2882], [27.7576, 42.2893], [27.7524, 42.286], [27.7521, 42.2788], [27.7543, 42.2729], [27.7571, 42.2732], [27.7601, 42.2685], [27.766, 42.2651], [27.7596, 42.2632], [27.754, 42.2649], [27.7485, 42.2576], [27.7485, 42.2535], [27.7554, 42.2457], [27.7651, 42.2435], [27.7676, 42.2404], [27.7715, 42.241], [27.7707, 42.2449], [27.774, 42.2451], [27.7751, 42.2432], [27.7779, 42.2426], [27.7785, 42.2382], [27.7812, 42.2368], [27.7849, 42.2382], [27.7857, 42.2349], [27.7824, 42.2335], [27.7787, 42.2346], [27.7765, 42.2318], [27.7765, 42.2282], [27.7787, 42.226], [27.7829, 42.226], [27.7832, 42.2232], [27.7868, 42.2224], [27.7865, 42.2196], [27.7893, 42.2174], [27.6501, 42.1525]]]]}}, {"type": "Feature", "properties": {"GID_2": "BGR.2.9_1", "GID_0": "BGR", "COUNTRY": "Bulgaria", "GID_1": "BGR.2_1", "NAME_1": "Burgas", "NL_NAME_1": "\u0411\u0443\u0440\u0433\u0430\u0441", "NAME_2": "Ruen", "VARNAME_2": "NA", "NL_NAME_2": "NA", "TYPE_2": "Obshtina", "ENGTYPE_2": "Municipality", "CC_2": "NA", "HASC_2": "BG.BR.RU"}, "geometry": {"type": "MultiPolygon", "coordinates": [[[[27.4225, 42.7773], [27.3905, 42.7807], [27.381, 42.783], [27.3552, 42.7939], [27.3361, 42.7914], [27.3308, 42.7887], [27.317, 42.7859], [27.2973, 42.7835], [27.2598, 42.7886], [27.218, 42.7876], [27.2039, 42.7863], [27.1793, 42.7791], [27.1645, 42.7778], [27.1566, 42.78], [27.1412, 42.7932], [27.1319, 42.798], [27.1098, 42.802], [27.0896, 42.7979], [27.0766, 42.7881], [27.0654, 42.788], [27.0642, 42.7898], [27.0653, 42.7951], [27.0532, 42.7993], [27.0465, 42.8048], [27.0444, 42.8093], [27.0438, 42.8173], [27.0489, 42.8211], [27.0575, 42.8342], [27.0632, 42.8376], [27.0992, 42.8404], [27.102, 42.8448], [27.1031, 42.8523], [27.074, 42.8741], [27.0664, 42.8828], [27.0625, 42.8907], [27.0491, 42.8991], [27.0314, 42.9042], [27.023, 42.9116], [27.0214, 42.9166], [27.0346, 42.9169], [27.0454, 42.9201], [27.1013, 42.9447], [27.1232, 42.9473], [27.1367, 42.946], [27.149, 42.9476], [27.1597, 42.9509], [27.1874, 42.9639], [27.1977, 42.9719], [27.22, 42.9797], [27.2401, 42.9801], [27.3, 42.9754], [27.3458, 42.9663], [27.36, 42.9562], [27.371, 42.9412], [27.3909, 42.933], [27.4005, 42.9263], [27.408, 42.9241], [27.4177, 42.9138], [27.4344, 42.9024], [27.4536, 42.893], [27.4678, 42.8913], [27.4679, 42.8793], [27.4739, 42.8713], [27.4681, 42.8599], [27.4664, 42.8517], [27.4731, 42.8387], [27.4721, 42.8339], [27.4735, 42.8267], [27.4799, 42.8145], [27.4789, 42.806], [27.4775, 42.8031], [27.4717, 42.7987], [27.4624, 42.7934], [27.4267, 42.7845], [27.4233, 42.7823], [27.4225, 42.7773]]]]}}, {"type": "Feature", "properties": {"GID_2": "BGR.2.10_1", "GID_0": "BGR", "COUNTRY": "Bulgaria", "GID_1": "BGR.2_1", "NAME_1": "Burgas", "NL_NAME_1": "\u0411\u0443\u0440\u0433\u0430\u0441", "NAME_2": "Sozopol", "VARNAME_2": "NA", "NL_NAME_2": "\u0421\u043e\u0437\u043e\u043f\u043e\u043b", "TYPE_2": "Obshtina", "ENGTYPE_2": "Municipality", "CC_2": "NA", "HASC_2": "BG.BR.SO"}, "geometry": {"type": "MultiPolygon", "coordinates": [[[[27.3427, 42.3875], [27.3603, 42.3854], [27.4063, 42.3879], [27.4171, 42.3889], [27.4383, 42.3943], [27.4547, 42.3948], [27.4579, 42.3924], [27.4677, 42.3735], [27.472, 42.373], [27.4769, 42.3796], [27.4859, 42.383], [27.4902, 42.3811], [27.5036, 42.363], [27.5111, 42.3625], [27.5179, 42.3673], [27.5242, 42.3748], [27.5426, 42.3909], [27.5546, 42.4043], [27.5554, 42.4106], [27.544, 42.4282], [27.5462, 42.4392], [27.5507, 42.4508], [27.5632, 42.4457], [27.5713, 42.4446], [27.5807, 42.4457], [27.5824, 42.4482], [27.5799, 42.4524], [27.5751, 42.4518], [27.5743, 42.4529], [27.5815, 42.4562], [27.5832, 42.4624], [27.5865, 42.4635], [27.5876, 42.4624], [27.5868, 42.459], [27.594, 42.4557], [27.5943, 42.4535], [27.6038, 42.446], [27.6132, 42.444], [27.6232, 42.4449], [27.6254, 42.4463], [27.6254, 42.4499], [27.6279, 42.4515], [27.6262, 42.4579], [27.6304, 42.4596], [27.6285, 42.4571], [27.6313, 42.454], [27.6346, 42.4532], [27.6346, 42.449], [27.6393, 42.4476], [27.6415, 42.4501], [27.6518, 42.451], [27.6499, 42.4463], [27.6501, 42.4443], [27.6524, 42.4435], [27.6499, 42.441], [27.6479, 42.4413], [27.6468, 42.4388], [27.6537, 42.436], [27.6526, 42.4326], [27.6563, 42.4307], [27.6543, 42.4293], [27.6521, 42.4315], [27.6443, 42.4301], [27.6451, 42.4279], [27.6437, 42.4246], [27.6476, 42.4182], [27.6599, 42.4107], [27.6746, 42.409], [27.6776, 42.4132], [27.6857, 42.414], [27.686, 42.416], [27.6893, 42.4182], [27.6876, 42.4201], [27.6918, 42.4204], [27.691, 42.4232], [27.6938, 42.4251], [27.6924, 42.426], [27.6904, 42.4226], [27.6882, 42.4224], [27.6876, 42.4257], [27.6988, 42.4271], [27.7013, 42.4251], [27.6971, 42.424], [27.6946, 42.4212], [27.6965, 42.419], [27.6999, 42.4204], [27.7032, 42.4196], [27.6999, 42.4146], [27.7051, 42.409], [27.7121, 42.4079], [27.7135, 42.4063], [27.7146, 42.4087], [27.7165, 42.4085], [27.7179, 42.4101], [27.7196, 42.409], [27.7296, 42.4101], [27.7282, 42.4063], [27.7299, 42.4043], [27.7265, 42.4035], [27.7249, 42.3999], [27.7101, 42.4004], [27.706, 42.3946], [27.7071, 42.3851], [27.7088, 42.3832], [27.7174, 42.3824], [27.724, 42.379], [27.7221, 42.3768], [27.7171, 42.376], [27.716, 42.3718], [27.7129, 42.3707], [27.7126, 42.3721], [27.7107, 42.3721], [27.7082, 42.369], [27.7082, 42.3662], [27.7224, 42.3488], [27.7224, 42.3468], [27.724, 42.3471], [27.7254, 42.3446], [27.7304, 42.3451], [27.729, 42.3435], [27.729, 42.3404], [27.7313, 42.3401], [27.7299, 42.3357], [27.7388, 42.3282], [27.7427, 42.329], [27.7407, 42.325], [27.7356, 42.325], [27.7246, 42.3284], [27.7253, 42.3229], [27.7189, 42.3167], [27.7082, 42.3158], [27.6989, 42.3095], [27.6943, 42.3036], [27.6786, 42.3017], [27.671, 42.2985], [27.6606, 42.2902], [27.6554, 42.2891], [27.646, 42.2938], [27.6377, 42.3031], [27.6289, 42.3087], [27.5985, 42.312], [27.5897, 42.3149], [27.5855, 42.3233], [27.5853, 42.332], [27.5829, 42.3363], [27.5747, 42.339], [27.5322, 42.3422], [27.5244, 42.3372], [27.5106, 42.2949], [27.5021, 42.283], [27.4944, 42.2756], [27.4903, 42.2637], [27.4906, 42.2606], [27.4826, 42.2451], [27.4651, 42.223], [27.4629, 42.2163], [27.4633, 42.2121], [27.4714, 42.1983], [27.4722, 42.1874], [27.445, 42.1866], [27.4185, 42.1915], [27.3939, 42.1874], [27.3716, 42.2029], [27.3593, 42.2021], [27.3421, 42.1948], [27.3301, 42.1926], [27.3165, 42.2006], [27.304, 42.2005], [27.3064, 42.2113], [27.3129, 42.2216], [27.3312, 42.2306], [27.3339, 42.2352], [27.3331, 42.239], [27.325, 42.2486], [27.3165, 42.2689], [27.2951, 42.2818], [27.2921, 42.2894], [27.2951, 42.3089], [27.2924, 42.3176], [27.2926, 42.3197], [27.3144, 42.3305], [27.3232, 42.3383], [27.3258, 42.342], [27.329, 42.3531], [27.332, 42.3732], [27.3392, 42.3858], [27.3427, 42.3875]]], [[[27.6943, 42.4407], [27.6971, 42.4388], [27.6943, 42.4365], [27.6857, 42.4368], [27.689, 42.4407], [27.6943, 42.4407]]]]}}, {"type": "Feature", "properties": {"GID_2": "BGR.2.11_1", "GID_0": "BGR", "COUNTRY": "Bulgaria", "GID_1": "BGR.2_1", "NAME_1": "Burgas", "NL_NAME_1": "\u0411\u0443\u0440\u0433\u0430\u0441", "NAME_2": "Sredets", "VARNAME_2": "NA", "NL_NAME_2": "\u0421\u0440\u0435\u0434\u0435\u0446", "TYPE_2": "Obshtina", "ENGTYPE_2": "Municipality", "CC_2": "NA", "HASC_2": "BG.BR.SR"}, "geometry": {"type": "MultiPolygon", "coordinates": [[[[27.3601, 42.4161], [27.3682, 42.4047], [27.3679, 42.4006], [27.3623, 42.3964], [27.3452, 42.3896], [27.3392, 42.3858], [27.332, 42.3732], [27.329, 42.3531], [27.3258, 42.342], [27.3232, 42.3383], [27.3144, 42.3305], [27.2926, 42.3197], [27.2925, 42.3149], [27.2951, 42.3089], [27.2918, 42.2931], [27.2951, 42.2818], [27.3165, 42.2689], [27.325, 42.2486], [27.3331, 42.239], [27.3339, 42.2352], [27.3312, 42.2306], [27.3129, 42.2216], [27.3064, 42.2113], [27.304, 42.2005], [27.2785, 42.1975], [27.2705, 42.193], [27.2666, 42.1858], [27.266, 42.1749], [27.2793, 42.1504], [27.2821, 42.142], [27.2829, 42.1281], [27.281, 42.122], [27.2805, 42.1097], [27.2757, 42.1051], [27.2719, 42.1063], [27.2628, 42.1035], [27.2481, 42.1067], [27.2298, 42.1011], [27.2217, 42.0897], [27.208, 42.084], [27.2074, 42.0811], [27.2093, 42.0742], [27.2126, 42.0696], [27.2095, 42.0649], [27.2033, 42.065], [27.1864, 42.0742], [27.1824, 42.0742], [27.1716, 42.0701], [27.1485, 42.0723], [27.1397, 42.0751], [27.1239, 42.0869], [27.1142, 42.0902], [27.1029, 42.09], [27.0777, 42.0943], [27.0697, 42.0923], [27.0605, 42.087], [27.0509, 42.0839], [27.0385, 42.0838], [27.0426, 42.0888], [27.0462, 42.0976], [27.0437, 42.1025], [27.037, 42.1071], [27.0316, 42.1098], [26.9909, 42.1152], [26.9826, 42.1177], [26.9667, 42.1241], [26.9555, 42.133], [26.9442, 42.1519], [26.9434, 42.1591], [26.9451, 42.1692], [26.9427, 42.1755], [26.9428, 42.1812], [26.9444, 42.187], [26.9483, 42.191], [26.9589, 42.1949], [26.9688, 42.2017], [26.9697, 42.2069], [26.9675, 42.2126], [26.9638, 42.2161], [26.9489, 42.2239], [26.9386, 42.2347], [26.9358, 42.2423], [26.9429, 42.2591], [26.9589, 42.271], [26.9629, 42.2843], [26.9606, 42.2873], [26.9516, 42.2875], [26.9334, 42.2914], [26.9229, 42.2986], [26.9177, 42.3075], [26.9156, 42.3209], [26.9045, 42.3364], [26.8888, 42.3462], [26.8738, 42.3514], [26.8648, 42.3569], [26.8626, 42.3617], [26.8583, 42.3862], [26.8583, 42.3903], [26.8622, 42.3966], [26.8697, 42.3998], [26.9315, 42.4069], [26.9483, 42.4122], [26.9802, 42.4313], [26.9927, 42.4473], [27.008, 42.4484], [27.0152, 42.4515], [27.0455, 42.4482], [27.0647, 42.4538], [27.0849, 42.4562], [27.1019, 42.4625], [27.1094, 42.4624], [27.1266, 42.4664], [27.1384, 42.4657], [27.1434, 42.4627], [27.158, 42.444], [27.166, 42.4375], [27.1838, 42.4316], [27.1974, 42.4297], [27.2173, 42.4307], [27.2324, 42.4243], [27.2517, 42.4222], [27.2586, 42.4144], [27.2645, 42.4111], [27.2894, 42.4118], [27.3149, 42.4028], [27.3273, 42.4027], [27.3601, 42.4161]]]]}}, {"type": "Feature", "properties": {"GID_2": "BGR.2.12_1", "GID_0": "BGR", "COUNTRY": "Bulgaria", "GID_1": "BGR.2_1", "NAME_1": "Burgas", "NL_NAME_1": "\u0411\u0443\u0440\u0433\u0430\u0441", "NAME_2": "Sungurlare", "VARNAME_2": "NA", "NL_NAME_2": "NA", "TYPE_2": "Obshtina", "ENGTYPE_2": "Municipality", "CC_2": "NA", "HASC_2": "BG.BR.SU"}, "geometry": {"type": "MultiPolygon", "coordinates": [[[[27.0438, 42.8173], [27.0013, 42.8196], [26.9887, 42.8172], [26.9781, 42.8097], [26.9758, 42.8042], [26.9734, 42.7881], [26.9713, 42.7835], [26.9645, 42.7776], [26.9557, 42.7771], [26.9517, 42.7824], [26.9465, 42.7855], [26.9406, 42.7831], [26.9353, 42.774], [26.9284, 42.7733], [26.9257, 42.7796], [26.923, 42.7784], [26.9148, 42.7676], [26.9116, 42.7577], [26.9061, 42.7496], [26.904, 42.7434], [26.8976, 42.7364], [26.8906, 42.7324], [26.8575, 42.7249], [26.8468, 42.7188], [26.8424, 42.7142], [26.8395, 42.7058], [26.8388, 42.6935], [26.8415, 42.6692], [26.8393, 42.6627], [26.8362, 42.6599], [26.8295, 42.6577], [26.8176, 42.6577], [26.8123, 42.6599], [26.7927, 42.677], [26.7868, 42.6781], [26.7736, 42.6716], [26.7639, 42.6717], [26.7505, 42.6669], [26.743, 42.6717], [26.7327, 42.6857], [26.7166, 42.7031], [26.7115, 42.7072], [26.6988, 42.713], [26.7051, 42.7189], [26.7091, 42.7277], [26.7094, 42.7354], [26.7051, 42.7415], [26.6743, 42.7619], [26.6692, 42.7674], [26.6619, 42.78], [26.6516, 42.7827], [26.6451, 42.7908], [26.6403, 42.7937], [26.6054, 42.7944], [26.598, 42.7962], [26.5914, 42.8006], [26.5841, 42.8107], [26.5811, 42.8213], [26.5819, 42.8275], [26.5867, 42.8357], [26.5966, 42.8464], [26.5989, 42.8547], [26.5963, 42.8661], [26.5761, 42.8948], [26.5768, 42.9076], [26.5863, 42.9222], [26.5851, 42.9279], [26.58, 42.9288], [26.5796, 42.9339], [26.5803, 42.9361], [26.5858, 42.9398], [26.5997, 42.9424], [26.6202, 42.9422], [26.643, 42.9396], [26.6489, 42.9352], [26.6404, 42.9163], [26.6411, 42.9115], [26.6455, 42.9074], [26.6521, 42.9071], [26.6831, 42.9115], [26.7183, 42.9088], [26.728, 42.9101], [26.7537, 42.9232], [26.778, 42.9407], [26.7884, 42.9454], [26.8075, 42.9473], [26.8311, 42.9428], [26.8497, 42.9429], [26.8549, 42.9482], [26.8744, 42.95], [26.8929, 42.9456], [26.9104, 42.9377], [26.9243, 42.9363], [26.9468, 42.9433], [26.9607, 42.9413], [26.9733, 42.9457], [26.9889, 42.9466], [26.9996, 42.9325], [27.0058, 42.9271], [27.0154, 42.924], [27.0263, 42.9084], [27.0354, 42.9021], [27.0491, 42.8991], [27.0625, 42.8907], [27.0664, 42.8828], [27.074, 42.8741], [27.1031, 42.8523], [27.102, 42.8448], [27.0992, 42.8404], [27.0632, 42.8376], [27.0575, 42.8342], [27.0489, 42.8211], [27.0438, 42.8173]]]]}}, {"type": "Feature", "properties": {"GID_2": "BGR.2.13_1", "GID_0": "BGR", "COUNTRY": "Bulgaria", "GID_1": "BGR.2_1", "NAME_1": "Burgas", "NL_NAME_1": "\u0411\u0443\u0440\u0433\u0430\u0441", "NAME_2": "Tsarevo", "VARNAME_2": "Carevo|Tzarevo|Vasiliko|Michurin", "NL_NAME_2": "\u0426\u0430\u0440\u0435\u0432\u043e", "TYPE_2": "Obshtina", "ENGTYPE_2": "Municipality", "CC_2": "NA", "HASC_2": "BG.BR.CA"}, "geometry": {"type": "MultiPolygon", "coordinates": [[[[27.7541, 41.9598], [27.7635, 41.9673], [27.7705, 41.9807], [27.7673, 41.9903], [27.7601, 42.0037], [27.7448, 42.0196], [27.7253, 42.0275], [27.7134, 42.0341], [27.7054, 42.0435], [27.702, 42.0509], [27.6936, 42.0593], [27.6881, 42.0617], [27.6676, 42.0648], [27.6642, 42.0665], [27.6605, 42.08], [27.6458, 42.0915], [27.6395, 42.1005], [27.6376, 42.1074], [27.642, 42.1187], [27.65, 42.1277], [27.6542, 42.1381], [27.6501, 42.1525], [27.7893, 42.2174], [27.7924, 42.2149], [27.7962, 42.2143], [27.7971, 42.2157], [27.7985, 42.214], [27.8051, 42.2165], [27.8032, 42.2143], [27.804, 42.2121], [27.8104, 42.2104], [27.8107, 42.209], [27.8135, 42.2107], [27.8143, 42.2088], [27.8196, 42.2074], [27.8179, 42.2021], [27.8199, 42.1987], [27.824, 42.1993], [27.8246, 42.1974], [27.8282, 42.1974], [27.8301, 42.1993], [27.8299, 42.1932], [27.8337, 42.194], [27.8343, 42.1957], [27.8368, 42.1935], [27.8418, 42.1949], [27.841, 42.1918], [27.8376, 42.1912], [27.8363, 42.1888], [27.8388, 42.1879], [27.8429, 42.1896], [27.8438, 42.1854], [27.8468, 42.1868], [27.8465, 42.1843], [27.8432, 42.1815], [27.8451, 42.1787], [27.8493, 42.1804], [27.8526, 42.1787], [27.8529, 42.1774], [27.8507, 42.176], [27.851, 42.1735], [27.8599, 42.174], [27.8596, 42.1701], [27.8529, 42.1696], [27.8521, 42.1665], [27.8532, 42.1654], [27.8587, 42.1632], [27.8626, 42.166], [27.8635, 42.1643], [27.8621, 42.1632], [27.8662, 42.1618], [27.8649, 42.1585], [27.8676, 42.1563], [27.8701, 42.1568], [27.8715, 42.1599], [27.8743, 42.1613], [27.876, 42.1596], [27.8749, 42.1565], [27.8785, 42.1554], [27.8787, 42.1524], [27.8757, 42.1499], [27.8762, 42.1488], [27.8838, 42.1471], [27.8854, 42.1437], [27.8921, 42.1443], [27.894, 42.1424], [27.8962, 42.1435], [27.9001, 42.1379], [27.8985, 42.1346], [27.9035, 42.1346], [27.9046, 42.1287], [27.9088, 42.1293], [27.9132, 42.1271], [27.9146, 42.1229], [27.909, 42.1188], [27.914, 42.116], [27.9135, 42.1104], [27.9179, 42.1093], [27.9204, 42.106], [27.9229, 42.106], [27.9249, 42.1018], [27.9321, 42.1012], [27.9351, 42.1024], [27.9368, 42.1051], [27.9412, 42.1021], [27.9471, 42.1043], [27.9493, 42.1004], [27.9454, 42.1001], [27.944, 42.0985], [27.9465, 42.0968], [27.9504, 42.0985], [27.9501, 42.0946], [27.9562, 42.0921], [27.9562, 42.0854], [27.9626, 42.0829], [27.9651, 42.0835], [27.9626, 42.0776], [27.9679, 42.0762], [27.9679, 42.0737], [27.9701, 42.0724], [27.9688, 42.0685], [27.9704, 42.0657], [27.9718, 42.0671], [27.9743, 42.0657], [27.9779, 42.0662], [27.9788, 42.0643], [27.9807, 42.0654], [27.9826, 42.0624], [27.9849, 42.0646], [27.9918, 42.0638], [27.994, 42.059], [27.9854, 42.0551], [27.9854, 42.0535], [27.9907, 42.0532], [27.9926, 42.0499], [27.991, 42.0485], [27.9921, 42.0462], [27.9982, 42.0462], [28.0051, 42.0418], [28.0051, 42.0371], [28.0032, 42.0368], [28.0035, 42.0357], [28.0049, 42.034], [28.0101, 42.0332], [28.016, 42.0271], [28.0149, 42.0246], [28.0121, 42.0249], [28.0093, 42.0238], [28.0093, 42.0224], [28.0176, 42.0207], [28.0187, 42.0129], [28.0201, 42.0126], [28.0187, 42.0112], [28.0215, 42.0088], [28.0199, 42.0071], [28.024, 42.0051], [28.0224, 42.004], [28.034, 41.9943], [28.0365, 41.9854], [28.0347, 41.9824], [28.0313, 41.987], [28.0171, 41.986], [28.0193, 41.981], [28.0154, 41.9787], [27.9941, 41.9763], [27.976, 41.9769], [27.9653, 41.9845], [27.9606, 41.9835], [27.9574, 41.9789], [27.9399, 41.9724], [27.9379, 41.9778], [27.9314, 41.9748], [27.9192, 41.9776], [27.916, 41.9698], [27.9095, 41.9724], [27.9028, 41.9686], [27.8967, 41.9689], [27.8894, 41.9738], [27.8885, 41.9761], [27.8906, 41.9819], [27.8888, 41.9842], [27.8762, 41.9851], [27.8563, 41.9961], [27.8519, 41.9966], [27.8493, 41.9949], [27.8499, 41.986], [27.8464, 41.9837], [27.8432, 41.9834], [27.8422, 41.9916], [27.8378, 41.9914], [27.8364, 41.9834], [27.829, 41.9837], [27.821, 41.9867], [27.813, 41.9798], [27.8107, 41.9706], [27.8129, 41.9658], [27.8155, 41.9646], [27.8162, 41.9589], [27.8144, 41.954], [27.8165, 41.9511], [27.8192, 41.9506], [27.8243, 41.9533], [27.8269, 41.9514], [27.8274, 41.9454], [27.8244, 41.9423], [27.8202, 41.941], [27.8164, 41.9414], [27.8144, 41.9448], [27.8065, 41.9438], [27.8053, 41.9372], [27.8025, 41.9357], [27.7994, 41.9367], [27.7986, 41.9417], [27.7947, 41.9439], [27.7831, 41.9411], [27.7776, 41.946], [27.7736, 41.9452], [27.7725, 41.9464], [27.7787, 41.9542], [27.7766, 41.9557], [27.7701, 41.9582], [27.7636, 41.9546], [27.7541, 41.9598]]]]}}, {"type": "Feature", "properties": {"GID_2": "BGR.13.1_1", "GID_0": "BGR", "COUNTRY": "Bulgaria", "GID_1": "BGR.13_1", "NAME_1": "Pleven", "NL_NAME_1": "\u041f\u043b\u0435\u0432\u0435\u043d\u0441\u043a\u0430", "NAME_2": "Belene", "VARNAME_2": "NA", "NL_NAME_2": "\u0411\u0435\u043b\u0435\u043d\u0435", "TYPE_2": "Obshtina", "ENGTYPE_2": "Municipality", "CC_2": "NA", "HASC_2": "BG.PV.BE"}, "geometry": {"type": "MultiPolygon", "coordinates": [[[[25.209, 43.5689], [25.1895, 43.5614], [25.1768, 43.5507], [25.1688, 43.5466], [25.158, 43.5233], [25.1497, 43.5173], [25.0977, 43.5023], [25.0856, 43.5013], [25.0761, 43.5041], [25.0697, 43.5095], [25.0669, 43.514], [25.0642, 43.5258], [25.0583, 43.5341], [25.0601, 43.5394], [25.071, 43.5474], [25.0795, 43.5499], [25.1053, 43.5521], [25.1125, 43.5571], [25.1126, 43.5615], [25.0949, 43.5705], [25.0795, 43.5755], [25.0768, 43.5774], [25.073, 43.5868], [25.0689, 43.5906], [25.0618, 43.5902], [25.0396, 43.5746], [25.0273, 43.5716], [25.0025, 43.5754], [24.9871, 43.5811], [24.9818, 43.5869], [24.9826, 43.5925], [24.9849, 43.5958], [24.9948, 43.6025], [25.017, 43.6111], [25.027, 43.6168], [25.031, 43.6242], [25.0297, 43.6299], [25.0253, 43.6353], [25.0139, 43.6394], [24.985, 43.6414], [24.9733, 43.6458], [24.9644, 43.6525], [24.9601, 43.6579], [24.9585, 43.6614], [24.9589, 43.6724], [24.9651, 43.6781], [24.9778, 43.6815], [24.9885, 43.6889], [25.0208, 43.6862], [25.0373, 43.6888], [25.0478, 43.6956], [25.0598, 43.6914], [25.1128, 43.6842], [25.1341, 43.6905], [25.1441, 43.695], [25.1452, 43.693], [25.1688, 43.6978], [25.1688, 43.7001], [25.2131, 43.6905], [25.1956, 43.6653], [25.1971, 43.6488], [25.2216, 43.6249], [25.2253, 43.6159], [25.2237, 43.6109], [25.214, 43.6048], [25.2121, 43.601], [25.213, 43.5766], [25.209, 43.5689]]]]}}, {"type": "Feature", "properties": {"GID_2": "BGR.13.2_1", "GID_0": "BGR", "COUNTRY": "Bulgaria", "GID_1": "BGR.13_1", "NAME_1": "Pleven", "NL_NAME_1": "\u041f\u043b\u0435\u0432\u0435\u043d\u0441\u043a\u0430", "NAME_2": "ChervenBryag", "VARNAME_2": "NA", "NL_NAME_2": "\u0427\u0435\u0440\u0432\u0435\u043d\u0431\u0440\u044f\u0433", "TYPE_2": "Obshtina", "ENGTYPE_2": "Municipality", "CC_2": "NA", "HASC_2": "BG.PV.CB"}, "geometry": {"type": "MultiPolygon", "coordinates": [[[[24.3298, 43.2842], [24.32, 43.2727], [24.3131, 43.2708], [24.3006, 43.2737], [24.283, 43.2614], [24.2622, 43.2542], [24.2492, 43.2522], [24.229, 43.2501], [24.2148, 43.2517], [24.1962, 43.2503], [24.1815, 43.2513], [24.1566, 43.2583], [24.1453, 43.2594], [24.1285, 43.2575], [24.1158, 43.2533], [24.101, 43.2436], [24.0867, 43.2244], [24.0634, 43.2208], [24.0486, 43.2163], [24.0366, 43.2253], [24.0211, 43.234], [24.0167, 43.2348], [24.0044, 43.2336], [23.9952, 43.2268], [23.9887, 43.2261], [23.9847, 43.2276], [23.9715, 43.2418], [23.9688, 43.2492], [23.9777, 43.257], [23.9799, 43.2902], [23.9814, 43.2975], [23.9857, 43.3051], [23.9861, 43.3222], [23.9763, 43.3473], [23.9772, 43.3543], [23.9849, 43.3628], [24.0167, 43.377], [24.0383, 43.3721], [24.0499, 43.3721], [24.0668, 43.3751], [24.0892, 43.3698], [24.0968, 43.3699], [24.1021, 43.373], [24.1076, 43.3832], [24.1184, 43.3921], [24.1192, 43.4057], [24.1225, 43.4097], [24.1333, 43.4148], [24.1666, 43.423], [24.1914, 43.4358], [24.2077, 43.4408], [24.2198, 43.4403], [24.2337, 43.4344], [24.2381, 43.4351], [24.2441, 43.4386], [24.2457, 43.4257], [24.2349, 43.3923], [24.2351, 43.3788], [24.2396, 43.3739], [24.244, 43.3731], [24.2617, 43.3749], [24.2693, 43.3734], [24.2888, 43.3648], [24.3034, 43.3559], [24.3079, 43.3496], [24.3083, 43.3459], [24.3056, 43.3373], [24.3049, 43.3287], [24.3075, 43.3155], [24.304, 43.308], [24.3051, 43.2998], [24.3137, 43.2956], [24.3298, 43.2842]]]]}}, {"type": "Feature", "properties": {"GID_2": "BGR.13.3_1", "GID_0": "BGR", "COUNTRY": "Bulgaria", "GID_1": "BGR.13_1", "NAME_1": "Pleven", "NL_NAME_1": "\u041f\u043b\u0435\u0432\u0435\u043d\u0441\u043a\u0430", "NAME_2": "DolnaMitropoliya", "VARNAME_2": "DolnaMutropolia", "NL_NAME_2": "NA", "TYPE_2": "Obshtina", "ENGTYPE_2": "Municipality", "CC_2": "NA", "HASC_2": "BG.VT.GO"}, "geometry": {"type": "MultiPolygon", "coordinates": [[[[24.4879, 43.4504], [24.4572, 43.4618], [24.4379, 43.4652], [24.3672, 43.4636], [24.3503, 43.4664], [24.3427, 43.4703], [24.3367, 43.4784], [24.3357, 43.485], [24.3541, 43.5447], [24.3528, 43.5524], [24.3497, 43.5556], [24.3471, 43.5648], [24.3418, 43.5681], [24.3243, 43.5685], [24.3188, 43.571], [24.3183, 43.573], [24.323, 43.5789], [24.3324, 43.5853], [24.338, 43.5913], [24.3291, 43.5955], [24.3211, 43.6057], [24.3176, 43.6049], [24.315, 43.5952], [24.3116, 43.5916], [24.296, 43.5834], [24.2856, 43.5797], [24.2673, 43.5805], [24.2496, 43.5742], [24.2138, 43.5727], [24.1895, 43.5658], [24.1667, 43.5826], [24.1506, 43.5967], [24.1477, 43.6007], [24.1472, 43.609], [24.1517, 43.6127], [24.1708, 43.6105], [24.1831, 43.6155], [24.1915, 43.6224], [24.2118, 43.6547], [24.2217, 43.6635], [24.2334, 43.6627], [24.2533, 43.6474], [24.2606, 43.645], [24.2625, 43.6455], [24.2644, 43.649], [24.2665, 43.6603], [24.2717, 43.6624], [24.2757, 43.6613], [24.2868, 43.6513], [24.2972, 43.6516], [24.3045, 43.6619], [24.3117, 43.6823], [24.3211, 43.7003], [24.3501, 43.6977], [24.3831, 43.7131], [24.3808, 43.7161], [24.3844, 43.7199], [24.396, 43.7255], [24.3984, 43.7291], [24.4092, 43.7369], [24.4441, 43.7447], [24.4459, 43.7449], [24.4476, 43.7423], [24.4554, 43.7451], [24.4596, 43.7366], [24.4583, 43.7253], [24.4541, 43.7166], [24.4447, 43.7076], [24.4386, 43.693], [24.4462, 43.6791], [24.4485, 43.6665], [24.4534, 43.6622], [24.476, 43.6585], [24.4818, 43.6553], [24.5045, 43.6127], [24.5118, 43.6026], [24.52, 43.6002], [24.5303, 43.6023], [24.5506, 43.618], [24.5641, 43.6219], [24.608, 43.626], [24.6198, 43.6299], [24.6526, 43.6261], [24.6623, 43.6167], [24.6762, 43.6074], [24.6836, 43.5889], [24.6899, 43.5794], [24.6894, 43.5557], [24.7004, 43.5434], [24.6917, 43.5374], [24.688, 43.5299], [24.6895, 43.5246], [24.7023, 43.5133], [24.7051, 43.5073], [24.7055, 43.5038], [24.7023, 43.494], [24.6943, 43.4887], [24.6795, 43.4847], [24.6612, 43.4854], [24.6416, 43.4797], [24.6307, 43.4807], [24.6235, 43.483], [24.6097, 43.4914], [24.6005, 43.4936], [24.5901, 43.4912], [24.5723, 43.4814], [24.5664, 43.4827], [24.5584, 43.4886], [24.5549, 43.4889], [24.5526, 43.4846], [24.5536, 43.4768], [24.5525, 43.4679], [24.5497, 43.4633], [24.5402, 43.461], [24.5096, 43.4629], [24.4961, 43.459], [24.4902, 43.451], [24.4879, 43.4504]]]]}}, {"type": "Feature", "properties": {"GID_2": "BGR.13.4_1", "GID_0": "BGR", "COUNTRY": "Bulgaria", "GID_1": "BGR.13_1", "NAME_1": "Pleven", "NL_NAME_1": "\u041f\u043b\u0435\u0432\u0435\u043d\u0441\u043a\u0430", "NAME_2": "DolniDabnik", "VARNAME_2": "NA", "NL_NAME_2": "\u0414\u043e\u043b\u043d\u0438\u0414\u044a\u0431\u043d\u0438\u043a", "TYPE_2": "Obshtina", "ENGTYPE_2": "Municipality", "CC_2": "NA", "HASC_2": "BG.PV.DD"}, "geometry": {"type": "MultiPolygon", "coordinates": [[[[24.4125, 43.284], [24.3975, 43.2932], [24.3864, 43.2943], [24.371, 43.294], [24.3298, 43.2842], [24.3137, 43.2956], [24.3051, 43.2998], [24.304, 43.308], [24.3075, 43.3155], [24.3049, 43.3287], [24.3079, 43.3496], [24.2991, 43.359], [24.2738, 43.3719], [24.2739, 43.3809], [24.2752, 43.3825], [24.2914, 43.3872], [24.297, 43.3925], [24.3007, 43.4036], [24.3087, 43.4156], [24.3151, 43.421], [24.3325, 43.4295], [24.3329, 43.4464], [24.3399, 43.4613], [24.3468, 43.4678], [24.3672, 43.4636], [24.4379, 43.4652], [24.4572, 43.4618], [24.4877, 43.4506], [24.4909, 43.4476], [24.4931, 43.4293], [24.4935, 43.419], [24.4911, 43.4125], [24.4796, 43.4052], [24.4668, 43.4015], [24.4627, 43.3955], [24.4702, 43.3901], [24.4938, 43.3833], [24.5133, 43.3748], [24.5292, 43.3621], [24.5384, 43.3569], [24.555, 43.355], [24.5605, 43.3502], [24.5614, 43.3473], [24.5598, 43.3393], [24.5486, 43.3154], [24.5395, 43.3083], [24.528, 43.3035], [24.5206, 43.2979], [24.5064, 43.2953], [24.4916, 43.2951], [24.4916, 43.2917], [24.5045, 43.2877], [24.5063, 43.2855], [24.5071, 43.2825], [24.5048, 43.2774], [24.4921, 43.2766], [24.4827, 43.2789], [24.4679, 43.2905], [24.459, 43.2957], [24.4527, 43.2966], [24.4336, 43.2937], [24.4125, 43.284]]]]}}, {"type": "Feature", "properties": {"GID_2": "BGR.13.5_1", "GID_0": "BGR", "COUNTRY": "Bulgaria", "GID_1": "BGR.13_1", "NAME_1": "Pleven", "NL_NAME_1": "\u041f\u043b\u0435\u0432\u0435\u043d\u0441\u043a\u0430", "NAME_2": "Gulyantsi", "VARNAME_2": "NA", "NL_NAME_2": "NA", "TYPE_2": "Obshtina", "ENGTYPE_2": "Municipality", "CC_2": "NA", "HASC_2": "BG.PV.GU"}, "geometry": {"type": "MultiPolygon", "coordinates": [[[[24.7004, 43.5434], [24.6894, 43.5557], [24.6899, 43.5794], [24.6836, 43.5889], [24.6794, 43.6019], [24.6762, 43.6074], [24.6623, 43.6167], [24.6526, 43.6261], [24.6198, 43.6299], [24.608, 43.626], [24.5641, 43.6219], [24.5506, 43.618], [24.5303, 43.6023], [24.52, 43.6002], [24.5118, 43.6026], [24.5045, 43.6127], [24.4818, 43.6553], [24.476, 43.6585], [24.4534, 43.6622], [24.4485, 43.6665], [24.4462, 43.6791], [24.4386, 43.693], [24.4447, 43.7076], [24.4541, 43.7166], [24.4583, 43.7253], [24.4596, 43.7366], [24.4554, 43.7451], [24.4998, 43.7619], [24.5144, 43.7652], [24.5142, 43.7628], [24.5257, 43.7603], [24.5607, 43.7552], [24.5614, 43.7563], [24.5717, 43.7552], [24.5907, 43.7515], [24.6123, 43.7464], [24.6327, 43.7393], [24.6707, 43.7177], [24.6694, 43.7165], [24.685, 43.7053], [24.7063, 43.6941], [24.722, 43.6884], [24.7359, 43.6854], [24.754, 43.6874], [24.7811, 43.6983], [24.8007, 43.7082], [24.8, 43.7096], [24.8177, 43.7127], [24.8248, 43.6852], [24.8142, 43.6694], [24.813, 43.6623], [24.8087, 43.6551], [24.8079, 43.6499], [24.8185, 43.6274], [24.8191, 43.6167], [24.8155, 43.593], [24.8163, 43.5904], [24.8213, 43.5858], [24.8128, 43.585], [24.8037, 43.5789], [24.7958, 43.5778], [24.7865, 43.5732], [24.7799, 43.572], [24.7615, 43.5733], [24.7467, 43.5697], [24.7193, 43.5668], [24.7149, 43.5617], [24.7081, 43.5491], [24.7004, 43.5434]]]]}}, {"type": "Feature", "properties": {"GID_2": "BGR.13.6_1", "GID_0": "BGR", "COUNTRY": "Bulgaria", "GID_1": "BGR.13_1", "NAME_1": "Pleven", "NL_NAME_1": "\u041f\u043b\u0435\u0432\u0435\u043d\u0441\u043a\u0430", "NAME_2": "Iskar", "VARNAME_2": "NA", "NL_NAME_2": "NA", "TYPE_2": "Obshtina", "ENGTYPE_2": "Municipality", "CC_2": "NA", "HASC_2": "BG.PV.IS"}, "geometry": {"type": "MultiPolygon", "coordinates": [[[[24.2738, 43.3719], [24.2617, 43.3749], [24.2502, 43.3732], [24.2396, 43.3739], [24.2346, 43.3804], [24.2349, 43.3923], [24.2461, 43.429], [24.2414, 43.4461], [24.2342, 43.452], [24.2318, 43.4559], [24.2358, 43.4635], [24.2356, 43.4704], [24.2405, 43.4736], [24.2393, 43.4813], [24.2412, 43.4821], [24.2499, 43.4798], [24.2516, 43.4843], [24.2471, 43.487], [24.2268, 43.4891], [24.2186, 43.4919], [24.1867, 43.4947], [24.1784, 43.5003], [24.1777, 43.5157], [24.1887, 43.5571], [24.1895, 43.5658], [24.2138, 43.5727], [24.2496, 43.5742], [24.2673, 43.5805], [24.2856, 43.5797], [24.296, 43.5834], [24.3116, 43.5916], [24.315, 43.5952], [24.3176, 43.6049], [24.3211, 43.6057], [24.3291, 43.5955], [24.338, 43.5913], [24.3324, 43.5853], [24.323, 43.5789], [24.3183, 43.573], [24.3188, 43.571], [24.3243, 43.5685], [24.344, 43.567], [24.3484, 43.5632], [24.3497, 43.5556], [24.3528, 43.5524], [24.3533, 43.5395], [24.3426, 43.5104], [24.3357, 43.485], [24.3358, 43.4813], [24.339, 43.4745], [24.3468, 43.4678], [24.3399, 43.4613], [24.3329, 43.4464], [24.3325, 43.4295], [24.3151, 43.421], [24.3087, 43.4156], [24.3007, 43.4036], [24.297, 43.3925], [24.2914, 43.3872], [24.2752, 43.3825], [24.2739, 43.3809], [24.2738, 43.3719]]]]}}, {"type": "Feature", "properties": {"GID_2": "BGR.13.7_1", "GID_0": "BGR", "COUNTRY": "Bulgaria", "GID_1": "BGR.13_1", "NAME_1": "Pleven", "NL_NAME_1": "\u041f\u043b\u0435\u0432\u0435\u043d\u0441\u043a\u0430", "NAME_2": "Knezha", "VARNAME_2": "NA", "NL_NAME_2": "\u041a\u043d\u0435\u0436\u0430)", "TYPE_2": "Obshtina", "ENGTYPE_2": "Municipality", "CC_2": "NA", "HASC_2": "BG.PV.KN"}, "geometry": {"type": "MultiPolygon", "coordinates": [[[[24.2441, 43.4386], [24.2381, 43.4351], [24.2337, 43.4344], [24.2198, 43.4403], [24.2077, 43.4408], [24.1914, 43.4358], [24.1666, 43.423], [24.128, 43.4126], [24.1225, 43.4097], [24.1192, 43.4057], [24.1194, 43.3959], [24.1174, 43.3906], [24.1076, 43.3832], [24.1021, 43.373], [24.0968, 43.3699], [24.0892, 43.3698], [24.0668, 43.3751], [24.0499, 43.3721], [24.0383, 43.3721], [24.0167, 43.377], [24.0187, 43.3898], [24.0225, 43.3969], [24.027, 43.4013], [24.0391, 43.4059], [24.0486, 43.4118], [24.0545, 43.4194], [24.0658, 43.4252], [24.0768, 43.4366], [24.0805, 43.4452], [24.0798, 43.4521], [24.0767, 43.4574], [24.0489, 43.4757], [24.0415, 43.4847], [24.0368, 43.5109], [24.0301, 43.5258], [24.0262, 43.5299], [24.0232, 43.5365], [24.025, 43.5421], [24.038, 43.5526], [24.0395, 43.5561], [24.0473, 43.5946], [24.0468, 43.607], [24.0555, 43.6105], [24.0661, 43.6202], [24.072, 43.6228], [24.08, 43.623], [24.0959, 43.618], [24.1017, 43.6187], [24.1092, 43.6242], [24.1144, 43.6256], [24.1215, 43.6242], [24.1302, 43.6149], [24.1448, 43.6148], [24.1501, 43.6123], [24.1469, 43.6069], [24.149, 43.5986], [24.1611, 43.5872], [24.1823, 43.5722], [24.1899, 43.5647], [24.1777, 43.5157], [24.1784, 43.5003], [24.1824, 43.4966], [24.1895, 43.4938], [24.2186, 43.4919], [24.2268, 43.4891], [24.25, 43.4862], [24.2518, 43.4829], [24.2499, 43.4798], [24.2412, 43.4821], [24.2393, 43.4813], [24.2405, 43.4736], [24.2356, 43.4704], [24.2358, 43.4635], [24.2318, 43.4559], [24.2342, 43.452], [24.2405, 43.4474], [24.2441, 43.4386]]]]}}, {"type": "Feature", "properties": {"GID_2": "BGR.13.8_1", "GID_0": "BGR", "COUNTRY": "Bulgaria", "GID_1": "BGR.13_1", "NAME_1": "Pleven", "NL_NAME_1": "\u041f\u043b\u0435\u0432\u0435\u043d\u0441\u043a\u0430", "NAME_2": "Levski", "VARNAME_2": "NA", "NL_NAME_2": "\u041b\u0435\u0432\u0441\u043a\u0438", "TYPE_2": "Obshtina", "ENGTYPE_2": "Municipality", "CC_2": "NA", "HASC_2": "BG.PV.LE"}, "geometry": {"type": "MultiPolygon", "coordinates": [[[[25.164, 43.2867], [25.1087, 43.3123], [25.0991, 43.3253], [25.0973, 43.3378], [25.0854, 43.365], [25.0755, 43.3786], [25.0622, 43.3893], [25.039, 43.3962], [25.0195, 43.3989], [24.9939, 43.3997], [24.9658, 43.3934], [24.952, 43.3981], [24.9492, 43.4031], [24.948, 43.4121], [24.9481, 43.4363], [24.9544, 43.448], [24.9667, 43.4593], [24.9672, 43.4631], [24.9636, 43.4677], [24.9472, 43.4738], [24.9456, 43.481], [24.9418, 43.487], [24.9231, 43.4989], [24.9103, 43.5102], [24.9384, 43.507], [24.9916, 43.5041], [24.9993, 43.5054], [25.0068, 43.5102], [25.005, 43.5185], [25.0094, 43.5219], [25.0275, 43.5243], [25.0476, 43.5316], [25.0587, 43.5336], [25.0642, 43.5258], [25.0669, 43.514], [25.0725, 43.5066], [25.0856, 43.5013], [25.0928, 43.5015], [25.1497, 43.5173], [25.158, 43.5233], [25.1688, 43.5466], [25.1768, 43.5507], [25.1895, 43.5614], [25.1984, 43.5658], [25.209, 43.5689], [25.2268, 43.5544], [25.2315, 43.5484], [25.2337, 43.5423], [25.2285, 43.5336], [25.2188, 43.5251], [25.214, 43.5169], [25.2129, 43.5094], [25.2151, 43.4829], [25.2128, 43.4748], [25.1982, 43.4632], [25.1852, 43.4574], [25.1758, 43.4548], [25.144, 43.4519], [25.1329, 43.4492], [25.1302, 43.4448], [25.1301, 43.4405], [25.1381, 43.4296], [25.1434, 43.4266], [25.1495, 43.4258], [25.1667, 43.4273], [25.2093, 43.4355], [25.2245, 43.434], [25.2358, 43.4303], [25.2398, 43.4249], [25.2385, 43.4136], [25.2122, 43.39], [25.2068, 43.383], [25.2059, 43.3783], [25.2106, 43.3755], [25.2164, 43.375], [25.2513, 43.3754], [25.2687, 43.3738], [25.2748, 43.3574], [25.2739, 43.3513], [25.2677, 43.337], [25.2545, 43.324], [25.2306, 43.3108], [25.213, 43.3063], [25.1997, 43.2983], [25.1902, 43.2956], [25.1885, 43.2934], [25.164, 43.2867]]]]}}, {"type": "Feature", "properties": {"GID_2": "BGR.13.9_1", "GID_0": "BGR", "COUNTRY": "Bulgaria", "GID_1": "BGR.13_1", "NAME_1": "Pleven", "NL_NAME_1": "\u041f\u043b\u0435\u0432\u0435\u043d\u0441\u043a\u0430", "NAME_2": "Nikopol", "VARNAME_2": "NA", "NL_NAME_2": "\u041d\u0438\u043a\u043e\u043f\u043e\u043b", "TYPE_2": "Obshtina", "ENGTYPE_2": "Municipality", "CC_2": "NA", "HASC_2": "BG.PV.NI"}, "geometry": {"type": "MultiPolygon", "coordinates": [[[[25.0478, 43.6956], [25.0373, 43.6888], [25.0208, 43.6862], [24.9885, 43.6889], [24.9778, 43.6815], [24.9651, 43.6781], [24.9589, 43.6724], [24.9585, 43.6614], [24.9601, 43.6579], [24.9644, 43.6525], [24.9733, 43.6458], [24.985, 43.6414], [25.0139, 43.6394], [25.0253, 43.6353], [25.0297, 43.6299], [25.031, 43.6242], [25.027, 43.6168], [25.017, 43.6111], [24.9948, 43.6025], [24.9875, 43.5978], [24.9826, 43.5925], [24.9829, 43.5843], [24.9882, 43.5804], [24.9971, 43.5769], [25.0273, 43.5716], [25.0396, 43.5746], [25.0618, 43.5902], [25.0689, 43.5906], [25.073, 43.5868], [25.0768, 43.5774], [25.0795, 43.5755], [25.0949, 43.5705], [25.1126, 43.5615], [25.1125, 43.5571], [25.11, 43.5544], [25.1053, 43.5521], [25.0795, 43.5499], [25.071, 43.5474], [25.0601, 43.5394], [25.0587, 43.5336], [25.0476, 43.5316], [25.0275, 43.5243], [25.0094, 43.5219], [25.005, 43.5185], [25.0068, 43.5102], [24.9993, 43.5054], [24.9916, 43.5041], [24.9384, 43.507], [24.9173, 43.5104], [24.9027, 43.5109], [24.8935, 43.5141], [24.8763, 43.5239], [24.8717, 43.531], [24.871, 43.5372], [24.8669, 43.5395], [24.8638, 43.5393], [24.8502, 43.5316], [24.8438, 43.5301], [24.8353, 43.5314], [24.8328, 43.536], [24.8329, 43.5453], [24.8457, 43.5564], [24.8462, 43.5595], [24.8305, 43.5674], [24.8286, 43.5697], [24.829, 43.5753], [24.8269, 43.5823], [24.8163, 43.5904], [24.8155, 43.5967], [24.8191, 43.6167], [24.8185, 43.6274], [24.8079, 43.6499], [24.8087, 43.6551], [24.813, 43.6623], [24.8142, 43.6694], [24.8248, 43.6852], [24.8177, 43.7127], [24.8378, 43.7129], [24.8573, 43.7071], [24.8653, 43.7062], [24.8806, 43.7071], [24.9196, 43.7156], [24.9344, 43.7163], [24.9346, 43.7236], [24.949, 43.7296], [25.0, 43.7276], [25.0092, 43.7249], [25.0183, 43.7152], [25.017, 43.7141], [25.038, 43.7037], [25.0478, 43.6956]]]]}}, {"type": "Feature", "properties": {"GID_2": "BGR.13.10_1", "GID_0": "BGR", "COUNTRY": "Bulgaria", "GID_1": "BGR.13_1", "NAME_1": "Pleven", "NL_NAME_1": "\u041f\u043b\u0435\u0432\u0435\u043d\u0441\u043a\u0430", "NAME_2": "Pleven", "VARNAME_2": "Plevenska", "NL_NAME_2": "\u041f\u043b\u0435\u0432\u0435\u043d\u0441\u043a\u0430", "TYPE_2": "City", "ENGTYPE_2": "City", "CC_2": "NA", "HASC_2": "BG.PV.PL"}, "geometry": {"type": "MultiPolygon", "coordinates": [[[[24.4594, 43.246], [24.4513, 43.2591], [24.4156, 43.2764], [24.4129, 43.2793], [24.4125, 43.284], [24.4336, 43.2937], [24.4527, 43.2966], [24.459, 43.2957], [24.4679, 43.2905], [24.4827, 43.2789], [24.4921, 43.2766], [24.5048, 43.2774], [24.5071, 43.2825], [24.5063, 43.2855], [24.5045, 43.2877], [24.4916, 43.2917], [24.4916, 43.2951], [24.5164, 43.2965], [24.5306, 43.3049], [24.5395, 43.3083], [24.5486, 43.3154], [24.5598, 43.3393], [24.5614, 43.3473], [24.5605, 43.3502], [24.555, 43.355], [24.5384, 43.3569], [24.5292, 43.3621], [24.5133, 43.3748], [24.4938, 43.3833], [24.4702, 43.3901], [24.4627, 43.3955], [24.4668, 43.4015], [24.4796, 43.4052], [24.4911, 43.4125], [24.4937, 43.423], [24.4909, 43.4476], [24.4879, 43.4504], [24.4902, 43.451], [24.4938, 43.457], [24.4996, 43.4604], [24.5096, 43.4629], [24.5402, 43.461], [24.5497, 43.4633], [24.5525, 43.4679], [24.5536, 43.4768], [24.5526, 43.4846], [24.5549, 43.4889], [24.5584, 43.4886], [24.5664, 43.4827], [24.5723, 43.4814], [24.5901, 43.4912], [24.6005, 43.4936], [24.6097, 43.4914], [24.6235, 43.483], [24.6377, 43.4795], [24.6458, 43.4804], [24.6612, 43.4854], [24.6795, 43.4847], [24.6902, 43.4869], [24.7006, 43.492], [24.7033, 43.496], [24.7055, 43.5038], [24.7044, 43.5103], [24.7023, 43.5133], [24.6895, 43.5246], [24.6884, 43.5318], [24.6917, 43.5374], [24.7081, 43.5491], [24.7149, 43.5617], [24.7193, 43.5668], [24.7467, 43.5697], [24.7615, 43.5733], [24.7799, 43.572], [24.7865, 43.5732], [24.7958, 43.5778], [24.8037, 43.5789], [24.8097, 43.5837], [24.8178, 43.586], [24.8216, 43.5858], [24.8269, 43.5823], [24.829, 43.5753], [24.8286, 43.5697], [24.8305, 43.5674], [24.8462, 43.5595], [24.8457, 43.5564], [24.8329, 43.5453], [24.8328, 43.536], [24.8353, 43.5314], [24.8438, 43.5301], [24.8502, 43.5316], [24.8638, 43.5393], [24.8691, 43.5388], [24.871, 43.5372], [24.8737, 43.5264], [24.8763, 43.5239], [24.8935, 43.5141], [24.9115, 43.5096], [24.9141, 43.5056], [24.9231, 43.4989], [24.9418, 43.487], [24.9456, 43.481], [24.9472, 43.4738], [24.9453, 43.4722], [24.9031, 43.4595], [24.8953, 43.4542], [24.8845, 43.4429], [24.8766, 43.4382], [24.8472, 43.4328], [24.8277, 43.4366], [24.8164, 43.4361], [24.7928, 43.4303], [24.786, 43.4259], [24.7799, 43.4098], [24.7689, 43.3973], [24.767, 43.3923], [24.7662, 43.3885], [24.7694, 43.3806], [24.7805, 43.3714], [24.7938, 43.3661], [24.8106, 43.3647], [24.8354, 43.373], [24.8562, 43.3669], [24.8575, 43.3657], [24.8572, 43.3616], [24.8457, 43.3507], [24.839, 43.3361], [24.838, 43.3279], [24.8091, 43.3266], [24.7729, 43.3155], [24.7445, 43.3044], [24.7174, 43.2914], [24.7043, 43.2824], [24.6962, 43.2748], [24.689, 43.2598], [24.6867, 43.2584], [24.6812, 43.2583], [24.6773, 43.2609], [24.6708, 43.2687], [24.6671, 43.2794], [24.6628, 43.2817], [24.6523, 43.2738], [24.6476, 43.2579], [24.6471, 43.2406], [24.6425, 43.2348], [24.6351, 43.2313], [24.6105, 43.2301], [24.5929, 43.2263], [24.5448, 43.2279], [24.5128, 43.2375], [24.4717, 43.2385], [24.4641, 43.2415], [24.4594, 43.246]]]]}}, {"type": "Feature", "properties": {"GID_2": "BGR.13.11_1", "GID_0": "BGR", "COUNTRY": "Bulgaria", "GID_1": "BGR.13_1", "NAME_1": "Pleven", "NL_NAME_1": "\u041f\u043b\u0435\u0432\u0435\u043d\u0441\u043a\u0430", "NAME_2": "Pordim", "VARNAME_2": "NA", "NL_NAME_2": "NA", "TYPE_2": "Obshtina", "ENGTYPE_2": "Municipality", "CC_2": "NA", "HASC_2": "BG.PV.PO"}, "geometry": {"type": "MultiPolygon", "coordinates": [[[[25.0346, 43.3971], [25.0293, 43.395], [25.0281, 43.3924], [25.0262, 43.3711], [25.0199, 43.3622], [25.0171, 43.3522], [25.0143, 43.3496], [24.9929, 43.3367], [24.986, 43.336], [24.9751, 43.3276], [24.9554, 43.3208], [24.9388, 43.3114], [24.9256, 43.2983], [24.9176, 43.2964], [24.9117, 43.298], [24.9033, 43.3052], [24.8973, 43.308], [24.869, 43.3128], [24.838, 43.3279], [24.839, 43.3361], [24.8457, 43.3507], [24.8572, 43.3616], [24.8575, 43.3657], [24.8562, 43.3669], [24.8354, 43.373], [24.8106, 43.3647], [24.7938, 43.3661], [24.7805, 43.3714], [24.7721, 43.3773], [24.7662, 43.3885], [24.7689, 43.3973], [24.7799, 43.4098], [24.7832, 43.4164], [24.7846, 43.4233], [24.7888, 43.4287], [24.8164, 43.4361], [24.8277, 43.4366], [24.8472, 43.4328], [24.8607, 43.4362], [24.8722, 43.4368], [24.8845, 43.4429], [24.8953, 43.4542], [24.9031, 43.4595], [24.9287, 43.4681], [24.9409, 43.4702], [24.9472, 43.4738], [24.9636, 43.4677], [24.9658, 43.4659], [24.9674, 43.4614], [24.9657, 43.458], [24.9544, 43.448], [24.9481, 43.4363], [24.948, 43.4121], [24.9492, 43.4031], [24.952, 43.3981], [24.9658, 43.3934], [24.9939, 43.3997], [25.0346, 43.3971]]]]}}, {"type": "Feature", "properties": {"GID_2": "BGR.28.1_1", "GID_0": "BGR", "COUNTRY": "Bulgaria", "GID_1": "BGR.28_1", "NAME_1": "Yambol", "NL_NAME_1": "\u042f\u043c\u0431\u043e\u043b", "NAME_2": "Bolyarovo", "VARNAME_2": "NA", "NL_NAME_2": "\u0411\u043e\u043b\u044f\u0440\u043e\u0432\u043e", "TYPE_2": "Obshtina", "ENGTYPE_2": "Municipality", "CC_2": "NA", "HASC_2": "BG.YA.BO"}, "geometry": {"type": "MultiPolygon", "coordinates": [[[[26.9232, 42.2993], [26.9266, 42.295], [26.9334, 42.2914], [26.9516, 42.2875], [26.9606, 42.2873], [26.9629, 42.2843], [26.9589, 42.271], [26.9429, 42.2591], [26.9358, 42.2423], [26.9386, 42.2347], [26.9489, 42.2239], [26.9638, 42.2161], [26.9675, 42.2126], [26.9697, 42.2069], [26.9688, 42.2017], [26.9589, 42.1949], [26.9483, 42.191], [26.9444, 42.187], [26.9427, 42.1755], [26.9451, 42.1692], [26.9434, 42.1591], [26.9442, 42.1519], [26.9555, 42.133], [26.9667, 42.1241], [26.9909, 42.1152], [27.0316, 42.1098], [27.037, 42.1071], [27.0437, 42.1025], [27.0462, 42.0976], [27.0426, 42.0888], [27.0385, 42.0838], [27.0281, 42.0812], [27.0304, 42.065], [27.0196, 42.0506], [27.0145, 42.0462], [27.0026, 42.0406], [26.9878, 42.0374], [26.9831, 42.0332], [26.9831, 42.0172], [26.976, 42.0082], [26.9681, 42.0021], [26.9427, 42.001], [26.9181, 41.9929], [26.865, 41.9874], [26.8511, 41.9798], [26.8483, 41.9748], [26.8385, 41.9694], [26.7957, 41.9743], [26.7849, 41.9779], [26.7812, 41.978], [26.7773, 41.9759], [26.7783, 41.993], [26.783, 42.0037], [26.7814, 42.0087], [26.7718, 42.0104], [26.7562, 42.0082], [26.7369, 42.0143], [26.7339, 42.0185], [26.7332, 42.0279], [26.7382, 42.0539], [26.7292, 42.0655], [26.729, 42.0738], [26.7313, 42.0816], [26.7293, 42.0852], [26.7299, 42.0881], [26.7352, 42.0997], [26.7349, 42.1111], [26.7306, 42.1269], [26.7249, 42.1312], [26.7139, 42.1352], [26.7069, 42.1487], [26.6974, 42.1621], [26.697, 42.1674], [26.6995, 42.1743], [26.7077, 42.1795], [26.712, 42.1853], [26.7118, 42.1912], [26.7077, 42.1961], [26.7032, 42.2062], [26.7041, 42.2148], [26.714, 42.2253], [26.7253, 42.2307], [26.7412, 42.242], [26.7454, 42.2588], [26.7609, 42.275], [26.7629, 42.2807], [26.7999, 42.2796], [26.8357, 42.2744], [26.8488, 42.2777], [26.8563, 42.2835], [26.8611, 42.2899], [26.8753, 42.2923], [26.879, 42.2901], [26.8853, 42.2899], [26.9011, 42.2939], [26.9105, 42.2924], [26.9163, 42.2935], [26.9232, 42.2993]]]]}}, {"type": "Feature", "properties": {"GID_2": "BGR.28.2_1", "GID_0": "BGR", "COUNTRY": "Bulgaria", "GID_1": "BGR.28_1", "NAME_1": "Yambol", "NL_NAME_1": "\u042f\u043c\u0431\u043e\u043b", "NAME_2": "Elhovo", "VARNAME_2": "NA", "NL_NAME_2": "\u0415\u043b\u0445\u043e\u0432\u043e", "TYPE_2": "Obshtina", "ENGTYPE_2": "Municipality", "CC_2": "NA", "HASC_2": "BG.YA.EL"}, "geometry": {"type": "MultiPolygon", "coordinates": [[[[26.5789, 41.9415], [26.5725, 41.9438], [26.5591, 41.937], [26.5534, 41.942], [26.5479, 41.9534], [26.5248, 41.9684], [26.5233, 41.9718], [26.5249, 41.9816], [26.5104, 41.9931], [26.5084, 42.0087], [26.4921, 42.0172], [26.4906, 42.0198], [26.4912, 42.0265], [26.4956, 42.0309], [26.5169, 42.0343], [26.5189, 42.0369], [26.52, 42.0534], [26.5105, 42.0704], [26.5064, 42.0902], [26.5081, 42.0948], [26.5203, 42.1124], [26.5229, 42.1234], [26.531, 42.1338], [26.5334, 42.1416], [26.5293, 42.1434], [26.5079, 42.1427], [26.5012, 42.1477], [26.495, 42.1587], [26.4951, 42.1617], [26.491, 42.164], [26.479, 42.1628], [26.4562, 42.1551], [26.443, 42.1578], [26.4365, 42.1639], [26.4264, 42.1695], [26.42, 42.1703], [26.3962, 42.162], [26.3877, 42.1621], [26.3822, 42.1643], [26.3756, 42.1685], [26.3722, 42.1739], [26.3743, 42.184], [26.3804, 42.1972], [26.3778, 42.2129], [26.379, 42.2196], [26.3837, 42.2236], [26.3938, 42.2278], [26.4002, 42.2345], [26.4079, 42.2378], [26.4148, 42.2369], [26.4342, 42.2295], [26.4418, 42.2286], [26.4621, 42.2338], [26.474, 42.2296], [26.4823, 42.2291], [26.5055, 42.2366], [26.5122, 42.2361], [26.5245, 42.2319], [26.5351, 42.2315], [26.5421, 42.2342], [26.5472, 42.2417], [26.56, 42.2446], [26.5669, 42.2504], [26.5821, 42.2543], [26.5849, 42.2616], [26.5813, 42.2673], [26.5805, 42.277], [26.5858, 42.2822], [26.5994, 42.2873], [26.6146, 42.2884], [26.624, 42.2907], [26.633, 42.2942], [26.6488, 42.3036], [26.6672, 42.3092], [26.6779, 42.3096], [26.6862, 42.3049], [26.6951, 42.3043], [26.7146, 42.3141], [26.7458, 42.3176], [26.7507, 42.312], [26.7522, 42.3059], [26.7619, 42.2881], [26.7631, 42.2819], [26.7623, 42.2774], [26.7454, 42.2588], [26.7412, 42.242], [26.7253, 42.2307], [26.714, 42.2253], [26.7041, 42.2148], [26.7032, 42.2062], [26.7077, 42.1961], [26.7118, 42.1912], [26.712, 42.1853], [26.7077, 42.1795], [26.6995, 42.1743], [26.6967, 42.165], [26.7005, 42.1563], [26.7069, 42.1487], [26.7139, 42.1352], [26.7249, 42.1312], [26.7306, 42.1269], [26.7344, 42.1135], [26.7352, 42.0997], [26.7299, 42.0881], [26.7293, 42.0852], [26.7313, 42.0816], [26.729, 42.0738], [26.7292, 42.0655], [26.7382, 42.0539], [26.7332, 42.0279], [26.7339, 42.0185], [26.7369, 42.0143], [26.7562, 42.0082], [26.7718, 42.0104], [26.7814, 42.0087], [26.783, 42.0037], [26.7783, 41.993], [26.7773, 41.9759], [26.7601, 41.9641], [26.7511, 41.9545], [26.7389, 41.9577], [26.7321, 41.956], [26.7233, 41.9566], [26.7135, 41.9611], [26.7014, 41.9608], [26.6887, 41.9647], [26.6644, 41.9656], [26.6445, 41.9697], [26.6283, 41.9771], [26.6234, 41.9769], [26.6198, 41.9703], [26.6195, 41.9639], [26.5928, 41.9513], [26.5789, 41.9415]]]]}}, {"type": "Feature", "properties": {"GID_2": "BGR.28.3_1", "GID_0": "BGR", "COUNTRY": "Bulgaria", "GID_1": "BGR.28_1", "NAME_1": "Yambol", "NL_NAME_1": "\u042f\u043c\u0431\u043e\u043b", "NAME_2": "Straldzha", "VARNAME_2": "NA", "NL_NAME_2": "\u0421\u0442\u0440\u0430\u043b\u0434\u0436\u0430", "TYPE_2": "Obshtina", "ENGTYPE_2": "Municipality", "CC_2": "NA", "HASC_2": "BG.YA.ST"}, "geometry": {"type": "MultiPolygon", "coordinates": [[[[26.7505, 42.6669], [26.7503, 42.6641], [26.7532, 42.66], [26.7599, 42.6552], [26.7703, 42.6422], [26.7899, 42.6237], [26.7921, 42.6179], [26.792, 42.6057], [26.7972, 42.5946], [26.8001, 42.5806], [26.8069, 42.5688], [26.825, 42.5438], [26.8356, 42.5341], [26.846, 42.5122], [26.852, 42.505], [26.8696, 42.4985], [26.8726, 42.4955], [26.8723, 42.4758], [26.8737, 42.4659], [26.8744, 42.4624], [26.8796, 42.4546], [26.8841, 42.4516], [26.8918, 42.4501], [26.9269, 42.4529], [26.9398, 42.4513], [26.9518, 42.4399], [26.9584, 42.427], [26.9639, 42.4221], [26.9483, 42.4122], [26.9391, 42.4084], [26.8697, 42.3998], [26.8622, 42.3966], [26.8583, 42.3903], [26.8604, 42.3728], [26.8648, 42.3569], [26.8685, 42.3539], [26.8888, 42.3462], [26.9007, 42.3394], [26.9126, 42.3262], [26.9156, 42.3209], [26.9177, 42.3075], [26.9232, 42.2993], [26.9163, 42.2935], [26.9105, 42.2924], [26.9011, 42.2939], [26.8816, 42.2896], [26.8753, 42.2923], [26.8653, 42.291], [26.8611, 42.2899], [26.8563, 42.2835], [26.8488, 42.2777], [26.8357, 42.2744], [26.7999, 42.2796], [26.7629, 42.2807], [26.7629, 42.2856], [26.7599, 42.2926], [26.7522, 42.3059], [26.7507, 42.312], [26.7453, 42.3185], [26.7426, 42.3343], [26.7382, 42.3389], [26.7288, 42.344], [26.704, 42.363], [26.6991, 42.3754], [26.6995, 42.3837], [26.7027, 42.3899], [26.7101, 42.3962], [26.7182, 42.4005], [26.7228, 42.4111], [26.7318, 42.4145], [26.7402, 42.4242], [26.7523, 42.4278], [26.7545, 42.4314], [26.7561, 42.4415], [26.7541, 42.4456], [26.7463, 42.4511], [26.7207, 42.4591], [26.7181, 42.4612], [26.7078, 42.474], [26.7048, 42.4846], [26.6982, 42.4932], [26.6821, 42.4963], [26.6708, 42.5021], [26.6346, 42.5257], [26.6122, 42.5338], [26.606, 42.5346], [26.597, 42.5451], [26.5755, 42.5556], [26.5809, 42.5656], [26.5804, 42.5712], [26.5689, 42.5898], [26.5794, 42.5936], [26.5984, 42.6062], [26.6102, 42.6114], [26.6189, 42.6203], [26.6276, 42.637], [26.6306, 42.6389], [26.635, 42.6401], [26.638, 42.6389], [26.6431, 42.6334], [26.6475, 42.6317], [26.6519, 42.6313], [26.6556, 42.6331], [26.6578, 42.6353], [26.6602, 42.644], [26.6721, 42.6558], [26.674, 42.6595], [26.6705, 42.6762], [26.6716, 42.685], [26.6698, 42.694], [26.6636, 42.7092], [26.6662, 42.7192], [26.6743, 42.7202], [26.6886, 42.7174], [26.7115, 42.7072], [26.7327, 42.6857], [26.743, 42.6717], [26.7505, 42.6669]]]]}}, {"type": "Feature", "properties": {"GID_2": "BGR.28.4_1", "GID_0": "BGR", "COUNTRY": "Bulgaria", "GID_1": "BGR.28_1", "NAME_1": "Yambol", "NL_NAME_1": "\u042f\u043c\u0431\u043e\u043b", "NAME_2": "Tundzha", "VARNAME_2": "Tunca", "NL_NAME_2": "\u0422\u0443\u043d\u0434\u0436\u0430", "TYPE_2": "Obshtina", "ENGTYPE_2": "Municipality", "CC_2": "NA", "HASC_2": "BG.YA.TU"}, "geometry": {"type": "MultiPolygon", "coordinates": [[[[26.3722, 42.1739], [26.329, 42.1794], [26.3245, 42.185], [26.3178, 42.1892], [26.3137, 42.1896], [26.3042, 42.198], [26.2899, 42.2028], [26.2531, 42.2074], [26.2366, 42.2168], [26.2273, 42.2202], [26.2134, 42.2224], [26.2081, 42.2255], [26.1926, 42.2296], [26.1873, 42.233], [26.1853, 42.2368], [26.179, 42.2396], [26.1814, 42.2551], [26.1861, 42.267], [26.2053, 42.2992], [26.2268, 42.3264], [26.2351, 42.3392], [26.2513, 42.3777], [26.2511, 42.3897], [26.2489, 42.392], [26.2435, 42.3923], [26.2202, 42.3777], [26.2154, 42.3755], [26.2084, 42.3761], [26.1874, 42.405], [26.1842, 42.4138], [26.184, 42.4198], [26.1896, 42.4247], [26.1966, 42.4248], [26.2105, 42.4191], [26.2281, 42.4201], [26.23, 42.4253], [26.2297, 42.4336], [26.2245, 42.4545], [26.2295, 42.4612], [26.2379, 42.4655], [26.2474, 42.4657], [26.2746, 42.4587], [26.28, 42.4597], [26.3014, 42.4522], [26.3098, 42.4538], [26.3147, 42.4571], [26.3186, 42.4652], [26.3339, 42.4701], [26.341, 42.4744], [26.3498, 42.4889], [26.3558, 42.4934], [26.3858, 42.5056], [26.3877, 42.5129], [26.3863, 42.5216], [26.3791, 42.5328], [26.3696, 42.538], [26.3687, 42.5411], [26.3708, 42.5447], [26.3936, 42.5631], [26.4003, 42.5669], [26.4061, 42.5683], [26.4149, 42.5678], [26.4297, 42.5614], [26.4382, 42.5594], [26.4635, 42.5604], [26.474, 42.5636], [26.4827, 42.5702], [26.5135, 42.586], [26.5283, 42.5865], [26.543, 42.5839], [26.5567, 42.5839], [26.5689, 42.5898], [26.5804, 42.5712], [26.5809, 42.5656], [26.5755, 42.5556], [26.5791, 42.5528], [26.597, 42.5451], [26.606, 42.5346], [26.6122, 42.5338], [26.6346, 42.5257], [26.6785, 42.498], [26.6982, 42.4932], [26.7048, 42.4846], [26.7078, 42.474], [26.7181, 42.4612], [26.7207, 42.4591], [26.7463, 42.4511], [26.7541, 42.4456], [26.7561, 42.4415], [26.7545, 42.4314], [26.7523, 42.4278], [26.7402, 42.4242], [26.7318, 42.4145], [26.7228, 42.4111], [26.7182, 42.4005], [26.7101, 42.3962], [26.7027, 42.3899], [26.6995, 42.3837], [26.6992, 42.3796], [26.6991, 42.3754], [26.704, 42.363], [26.7288, 42.344], [26.7382, 42.3389], [26.7426, 42.3343], [26.7458, 42.3176], [26.7146, 42.3141], [26.6951, 42.3043], [26.6862, 42.3049], [26.6779, 42.3096], [26.6672, 42.3092], [26.6488, 42.3036], [26.633, 42.2942], [26.624, 42.2907], [26.6146, 42.2884], [26.5994, 42.2873], [26.5858, 42.2822], [26.5805, 42.277], [26.5813, 42.2673], [26.5849, 42.2616], [26.5821, 42.2543], [26.5669, 42.2504], [26.56, 42.2446], [26.5472, 42.2417], [26.5421, 42.2342], [26.532, 42.2307], [26.5055, 42.2366], [26.4823, 42.2291], [26.474, 42.2296], [26.4621, 42.2338], [26.4418, 42.2286], [26.4342, 42.2295], [26.4112, 42.2376], [26.4031, 42.236], [26.3938, 42.2278], [26.3837, 42.2236], [26.379, 42.2196], [26.3778, 42.2129], [26.3804, 42.1972], [26.3743, 42.184], [26.3722, 42.1739]], [[26.5081, 42.547], [26.4979, 42.5235], [26.4727, 42.5346], [26.4572, 42.5295], [26.4561, 42.4892], [26.4448, 42.4879], [26.442, 42.4656], [26.4189, 42.4628], [26.4183, 42.4448], [26.448, 42.4446], [26.4609, 42.4313], [26.4546, 42.4204], [26.4635, 42.4101], [26.4906, 42.4225], [26.4959, 42.439], [26.5266, 42.4392], [26.5365, 42.4666], [26.5515, 42.4683], [26.5593, 42.4872], [26.5765, 42.4904], [26.5771, 42.5044], [26.5881, 42.5128], [26.558, 42.5172], [26.5548, 42.5318], [26.5286, 42.5225], [26.5276, 42.5304], [26.5383, 42.5432], [26.5332, 42.5516], [26.5081, 42.547]]]]}}, {"type": "Feature", "properties": {"GID_2": "BGR.28.5_1", "GID_0": "BGR", "COUNTRY": "Bulgaria", "GID_1": "BGR.28_1", "NAME_1": "Yambol", "NL_NAME_1": "\u042f\u043c\u0431\u043e\u043b", "NAME_2": "Yambol", "VARNAME_2": "NA", "NL_NAME_2": "\u042f\u043c\u0431\u043e\u043b", "TYPE_2": "City", "ENGTYPE_2": "City", "CC_2": "NA", "HASC_2": "BG.YA.YA"}, "geometry": {"type": "MultiPolygon", "coordinates": [[[[26.5081, 42.547], [26.5332, 42.5516], [26.5383, 42.5432], [26.5276, 42.5304], [26.5286, 42.5225], [26.5548, 42.5318], [26.558, 42.5172], [26.5881, 42.5128], [26.5771, 42.5044], [26.5765, 42.4904], [26.5593, 42.4872], [26.5515, 42.4683], [26.5365, 42.4666], [26.5266, 42.4392], [26.4959, 42.439], [26.4906, 42.4225], [26.4635, 42.4101], [26.4546, 42.4204], [26.4609, 42.4313], [26.448, 42.4446], [26.4183, 42.4448], [26.4189, 42.4628], [26.442, 42.4656], [26.4448, 42.4879], [26.4561, 42.4892], [26.4572, 42.5295], [26.4727, 42.5346], [26.4979, 42.5235], [26.5081, 42.547]]]]}}]}