{"type": "FeatureCollection", "features": [{"type": "Feature", "properties": {"GID_2": "BGR.13.1_1", "GID_0": "BGR", "COUNTRY": "Bulgaria", "GID_1": "BGR.13_1", "NAME_1": "Pleven", "NL_NAME_1": "\u041f\u043b\u0435\u0432\u0435\u043d\u0441\u043a\u0430", "NAME_2": "Belene", "VARNAME_2": "NA", "NL_NAME_2": "\u0411\u0435\u043b\u0435\u043d\u0435", "TYPE_2": "Obshtina", "ENGTYPE_2": "Municipality", "CC_2": "NA", "HASC_2": "BG.PV.BE"}, "geometry": {"type": "MultiPolygon", "coordinates": [[[[25.209, 43.5689], [25.1895, 43.5614], [25.1768, 43.5507], [25.1688, 43.5466], [25.158, 43.5233], [25.1497, 43.5173], [25.0977, 43.5023], [25.0856, 43.5013], [25.0761, 43.5041], [25.0697, 43.5095], [25.0669, 43.514], [25.0642, 43.5258], [25.0583, 43.5341], [25.0601, 43.5394], [25.071, 43.5474], [25.0795, 43.5499], [25.1053, 43.5521], [25.1125, 43.5571], [25.1126, 43.5615], [25.0949, 43.5705], [25.0795, 43.5755], [25.0768, 43.5774], [25.073, 43.5868], [25.0689, 43.5906], [25.0618, 43.5902], [25.0396, 43.5746], [25.0273, 43.5716], [25.0025, 43.5754], [24.9871, 43.5811], [24.9818, 43.5869], [24.9826, 43.5925], [24.9849, 43.5958], [24.9948, 43.6025], [25.017, 43.6111], [25.027, 43.6168], [25.031, 43.6242], [25.0297, 43.6299], [25.0253, 43.6353], [25.0139, 43.6394], [24.985, 43.6414], [24.9733, 43.6458], [24.9644, 43.6525], [24.9601, 43.6579], [24.9585, 43.6614], [24.9589, 43.6724], [24.9651, 43.6781], [24.9778, 43.6815], [24.9885, 43.6889], [25.0208, 43.6862], [25.0373, 43.6888], [25.0478, 43.6956], [25.0598, 43.6914], [25.1128, 43.6842], [25.1341, 43.6905], [25.1441, 43.695], [25.1452, 43.693], [25.1688, 43.6978], [25.1688, 43.7001], [25.2131, 43.6905], [25.1956, 43.6653], [25.1971, 43.6488], [25.2216, 43.6249], [25.2253, 43.6159], [25.2237, 43.6109], [25.214, 43.6048], [25.2121, 43.601], [25.213, 43.5766], [25.209, 43.5689]]]]}}, {"type": "Feature", "properties": {"GID_2": "BGR.13.2_1", "GID_0": "BGR", "COUNTRY": "Bulgaria", "GID_1": "BGR.13_1", "NAME_1": "Pleven", "NL_NAME_1": "\u041f\u043b\u0435\u0432\u0435\u043d\u0441\u043a\u0430", "NAME_2": "ChervenBryag", "VARNAME_2": "NA", "NL_NAME_2": "\u0427\u0435\u0440\u0432\u0435\u043d\u0431\u0440\u044f\u0433", "TYPE_2": "Obshtina", "ENGTYPE_2": "Municipality", "CC_2": "NA", "HASC_2": "BG.PV.CB"}, "geometry": {"type": "MultiPolygon", "coordinates": [[[[24.3298, 43.2842], [24.32, 43.2727], [24.3131, 43.2708], [24.3006, 43.2737], [24.283, 43.2614], [24.2622, 43.2542], [24.2492, 43.2522], [24.229, 43.2501], [24.2148, 43.2517], [24.1962, 43.2503], [24.1815, 43.2513], [24.1566, 43.2583], [24.1453, 43.2594], [24.1285, 43.2575], [24.1158, 43.2533], [24.101, 43.2436], [24.0867, 43.2244], [24.0634, 43.2208], [24.0486, 43.2163], [24.0366, 43.2253], [24.0211, 43.234], [24.0167, 43.2348], [24.0044, 43.2336], [23.9952, 43.2268], [23.9887, 43.2261], [23.9847, 43.2276], [23.9715, 43.2418], [23.9688, 43.2492], [23.9777, 43.257], [23.9799, 43.2902], [23.9814, 43.2975], [23.9857, 43.3051], [23.9861, 43.3222], [23.9763, 43.3473], [23.9772, 43.3543], [23.9849, 43.3628], [24.0167, 43.377], [24.0383, 43.3721], [24.0499, 43.3721], [24.0668, 43.3751], [24.0892, 43.3698], [24.0968, 43.3699], [24.1021, 43.373], [24.1076, 43.3832], [24.1184, 43.3921], [24.1192, 43.4057], [24.1225, 43.4097], [24.1333, 43.4148], [24.1666, 43.423], [24.1914, 43.4358], [24.2077, 43.4408], [24.2198, 43.4403], [24.2337, 43.4344], [24.2381, 43.4351], [24.2441, 43.4386], [24.2457, 43.4257], [24.2349, 43.3923], [24.2351, 43.3788], [24.2396, 43.3739], [24.244, 43.3731], [24.2617, 43.3749], [24.2693, 43.3734], [24.2888, 43.3648], [24.3034, 43.3559], [24.3079, 43.3496], [24.3083, 43.3459], [24.3056, 43.3373], [24.3049, 43.3287], [24.3075, 43.3155], [24.304, 43.308], [24.3051, 43.2998], [24.3137, 43.2956], [24.3298, 43.2842]]]]}}, {"type": "Feature", "properties": {"GID_2": "BGR.13.3_1", "GID_0": "BGR", "COUNTRY": "Bulgaria", "GID_1": "BGR.13_1", "NAME_1": "Pleven", "NL_NAME_1": "\u041f\u043b\u0435\u0432\u0435\u043d\u0441\u043a\u0430", "NAME_2": "DolnaMitropoliya", "VARNAME_2": "DolnaMutropolia", "NL_NAME_2": "NA", "TYPE_2": "Obshtina", "ENGTYPE_2": "Municipality", "CC_2": "NA", "HASC_2": "BG.VT.GO"}, "geometry": {"type": "MultiPolygon", "coordinates": [[[[24.4879, 43.4504], [24.4572, 43.4618], [24.4379, 43.4652], [24.3672, 43.4636], [24.3503, 43.4664], [24.3427, 43.4703], [24.3367, 43.4784], [24.3357, 43.485], [24.3541, 43.5447], [24.3528, 43.5524], [24.3497, 43.5556], [24.3471, 43.5648], [24.3418, 43.5681], [24.3243, 43.5685], [24.3188, 43.571], [24.3183, 43.573], [24.323, 43.5789], [24.3324, 43.5853], [24.338, 43.5913], [24.3291, 43.5955], [24.3211, 43.6057], [24.3176, 43.6049], [24.315, 43.5952], [24.3116, 43.5916], [24.296, 43.5834], [24.2856, 43.5797], [24.2673, 43.5805], [24.2496, 43.5742], [24.2138, 43.5727], [24.1895, 43.5658], [24.1667, 43.5826], [24.1506, 43.5967], [24.1477, 43.6007], [24.1472, 43.609], [24.1517, 43.6127], [24.1708, 43.6105], [24.1831, 43.6155], [24.1915, 43.6224], [24.2118, 43.6547], [24.2217, 43.6635], [24.2334, 43.6627], [24.2533, 43.6474], [24.2606, 43.645], [24.2625, 43.6455], [24.2644, 43.649], [24.2665, 43.6603], [24.2717, 43.6624], [24.2757, 43.6613], [24.2868, 43.6513], [24.2972, 43.6516], [24.3045, 43.6619], [24.3117, 43.6823], [24.3211, 43.7003], [24.3501, 43.6977], [24.3831, 43.7131], [24.3808, 43.7161], [24.3844, 43.7199], [24.396, 43.7255], [24.3984, 43.7291], [24.4092, 43.7369], [24.4441, 43.7447], [24.4459, 43.7449], [24.4476, 43.7423], [24.4554, 43.7451], [24.4596, 43.7366], [24.4583, 43.7253], [24.4541, 43.7166], [24.4447, 43.7076], [24.4386, 43.693], [24.4462, 43.6791], [24.4485, 43.6665], [24.4534, 43.6622], [24.476, 43.6585], [24.4818, 43.6553], [24.5045, 43.6127], [24.5118, 43.6026], [24.52, 43.6002], [24.5303, 43.6023], [24.5506, 43.618], [24.5641, 43.6219], [24.608, 43.626], [24.6198, 43.6299], [24.6526, 43.6261], [24.6623, 43.6167], [24.6762, 43.6074], [24.6836, 43.5889], [24.6899, 43.5794], [24.6894, 43.5557], [24.7004, 43.5434], [24.6917, 43.5374], [24.688, 43.5299], [24.6895, 43.5246], [24.7023, 43.5133], [24.7051, 43.5073], [24.7055, 43.5038], [24.7023, 43.494], [24.6943, 43.4887], [24.6795, 43.4847], [24.6612, 43.4854], [24.6416, 43.4797], [24.6307, 43.4807], [24.6235, 43.483], [24.6097, 43.4914], [24.6005, 43.4936], [24.5901, 43.4912], [24.5723, 43.4814], [24.5664, 43.4827], [24.5584, 43.4886], [24.5549, 43.4889], [24.5526, 43.4846], [24.5536, 43.4768], [24.5525, 43.4679], [24.5497, 43.4633], [24.5402, 43.461], [24.5096, 43.4629], [24.4961, 43.459], [24.4902, 43.451], [24.4879, 43.4504]]]]}}, {"type": "Feature", "properties": {"GID_2": "BGR.13.4_1", "GID_0": "BGR", "COUNTRY": "Bulgaria", "GID_1": "BGR.13_1", "NAME_1": "Pleven", "NL_NAME_1": "\u041f\u043b\u0435\u0432\u0435\u043d\u0441\u043a\u0430", "NAME_2": "DolniDabnik", "VARNAME_2": "NA", "NL_NAME_2": "\u0414\u043e\u043b\u043d\u0438\u0414\u044a\u0431\u043d\u0438\u043a", "TYPE_2": "Obshtina", "ENGTYPE_2": "Municipality", "CC_2": "NA", "HASC_2": "BG.PV.DD"}, "geometry": {"type": "MultiPolygon", "coordinates": [[[[24.4125, 43.284], [24.3975, 43.2932], [24.3864, 43.2943], [24.371, 43.294], [24.3298, 43.2842], [24.3137, 43.2956], [24.3051, 43.2998], [24.304, 43.308], [24.3075, 43.3155], [24.3049, 43.3287], [24.3079, 43.3496], [24.2991, 43.359], [24.2738, 43.3719], [24.2739, 43.3809], [24.2752, 43.3825], [24.2914, 43.3872], [24.297, 43.3925], [24.3007, 43.4036], [24.3087, 43.4156], [24.3151, 43.421], [24.3325, 43.4295], [24.3329, 43.4464], [24.3399, 43.4613], [24.3468, 43.4678], [24.3672, 43.4636], [24.4379, 43.4652], [24.4572, 43.4618], [24.4877, 43.4506], [24.4909, 43.4476], [24.4931, 43.4293], [24.4935, 43.419], [24.4911, 43.4125], [24.4796, 43.4052], [24.4668, 43.4015], [24.4627, 43.3955], [24.4702, 43.3901], [24.4938, 43.3833], [24.5133, 43.3748], [24.5292, 43.3621], [24.5384, 43.3569], [24.555, 43.355], [24.5605, 43.3502], [24.5614, 43.3473], [24.5598, 43.3393], [24.5486, 43.3154], [24.5395, 43.3083], [24.528, 43.3035], [24.5206, 43.2979], [24.5064, 43.2953], [24.4916, 43.2951], [24.4916, 43.2917], [24.5045, 43.2877], [24.5063, 43.2855], [24.5071, 43.2825], [24.5048, 43.2774], [24.4921, 43.2766], [24.4827, 43.2789], [24.4679, 43.2905], [24.459, 43.2957], [24.4527, 43.2966], [24.4336, 43.2937], [24.4125, 43.284]]]]}}, {"type": "Feature", "properties": {"GID_2": "BGR.13.5_1", "GID_0": "BGR", "COUNTRY": "Bulgaria", "GID_1": "BGR.13_1", "NAME_1": "Pleven", "NL_NAME_1": "\u041f\u043b\u0435\u0432\u0435\u043d\u0441\u043a\u0430", "NAME_2": "Gulyantsi", "VARNAME_2": "NA", "NL_NAME_2": "NA", "TYPE_2": "Obshtina", "ENGTYPE_2": "Municipality", "CC_2": "NA", "HASC_2": "BG.PV.GU"}, "geometry": {"type": "MultiPolygon", "coordinates": [[[[24.7004, 43.5434], [24.6894, 43.5557], [24.6899, 43.5794], [24.6836, 43.5889], [24.6794, 43.6019], [24.6762, 43.6074], [24.6623, 43.6167], [24.6526, 43.6261], [24.6198, 43.6299], [24.608, 43.626], [24.5641, 43.6219], [24.5506, 43.618], [24.5303, 43.6023], [24.52, 43.6002], [24.5118, 43.6026], [24.5045, 43.6127], [24.4818, 43.6553], [24.476, 43.6585], [24.4534, 43.6622], [24.4485, 43.6665], [24.4462, 43.6791], [24.4386, 43.693], [24.4447, 43.7076], [24.4541, 43.7166], [24.4583, 43.7253], [24.4596, 43.7366], [24.4554, 43.7451], [24.4998, 43.7619], [24.5144, 43.7652], [24.5142, 43.7628], [24.5257, 43.7603], [24.5607, 43.7552], [24.5614, 43.7563], [24.5717, 43.7552], [24.5907, 43.7515], [24.6123, 43.7464], [24.6327, 43.7393], [24.6707, 43.7177], [24.6694, 43.7165], [24.685, 43.7053], [24.7063, 43.6941], [24.722, 43.6884], [24.7359, 43.6854], [24.754, 43.6874], [24.7811, 43.6983], [24.8007, 43.7082], [24.8, 43.7096], [24.8177, 43.7127], [24.8248, 43.6852], [24.8142, 43.6694], [24.813, 43.6623], [24.8087, 43.6551], [24.8079, 43.6499], [24.8185, 43.6274], [24.8191, 43.6167], [24.8155, 43.593], [24.8163, 43.5904], [24.8213, 43.5858], [24.8128, 43.585], [24.8037, 43.5789], [24.7958, 43.5778], [24.7865, 43.5732], [24.7799, 43.572], [24.7615, 43.5733], [24.7467, 43.5697], [24.7193, 43.5668], [24.7149, 43.5617], [24.7081, 43.5491], [24.7004, 43.5434]]]]}}, {"type": "Feature", "properties": {"GID_2": "BGR.13.6_1", "GID_0": "BGR", "COUNTRY": "Bulgaria", "GID_1": "BGR.13_1", "NAME_1": "Pleven", "NL_NAME_1": "\u041f\u043b\u0435\u0432\u0435\u043d\u0441\u043a\u0430", "NAME_2": "Iskar", "VARNAME_2": "NA", "NL_NAME_2": "NA", "TYPE_2": "Obshtina", "ENGTYPE_2": "Municipality", "CC_2": "NA", "HASC_2": "BG.PV.IS"}, "geometry": {"type": "MultiPolygon", "coordinates": [[[[24.2738, 43.3719], [24.2617, 43.3749], [24.2502, 43.3732], [24.2396, 43.3739], [24.2346, 43.3804], [24.2349, 43.3923], [24.2461, 43.429], [24.2414, 43.4461], [24.2342, 43.452], [24.2318, 43.4559], [24.2358, 43.4635], [24.2356, 43.4704], [24.2405, 43.4736], [24.2393, 43.4813], [24.2412, 43.4821], [24.2499, 43.4798], [24.2516, 43.4843], [24.2471, 43.487], [24.2268, 43.4891], [24.2186, 43.4919], [24.1867, 43.4947], [24.1784, 43.5003], [24.1777, 43.5157], [24.1887, 43.5571], [24.1895, 43.5658], [24.2138, 43.5727], [24.2496, 43.5742], [24.2673, 43.5805], [24.2856, 43.5797], [24.296, 43.5834], [24.3116, 43.5916], [24.315, 43.5952], [24.3176, 43.6049], [24.3211, 43.6057], [24.3291, 43.5955], [24.338, 43.5913], [24.3324, 43.5853], [24.323, 43.5789], [24.3183, 43.573], [24.3188, 43.571], [24.3243, 43.5685], [24.344, 43.567], [24.3484, 43.5632], [24.3497, 43.5556], [24.3528, 43.5524], [24.3533, 43.5395], [24.3426, 43.5104], [24.3357, 43.485], [24.3358, 43.4813], [24.339, 43.4745], [24.3468, 43.4678], [24.3399, 43.4613], [24.3329, 43.4464], [24.3325, 43.4295], [24.3151, 43.421], [24.3087, 43.4156], [24.3007, 43.4036], [24.297, 43.3925], [24.2914, 43.3872], [24.2752, 43.3825], [24.2739, 43.3809], [24.2738, 43.3719]]]]}}, {"type": "Feature", "properties": {"GID_2": "BGR.13.7_1", "GID_0": "BGR", "COUNTRY": "Bulgaria", "GID_1": "BGR.13_1", "NAME_1": "Pleven", "NL_NAME_1": "\u041f\u043b\u0435\u0432\u0435\u043d\u0441\u043a\u0430", "NAME_2": "Knezha", "VARNAME_2": "NA", "NL_NAME_2": "\u041a\u043d\u0435\u0436\u0430)", "TYPE_2": "Obshtina", "ENGTYPE_2": "Municipality", "CC_2": "NA", "HASC_2": "BG.PV.KN"}, "geometry": {"type": "MultiPolygon", "coordinates": [[[[24.2441, 43.4386], [24.2381, 43.4351], [24.2337, 43.4344], [24.2198, 43.4403], [24.2077, 43.4408], [24.1914, 43.4358], [24.1666, 43.423], [24.128, 43.4126], [24.1225, 43.4097], [24.1192, 43.4057], [24.1194, 43.3959], [24.1174, 43.3906], [24.1076, 43.3832], [24.1021, 43.373], [24.0968, 43.3699], [24.0892, 43.3698], [24.0668, 43.3751], [24.0499, 43.3721], [24.0383, 43.3721], [24.0167, 43.377], [24.0187, 43.3898], [24.0225, 43.3969], [24.027, 43.4013], [24.0391, 43.4059], [24.0486, 43.4118], [24.0545, 43.4194], [24.0658, 43.4252], [24.0768, 43.4366], [24.0805, 43.4452], [24.0798, 43.4521], [24.0767, 43.4574], [24.0489, 43.4757], [24.0415, 43.4847], [24.0368, 43.5109], [24.0301, 43.5258], [24.0262, 43.5299], [24.0232, 43.5365], [24.025, 43.5421], [24.038, 43.5526], [24.0395, 43.5561], [24.0473, 43.5946], [24.0468, 43.607], [24.0555, 43.6105], [24.0661, 43.6202], [24.072, 43.6228], [24.08, 43.623], [24.0959, 43.618], [24.1017, 43.6187], [24.1092, 43.6242], [24.1144, 43.6256], [24.1215, 43.6242], [24.1302, 43.6149], [24.1448, 43.6148], [24.1501, 43.6123], [24.1469, 43.6069], [24.149, 43.5986], [24.1611, 43.5872], [24.1823, 43.5722], [24.1899, 43.5647], [24.1777, 43.5157], [24.1784, 43.5003], [24.1824, 43.4966], [24.1895, 43.4938], [24.2186, 43.4919], [24.2268, 43.4891], [24.25, 43.4862], [24.2518, 43.4829], [24.2499, 43.4798], [24.2412, 43.4821], [24.2393, 43.4813], [24.2405, 43.4736], [24.2356, 43.4704], [24.2358, 43.4635], [24.2318, 43.4559], [24.2342, 43.452], [24.2405, 43.4474], [24.2441, 43.4386]]]]}}, {"type": "Feature", "properties": {"GID_2": "BGR.13.8_1", "GID_0": "BGR", "COUNTRY": "Bulgaria", "GID_1": "BGR.13_1", "NAME_1": "Pleven", "NL_NAME_1": "\u041f\u043b\u0435\u0432\u0435\u043d\u0441\u043a\u0430", "NAME_2": "Levski", "VARNAME_2": "NA", "NL_NAME_2": "\u041b\u0435\u0432\u0441\u043a\u0438", "TYPE_2": "Obshtina", "ENGTYPE_2": "Municipality", "CC_2": "NA", "HASC_2": "BG.PV.LE"}, "geometry": {"type": "MultiPolygon", "coordinates": [[[[25.164, 43.2867], [25.1087, 43.3123], [25.0991, 43.3253], [25.0973, 43.3378], [25.0854, 43.365], [25.0755, 43.3786], [25.0622, 43.3893], [25.039, 43.3962], [25.0195, 43.3989], [24.9939, 43.3997], [24.9658, 43.3934], [24.952, 43.3981], [24.9492, 43.4031], [24.948, 43.4121], [24.9481, 43.4363], [24.9544, 43.448], [24.9667, 43.4593], [24.9672, 43.4631], [24.9636, 43.4677], [24.9472, 43.4738], [24.9456, 43.481], [24.9418, 43.487], [24.9231, 43.4989], [24.9103, 43.5102], [24.9384, 43.507], [24.9916, 43.5041], [24.9993, 43.5054], [25.0068, 43.5102], [25.005, 43.5185], [25.0094, 43.5219], [25.0275, 43.5243], [25.0476, 43.5316], [25.0587, 43.5336], [25.0642, 43.5258], [25.0669, 43.514], [25.0725, 43.5066], [25.0856, 43.5013], [25.0928, 43.5015], [25.1497, 43.5173], [25.158, 43.5233], [25.1688, 43.5466], [25.1768, 43.5507], [25.1895, 43.5614], [25.1984, 43.5658], [25.209, 43.5689], [25.2268, 43.5544], [25.2315, 43.5484], [25.2337, 43.5423], [25.2285, 43.5336], [25.2188, 43.5251], [25.214, 43.5169], [25.2129, 43.5094], [25.2151, 43.4829], [25.2128, 43.4748], [25.1982, 43.4632], [25.1852, 43.4574], [25.1758, 43.4548], [25.144, 43.4519], [25.1329, 43.4492], [25.1302, 43.4448], [25.1301, 43.4405], [25.1381, 43.4296], [25.1434, 43.4266], [25.1495, 43.4258], [25.1667, 43.4273], [25.2093, 43.4355], [25.2245, 43.434], [25.2358, 43.4303], [25.2398, 43.4249], [25.2385, 43.4136], [25.2122, 43.39], [25.2068, 43.383], [25.2059, 43.3783], [25.2106, 43.3755], [25.2164, 43.375], [25.2513, 43.3754], [25.2687, 43.3738], [25.2748, 43.3574], [25.2739, 43.3513], [25.2677, 43.337], [25.2545, 43.324], [25.2306, 43.3108], [25.213, 43.3063], [25.1997, 43.2983], [25.1902, 43.2956], [25.1885, 43.2934], [25.164, 43.2867]]]]}}, {"type": "Feature", "properties": {"GID_2": "BGR.13.9_1", "GID_0": "BGR", "COUNTRY": "Bulgaria", "GID_1": "BGR.13_1", "NAME_1": "Pleven", "NL_NAME_1": "\u041f\u043b\u0435\u0432\u0435\u043d\u0441\u043a\u0430", "NAME_2": "Nikopol", "VARNAME_2": "NA", "NL_NAME_2": "\u041d\u0438\u043a\u043e\u043f\u043e\u043b", "TYPE_2": "Obshtina", "ENGTYPE_2": "Municipality", "CC_2": "NA", "HASC_2": "BG.PV.NI"}, "geometry": {"type": "MultiPolygon", "coordinates": [[[[25.0478, 43.6956], [25.0373, 43.6888], [25.0208, 43.6862], [24.9885, 43.6889], [24.9778, 43.6815], [24.9651, 43.6781], [24.9589, 43.6724], [24.9585, 43.6614], [24.9601, 43.6579], [24.9644, 43.6525], [24.9733, 43.6458], [24.985, 43.6414], [25.0139, 43.6394], [25.0253, 43.6353], [25.0297, 43.6299], [25.031, 43.6242], [25.027, 43.6168], [25.017, 43.6111], [24.9948, 43.6025], [24.9875, 43.5978], [24.9826, 43.5925], [24.9829, 43.5843], [24.9882, 43.5804], [24.9971, 43.5769], [25.0273, 43.5716], [25.0396, 43.5746], [25.0618, 43.5902], [25.0689, 43.5906], [25.073, 43.5868], [25.0768, 43.5774], [25.0795, 43.5755], [25.0949, 43.5705], [25.1126, 43.5615], [25.1125, 43.5571], [25.11, 43.5544], [25.1053, 43.5521], [25.0795, 43.5499], [25.071, 43.5474], [25.0601, 43.5394], [25.0587, 43.5336], [25.0476, 43.5316], [25.0275, 43.5243], [25.0094, 43.5219], [25.005, 43.5185], [25.0068, 43.5102], [24.9993, 43.5054], [24.9916, 43.5041], [24.9384, 43.507], [24.9173, 43.5104], [24.9027, 43.5109], [24.8935, 43.5141], [24.8763, 43.5239], [24.8717, 43.531], [24.871, 43.5372], [24.8669, 43.5395], [24.8638, 43.5393], [24.8502, 43.5316], [24.8438, 43.5301], [24.8353, 43.5314], [24.8328, 43.536], [24.8329, 43.5453], [24.8457, 43.5564], [24.8462, 43.5595], [24.8305, 43.5674], [24.8286, 43.5697], [24.829, 43.5753], [24.8269, 43.5823], [24.8163, 43.5904], [24.8155, 43.5967], [24.8191, 43.6167], [24.8185, 43.6274], [24.8079, 43.6499], [24.8087, 43.6551], [24.813, 43.6623], [24.8142, 43.6694], [24.8248, 43.6852], [24.8177, 43.7127], [24.8378, 43.7129], [24.8573, 43.7071], [24.8653, 43.7062], [24.8806, 43.7071], [24.9196, 43.7156], [24.9344, 43.7163], [24.9346, 43.7236], [24.949, 43.7296], [25.0, 43.7276], [25.0092, 43.7249], [25.0183, 43.7152], [25.017, 43.7141], [25.038, 43.7037], [25.0478, 43.6956]]]]}}, {"type": "Feature", "properties": {"GID_2": "BGR.13.10_1", "GID_0": "BGR", "COUNTRY": "Bulgaria", "GID_1": "BGR.13_1", "NAME_1": "Pleven", "NL_NAME_1": "\u041f\u043b\u0435\u0432\u0435\u043d\u0441\u043a\u0430", "NAME_2": "Pleven", "VARNAME_2": "Plevenska", "NL_NAME_2": "\u041f\u043b\u0435\u0432\u0435\u043d\u0441\u043a\u0430", "TYPE_2": "City", "ENGTYPE_2": "City", "CC_2": "NA", "HASC_2": "BG.PV.PL"}, "geometry": {"type": "MultiPolygon", "coordinates": [[[[24.4594, 43.246], [24.4513, 43.2591], [24.4156, 43.2764], [24.4129, 43.2793], [24.4125, 43.284], [24.4336, 43.2937], [24.4527, 43.2966], [24.459, 43.2957], [24.4679, 43.2905], [24.4827, 43.2789], [24.4921, 43.2766], [24.5048, 43.2774], [24.5071, 43.2825], [24.5063, 43.2855], [24.5045, 43.2877], [24.4916, 43.2917], [24.4916, 43.2951], [24.5164, 43.2965], [24.5306, 43.3049], [24.5395, 43.3083], [24.5486, 43.3154], [24.5598, 43.3393], [24.5614, 43.3473], [24.5605, 43.3502], [24.555, 43.355], [24.5384, 43.3569], [24.5292, 43.3621], [24.5133, 43.3748], [24.4938, 43.3833], [24.4702, 43.3901], [24.4627, 43.3955], [24.4668, 43.4015], [24.4796, 43.4052], [24.4911, 43.4125], [24.4937, 43.423], [24.4909, 43.4476], [24.4879, 43.4504], [24.4902, 43.451], [24.4938, 43.457], [24.4996, 43.4604], [24.5096, 43.4629], [24.5402, 43.461], [24.5497, 43.4633], [24.5525, 43.4679], [24.5536, 43.4768], [24.5526, 43.4846], [24.5549, 43.4889], [24.5584, 43.4886], [24.5664, 43.4827], [24.5723, 43.4814], [24.5901, 43.4912], [24.6005, 43.4936], [24.6097, 43.4914], [24.6235, 43.483], [24.6377, 43.4795], [24.6458, 43.4804], [24.6612, 43.4854], [24.6795, 43.4847], [24.6902, 43.4869], [24.7006, 43.492], [24.7033, 43.496], [24.7055, 43.5038], [24.7044, 43.5103], [24.7023, 43.5133], [24.6895, 43.5246], [24.6884, 43.5318], [24.6917, 43.5374], [24.7081, 43.5491], [24.7149, 43.5617], [24.7193, 43.5668], [24.7467, 43.5697], [24.7615, 43.5733], [24.7799, 43.572], [24.7865, 43.5732], [24.7958, 43.5778], [24.8037, 43.5789], [24.8097, 43.5837], [24.8178, 43.586], [24.8216, 43.5858], [24.8269, 43.5823], [24.829, 43.5753], [24.8286, 43.5697], [24.8305, 43.5674], [24.8462, 43.5595], [24.8457, 43.5564], [24.8329, 43.5453], [24.8328, 43.536], [24.8353, 43.5314], [24.8438, 43.5301], [24.8502, 43.5316], [24.8638, 43.5393], [24.8691, 43.5388], [24.871, 43.5372], [24.8737, 43.5264], [24.8763, 43.5239], [24.8935, 43.5141], [24.9115, 43.5096], [24.9141, 43.5056], [24.9231, 43.4989], [24.9418, 43.487], [24.9456, 43.481], [24.9472, 43.4738], [24.9453, 43.4722], [24.9031, 43.4595], [24.8953, 43.4542], [24.8845, 43.4429], [24.8766, 43.4382], [24.8472, 43.4328], [24.8277, 43.4366], [24.8164, 43.4361], [24.7928, 43.4303], [24.786, 43.4259], [24.7799, 43.4098], [24.7689, 43.3973], [24.767, 43.3923], [24.7662, 43.3885], [24.7694, 43.3806], [24.7805, 43.3714], [24.7938, 43.3661], [24.8106, 43.3647], [24.8354, 43.373], [24.8562, 43.3669], [24.8575, 43.3657], [24.8572, 43.3616], [24.8457, 43.3507], [24.839, 43.3361], [24.838, 43.3279], [24.8091, 43.3266], [24.7729, 43.3155], [24.7445, 43.3044], [24.7174, 43.2914], [24.7043, 43.2824], [24.6962, 43.2748], [24.689, 43.2598], [24.6867, 43.2584], [24.6812, 43.2583], [24.6773, 43.2609], [24.6708, 43.2687], [24.6671, 43.2794], [24.6628, 43.2817], [24.6523, 43.2738], [24.6476, 43.2579], [24.6471, 43.2406], [24.6425, 43.2348], [24.6351, 43.2313], [24.6105, 43.2301], [24.5929, 43.2263], [24.5448, 43.2279], [24.5128, 43.2375], [24.4717, 43.2385], [24.4641, 43.2415], [24.4594, 43.246]]]]}}, {"type": "Feature", "properties": {"GID_2": "BGR.13.11_1", "GID_0": "BGR", "COUNTRY": "Bulgaria", "GID_1": "BGR.13_1", "NAME_1": "Pleven", "NL_NAME_1": "\u041f\u043b\u0435\u0432\u0435\u043d\u0441\u043a\u0430", "NAME_2": "Pordim", "VARNAME_2": "NA", "NL_NAME_2": "NA", "TYPE_2": "Obshtina", "ENGTYPE_2": "Municipality", "CC_2": "NA", "HASC_2": "BG.PV.PO"}, "geometry": {"type": "MultiPolygon", "coordinates": [[[[25.0346, 43.3971], [25.0293, 43.395], [25.0281, 43.3924], [25.0262, 43.3711], [25.0199, 43.3622], [25.0171, 43.3522], [25.0143, 43.3496], [24.9929, 43.3367], [24.986, 43.336], [24.9751, 43.3276], [24.9554, 43.3208], [24.9388, 43.3114], [24.9256, 43.2983], [24.9176, 43.2964], [24.9117, 43.298], [24.9033, 43.3052], [24.8973, 43.308], [24.869, 43.3128], [24.838, 43.3279], [24.839, 43.3361], [24.8457, 43.3507], [24.8572, 43.3616], [24.8575, 43.3657], [24.8562, 43.3669], [24.8354, 43.373], [24.8106, 43.3647], [24.7938, 43.3661], [24.7805, 43.3714], [24.7721, 43.3773], [24.7662, 43.3885], [24.7689, 43.3973], [24.7799, 43.4098], [24.7832, 43.4164], [24.7846, 43.4233], [24.7888, 43.4287], [24.8164, 43.4361], [24.8277, 43.4366], [24.8472, 43.4328], [24.8607, 43.4362], [24.8722, 43.4368], [24.8845, 43.4429], [24.8953, 43.4542], [24.9031, 43.4595], [24.9287, 43.4681], [24.9409, 43.4702], [24.9472, 43.4738], [24.9636, 43.4677], [24.9658, 43.4659], [24.9674, 43.4614], [24.9657, 43.458], [24.9544, 43.448], [24.9481, 43.4363], [24.948, 43.4121], [24.9492, 43.4031], [24.952, 43.3981], [24.9658, 43.3934], [24.9939, 43.3997], [25.0346, 43.3971]]]]}}]}