{"type":"FeatureCollection","features":[{"type":"Feature","id":"pleven","properties":{"id":"pleven","nuts_id":"BG314","name":"Pleven Oblast","description":"Northern Bulgaria — Danube floodplain flood risk; Vit, Osam & Iskur tributaries cross the oblast","color":"#3B82F6"},"geometry":{"type":"Polygon","coordinates":[[[24.694903500000066,43.69761649900005],[24.697826,43.696026999000026],[24.699674,43.695212499000036],[24.704416,43.69337649900007],[24.706695500000023,43.69265149900008],[24.710922,43.69161499900008],[24.712952,43.69118549900003],[24.71841050000006,43.69028399900003],[24.725212500000055,43.68948449900006],[24.729791,43.688686999000026],[24.736293207000074,43.68791512700005],[24.740506500000038,43.687828499000034],[24.746586500000035,43.688306999000076],[24.769041466000033,43.69219882200008],[24.80623250000008,43.70899449900003],[24.810512500000073,43.71004349900005],[24.833103288000075,43.712664102000076],[24.862232,43.708120499000074],[24.865089500000067,43.707914999000025],[24.869469500000037,43.707804999000075],[24.873289500000055,43.70790499900005],[24.878119,43.708254999000076],[24.883099,43.70880499900005],[24.901889,43.71121499900005],[24.905209,43.71169499900003],[24.910279,43.71268499900003],[24.917799,43.71441499900004],[24.921209,43.71509499900003],[24.924839,43.71567499900004],[24.932999,43.71679499900006],[24.938359,43.71767499900005],[24.943339,43.718604999000036],[24.946919,43.71937499900008],[24.950959,43.72040499900004],[24.95645550000006,43.722000999000045],[24.972705500000075,43.72743599900008],[24.983264500000075,43.72823849900004],[24.992957,43.728067999000075],[24.996897,43.72766799900006],[24.998809,43.726841499000045],[25.003069500000038,43.72549649900003],[25.006431,43.72374399900008],[25.01916354800005,43.712449055000036],[25.045776500000045,43.69922149900003],[25.052168,43.696254999000075],[25.053828,43.69543499900004],[25.056350500000065,43.69403549900005],[25.061827,43.69208899900008],[25.067277500000046,43.69054199900006],[25.07965,43.688153999000065],[25.093068,43.686464999000066],[25.107254,43.68508399900003],[25.11390250000005,43.68477199900008],[25.124901,43.68448999900005],[25.128569,43.68462199900006],[25.13878950000003,43.68652649900008],[25.143498500000078,43.68751049900004],[25.145017,43.68835799900006],[25.153078,43.69343899900008],[25.154588500000045,43.694164999000066],[25.160242,43.696794999000076],[25.162562500000035,43.697778999000036],[25.164324500000077,43.69830899900006],[25.16910050000007,43.69945299900007],[25.172835500000076,43.69997199900007],[25.176463,43.700176499000065],[25.179711500000053,43.700284999000075],[25.182823,43.70017749900006],[25.184827,43.699992499000075],[25.18699950000007,43.69964199900005],[25.189784,43.69896949900004],[25.207499771000073,43.692948519000026],[25.220664,43.68449799900003],[25.246060718000024,43.68021859800007],[25.265731,43.671666499000025],[25.276292003000037,43.66950647600004],[25.296372500000075,43.65541899900006],[25.259500479000053,43.65032488800006],[25.234047556000064,43.650896042000056],[25.223546792000036,43.64421863100006],[25.20610348500003,43.63814960000008],[25.20664770600007,43.63516819100005],[25.214132034000045,43.634986758000025],[25.220011500000055,43.61493149900008],[25.213734802000033,43.61504332700008],[25.194546631000037,43.60199095200005],[25.18992041000007,43.60243629800004],[25.187905956000066,43.605778187000055],[25.179819103000057,43.605916955000055],[25.17415214700003,43.604790018000074],[25.174276500000076,43.60091349900006],[25.20134495600007,43.587085932000036],[25.202796680000063,43.58453857500007],[25.205464327000072,43.57985734400006],[25.197399924000024,43.569649499000036],[25.201161787000046,43.566657442000064],[25.19932650000004,43.56195899900007],[25.211122528000033,43.544864896000036],[25.219321042000047,43.54441485000007],[25.228146500000037,43.537859499000035],[25.23459150000008,43.532691999000065],[25.222011,43.524829999000076],[25.209797,43.52386699900006],[25.209558,43.50056899900005],[25.207509452000068,43.498406884000076],[25.192453921000038,43.49766288500007],[25.19147055800005,43.48006645100003],[25.182205495000062,43.47891241200006],[25.17929440000006,43.473093307000056],[25.163218500000028,43.469290337000075],[25.163154,43.46030349900008],[25.149164296000038,43.45863015300006],[25.14764008700007,43.454081270000074],[25.14447341400006,43.452771347000066],[25.12993639700005,43.457336578000024],[25.126051500000074,43.451999999000066],[25.126891,43.45032849900008],[25.127645,43.44369549900006],[25.129954500000053,43.43815299900007],[25.130527922000056,43.42899801500005],[25.144844500000033,43.42702599900008],[25.17495421600006,43.43260051800007],[25.177816565000057,43.436042187000055],[25.184427,43.43696249900006],[25.195526,43.43798449900004],[25.2024,43.43339749900008],[25.211784,43.43016749900005],[25.211956,43.427635499000075],[25.212621,43.41229899900003],[25.201252,43.412120499000025],[25.201986,43.39058599900005],[25.19437357000004,43.384250501000054],[25.200588251000056,43.380256263000035],[25.20085345600006,43.37636605600005],[25.19308569100008,43.37422346500006],[25.191263,43.37167349900005],[25.216358550000052,43.37612399600005],[25.221394470000064,43.373062452000056],[25.238101500000027,43.37199499900004],[25.23898228300004,43.359794822000026],[25.25557228100007,43.357275995000066],[25.255132,43.34546849900005],[25.238041,43.34123499900005],[25.234871500000054,43.33836799900007],[25.23303450000003,43.33372449900003],[25.227379823000035,43.32286465000004],[25.205743264000034,43.31055748800003],[25.18256156900003,43.30400959200006],[25.17904503500006,43.296724340000026],[25.160975646000054,43.28695235300006],[25.153896,43.27696449900003],[25.146044500000073,43.27546349900007],[25.143664500000057,43.26650599900006],[25.14043,43.26683049900004],[25.140198,43.27124549900003],[25.13871450000005,43.27695799900005],[25.130871993000028,43.27630564800006],[25.12822766100004,43.269989569000074],[25.11459750000006,43.26918149900007],[25.117623018000074,43.28598024900003],[25.099959392000073,43.28677261000007],[25.097137583000062,43.29910177200003],[25.08415418800007,43.30458171200007],[25.060141556000076,43.356285091000075],[25.050323629000047,43.359469801000046],[25.05274250000008,43.37771299900004],[25.02802950000006,43.37984799900005],[25.024763500000063,43.38008799900007],[25.024837500000046,43.37813349900006],[25.01953050000003,43.378201999000055],[25.019724369000073,43.36235271100003],[25.031404544000054,43.36038696700007],[25.03300928400006,43.35744591200006],[25.032676136000077,43.34998191300008],[25.022128175000034,43.34669258300005],[25.021850253000025,43.33351010800004],[25.032161907000045,43.332821437000064],[25.03270928200004,43.32607562900006],[25.023886610000034,43.32054545400007],[24.988518500000055,43.32510299900008],[24.98855150000003,43.318320999000036],[24.979351,43.31783749900006],[24.977156500000035,43.29673549900008],[24.948114630000077,43.29632517300007],[24.94444161000007,43.30525130400008],[24.931272,43.30572499900006],[24.933797453000068,43.29394211300007],[24.91700164300005,43.29062799400003],[24.91278240500003,43.28759315600007],[24.904175500000065,43.28904249900006],[24.904368500000032,43.297570499000074],[24.90272250000004,43.29695699900003],[24.899500500000045,43.296668999000076],[24.885616500000026,43.297618999000065],[24.886216,43.302418499000055],[24.84772350000003,43.30474249900004],[24.832557,43.30362699900007],[24.83130045300004,43.307630876000076],[24.813674,43.31578699900007],[24.756893924000053,43.313119992000054],[24.753616659000045,43.30557076200006],[24.74213,43.30574949900006],[24.740631,43.29559949900005],[24.736293207000074,43.29513663700004],[24.729257301000075,43.29403204100004],[24.728042349000077,43.288575199000036],[24.71594455500008,43.28668149300006],[24.714671896000027,43.28207682500005],[24.70841194700006,43.27898104500008],[24.695690649000028,43.275913453000044],[24.694574954000075,43.27397045400005],[24.685954337000055,43.27397392800003],[24.683815525000057,43.266636505000065],[24.687168876000044,43.25814969500004],[24.683432500000038,43.25285699900007],[24.681166542000028,43.25096584000005],[24.670185971000024,43.251735960000076],[24.66746196200006,43.26526337100006],[24.653173500000037,43.279262499000026],[24.655616303000045,43.25118155900003],[24.644682438000075,43.24605702200006],[24.639927217000036,43.23680898500004],[24.63034055600008,43.23099761200007],[24.63200884400004,43.22563196100003],[24.638602,43.22339499900005],[24.63390050000004,43.221565499000064],[24.63282087500005,43.22332348100008],[24.630669392000073,43.22363523000007],[24.627833801000065,43.22300791300006],[24.625675,43.22092849900008],[24.617792860000066,43.217105106000076],[24.604078731000072,43.214884658000074],[24.596385500000054,43.208762999000044],[24.580581,43.203051499000026],[24.577855500000055,43.203880999000035],[24.57364838700005,43.20851372000004],[24.544786698000053,43.21020239300003],[24.535326500000053,43.21341399900007],[24.52881766400003,43.21180213000008],[24.52038365800007,43.21429696200005],[24.507969299000024,43.22022841200004],[24.490826974000072,43.22391795100003],[24.480981881000048,43.230530214000055],[24.470085577000077,43.226687036000044],[24.459987113000068,43.21680981800006],[24.443287500000054,43.21989449900008],[24.43567734900006,43.223988131000056],[24.433921600000076,43.22856835300007],[24.428575541000043,43.23021894200008],[24.427317317000075,43.24823753100003],[24.400347252000074,43.25608891200005],[24.392346537000037,43.25581889800003],[24.390142103000073,43.26118156500007],[24.39529150000004,43.26614699900006],[24.396415,43.268909499000074],[24.395952,43.27175049900006],[24.391660500000057,43.27355999900004],[24.387188500000036,43.27737699900007],[24.384099500000048,43.278339999000025],[24.380199,43.27722549900005],[24.37826750000005,43.27738349900005],[24.376162,43.27692899900006],[24.375162,43.27532449900008],[24.369937,43.27072299900004],[24.332439500000078,43.26007799900003],[24.331263500000034,43.261209499000074],[24.328521,43.25945849900006],[24.326972500000068,43.25589199900003],[24.323302,43.25082449900003],[24.319123500000046,43.25240799900007],[24.314343500000064,43.24601849900006],[24.311307,43.240706999000054],[24.30549,43.24063949900005],[24.305643,43.23796499900004],[24.304001692000043,43.23685715800008],[24.29714505900006,43.239177805000054],[24.280350060000046,43.23716017100003],[24.26510556200003,43.23131418400004],[24.262288500000068,43.22807899900005],[24.262444,43.22627399900006],[24.255476,43.22589849900004],[24.254827500000033,43.22385599900008],[24.233675997000034,43.22933301900008],[24.228238028000078,43.22660802100006],[24.201641849000055,43.232580591000044],[24.19519026200004,43.23447576600006],[24.191672526000048,43.238953879000064],[24.160038626000073,43.23622513600003],[24.148588,43.24411299900004],[24.145516500000042,43.245825499000034],[24.137792,43.24543949900004],[24.13737,43.246762499000056],[24.136172,43.24783149900003],[24.130538,43.24581999900005],[24.124164,43.241100999000025],[24.120511,43.24061149900007],[24.116636,43.24119649900007],[24.093594589000077,43.230585079000036],[24.085496937000073,43.235391795000055],[24.077936500000078,43.23174699900005],[24.06950097500004,43.22346201800008],[24.056407172000036,43.223932080000054],[24.05135854100007,43.21957241900003],[24.053533445000028,43.21678007200006],[24.063977886000032,43.215816706000055],[24.072290097000064,43.212586603000034],[24.07680019000003,43.20659543100004],[24.075922900000023,43.20241424300008],[24.071979061000036,43.20238330500007],[24.06012725900007,43.208491510000044],[24.055456776000028,43.206692402000044],[24.04799083900008,43.21179258300003],[24.028557,43.20615949900008],[24.018249565000076,43.21094677600007],[24.01326447400004,43.21008928900005],[24.004779889000076,43.21430321200006],[23.99737357600003,43.21507974200006],[23.99053413400003,43.22365049300004],[23.98498150000006,43.22335399900004],[23.971167433000062,43.22522881100008],[23.968404107000026,43.22252012100006],[23.963362,43.222162999000034],[23.962359978000052,43.22588598700003],[23.958731030000024,43.22759429900003],[23.958731030000024,43.23025699500005],[23.96559786200004,43.23977734500005],[23.959808590000023,43.24442343800007],[23.967745965000063,43.25740575100008],[23.962360500000045,43.26584349900003],[23.963313577000065,43.26783488800004],[23.958731030000024,43.270422705000044],[23.95151050000004,43.27449999900006],[23.958731030000024,43.280379423000056],[23.97109850000004,43.290448499000036],[23.97235551500006,43.295251078000035],[23.967211556000052,43.305045515000074],[23.966940003000047,43.31494405500007],[23.958731030000024,43.337354409000056],[23.957312,43.34122749900007],[23.958731030000024,43.342195821000075],[23.964261914000076,43.34596985300004],[23.966589267000074,43.35827960300003],[23.989155,43.362063499000044],[23.99511650000005,43.363815499000054],[23.994724500000075,43.37811749900004],[23.993863,43.38313849900004],[23.994312,43.38550699900003],[24.000603500000068,43.39570099900004],[24.007621500000027,43.39197349900007],[24.017550500000027,43.400257999000075],[24.018488500000046,43.40188249900007],[24.01858,43.40540449900004],[24.02018,43.40902099900006],[24.02371850000003,43.407347499000025],[24.02823250000006,43.41375349900005],[24.035374500000046,43.41382049900005],[24.037892,43.41847049900008],[24.048077500000034,43.42133049900008],[24.054702500000076,43.43366749900008],[24.051392,43.43475749900006],[24.061523500000078,43.43949899900008],[24.069574500000044,43.44701949900008],[24.072907500000042,43.44903299900005],[24.072958500000027,43.45109349900008],[24.060771528000032,43.45627130300005],[24.060928526000055,43.46066867700006],[24.05240420100006,43.46374491900008],[24.047738594000066,43.46802169800003],[24.018198,43.472928499000034],[24.020255167000073,43.48215146900003],[24.012630413000068,43.48538089400006],[24.001402063000057,43.52347391200004],[23.99651044500007,43.526089726000066],[23.995709736000038,43.52918540300004],[23.986844500000075,43.53165849900006],[23.992976,43.54407599900003],[24.0018,43.54178249900008],[24.01932341500003,43.58453857500007],[24.022773500000028,43.59295299900003],[24.028060770000025,43.60424143900008],[24.04083950100005,43.60278644400006],[24.039350630000058,43.60871707700005],[24.054178,43.60941349900003],[24.072596,43.59962399900007],[24.087473,43.61437199900007],[24.11770350000006,43.59974699900005],[24.126914,43.59524949900003],[24.14250093800007,43.605884065000055],[24.154299538000032,43.60380636900004],[24.159711836000042,43.60587610700003],[24.168085500000075,43.60293399900007],[24.206762500000025,43.64680399900004],[24.213598500000046,43.64644199900005],[24.220616,43.645001499000045],[24.223709,43.64376849900003],[24.266002,43.63348249900008],[24.260912619000067,43.636910458000045],[24.261014965000072,43.63948188400008],[24.26956659600006,43.64147536400003],[24.276188500000046,43.65245999900003],[24.301765500000045,43.645263999000065],[24.31339550000007,43.66074399900003],[24.312687500000038,43.66230999900006],[24.317718,43.68084199900005],[24.318477,43.68654649900003],[24.320057,43.69138299900004],[24.321911,43.69307249900004],[24.323522500000024,43.69768599900004],[24.337731500000075,43.69698899900004],[24.340763500000037,43.696956499000066],[24.41396750000007,43.722157999000046],[24.419452500000034,43.72484999900007],[24.42228,43.726518499000065],[24.429541,43.73168549900004],[24.43232,43.73388699900005],[24.437601,43.73779749900007],[24.44017450000007,43.739569999000025],[24.442902,43.74144849900006],[24.445752,43.74313549900006],[24.451892,43.74630549900007],[24.45772450000004,43.74893099900004],[24.463448500000027,43.75169099900006],[24.478978,43.75840899900004],[24.48327,43.760015499000076],[24.48625050000004,43.76068899900008],[24.489746500000024,43.761284999000054],[24.494167,43.76162549900005],[24.496594,43.76165499900003],[24.502099,43.761521499000025],[24.539773599000057,43.76067995600005],[24.57025550000003,43.756372499000065],[24.599581,43.74941499900007],[24.604031,43.747654999000076],[24.61439850000005,43.743228499000054],[24.624156,43.73931149900005],[24.628626,43.73739349900006],[24.632010500000035,43.735834999000076],[24.637090500000056,43.73324499900008],[24.640431,43.73138699900005],[24.64445,43.72915149900007],[24.654779500000075,43.72358649900008],[24.658941500000026,43.72110649900003],[24.66438050000005,43.71764499900007],[24.667121500000064,43.715624999000056],[24.669890500000065,43.71319549900005],[24.672781500000042,43.71065949900003],[24.676072,43.707944499000064],[24.677909,43.70654599900007],[24.679841500000066,43.70530399900008],[24.681534500000055,43.704375999000035],[24.694903500000066,43.69761649900005]]]}},{"type":"Feature","id":"yambol","properties":{"id":"yambol","nuts_id":"BG343","name":"Yambol Oblast","description":"Southeast Bulgaria — Tundzha river basin; Thracian Lowland drought & flash-flood risk","color":"#3B82F6"},"geometry":{"type":"Polygon","coordinates":[[[26.690672500000062,42.691448499000046],[26.697609500000056,42.687819999000055],[26.701726,42.686213999000074],[26.706312500000024,42.685185999000055],[26.71400950000003,42.68456149900004],[26.720272305000037,42.681163929000036],[26.718441,42.674787999000046],[26.729958060000058,42.671514039000044],[26.744462,42.66374049900003],[26.740876945000025,42.65771081400004],[26.74035447700004,42.65441754600005],[26.741343897000036,42.65267753400008],[26.745776486000068,42.65266069100005],[26.74855672500007,42.649050560000035],[26.755926301000045,42.64813655100005],[26.757800092000025,42.63747998400004],[26.771738606000042,42.63618569800008],[26.77448050000004,42.62885249900006],[26.77631850000006,42.62298449900004],[26.782727,42.62410899900004],[26.783956500000045,42.62081549900006],[26.78416050000004,42.62024849900007],[26.790648,42.60504999900007],[26.781533,42.601331499000025],[26.783835,42.589038499000026],[26.790587,42.58731749900005],[26.787521639000033,42.581918237000025],[26.810728121000068,42.56812980600006],[26.806044661000044,42.56110403900004],[26.809238246000064,42.55551267700008],[26.807610182000076,42.545590805000074],[26.83106250000003,42.527261499000076],[26.844884162000028,42.51955443500003],[26.83868650000005,42.50736949900005],[26.84710444500007,42.504989798000054],[26.854318,42.502950499000065],[26.861845500000072,42.49694399900005],[26.864385,42.494087499000045],[26.866337,42.49256349900003],[26.881015500000046,42.49584899900003],[26.870438140000033,42.480756521000046],[26.883341518000066,42.476925847000075],[26.877358024000046,42.460588366000025],[26.88189950000003,42.450473499000054],[26.898373,42.44461299900007],[26.897782282000037,42.45052662400008],[26.90231977600007,42.45072098000003],[26.941029,42.452378999000075],[26.947260158000063,42.451692999000045],[26.948188560000062,42.43799102600008],[26.967122818000064,42.433702640000035],[26.96974750000004,42.43111349900005],[26.970529500000055,42.42028449900005],[26.967949,42.416626499000074],[26.966080500000032,42.41622549900006],[26.964537500000063,42.414878499000054],[26.956694308000067,42.41029549700005],[26.93845364300006,42.40623166300003],[26.904447,42.40664449900004],[26.90231977600007,42.40592908700006],[26.870251819000032,42.39514324100003],[26.868148778000034,42.38889861200005],[26.862353,42.387679999000056],[26.863294462000056,42.38007541200005],[26.867513892000034,42.37496452800008],[26.861327500000073,42.36760849900003],[26.86451950000003,42.36835099900003],[26.866139,42.36758249900004],[26.87078,42.367930999000066],[26.879893,42.36707099900008],[26.886424500000032,42.362813499000026],[26.891242500000033,42.35502299900003],[26.894447,42.35226999900004],[26.89906650000006,42.34977999900008],[26.899978,42.347623499000065],[26.90231977600007,42.346982911000055],[26.917073,42.341521999000065],[26.912546302000067,42.33635174600005],[26.918820624000034,42.32756109500008],[26.919776015000025,42.319752126000026],[26.91019781500006,42.30794184300004],[26.921837,42.29431499900005],[26.92581780100005,42.28974056800007],[26.932033089000072,42.28852594600005],[26.94066293900005,42.28279374400006],[26.957232043000033,42.28127368000003],[26.96818150000007,42.283340999000075],[26.96636132200007,42.27578370800006],[26.952112,42.26657746700005],[26.95031,42.26033249900007],[26.93681250000003,42.23981849900008],[26.940633305000063,42.23740030500005],[26.948316543000033,42.22405513000007],[26.959443746000034,42.21501718600007],[26.97646750000007,42.21501199900007],[26.983782,42.21016799900008],[26.98645,42.20881749900008],[26.988499500000046,42.20856099900004],[26.989860500000077,42.20717399900008],[26.975489259000028,42.20713696800004],[26.971303871000032,42.199065104000056],[26.941450109000073,42.18863780200007],[26.94110469700007,42.18339934100004],[26.935232374000066,42.179998874000034],[26.937908,42.16020749900008],[26.938363053000046,42.15309071900003],[26.943062500000053,42.144318499000065],[26.953868355000054,42.14474732000008],[26.959527628000046,42.13616509600007],[26.972333281000033,42.134094892000064],[26.969726257000048,42.12757563800005],[26.97610869700003,42.12512970000006],[26.97942850000004,42.10712949900005],[26.984823740000024,42.101259139000035],[26.992104709000046,42.09971080300005],[26.997147030000065,42.100107964000074],[27.001036296000052,42.10407902400004],[27.00587925600007,42.104943304000074],[27.020524438000052,42.10008993100007],[27.037601136000035,42.09826250800006],[27.046642,42.09986249900004],[27.047409,42.096340499000064],[27.049239,42.09318299900008],[27.053863500000034,42.090662999000074],[27.059650500000032,42.088336999000035],[27.050026778000074,42.084023881000064],[27.04161825500006,42.08412408300006],[27.03317878200005,42.079601669000056],[27.024728571000026,42.08016846400005],[27.022100069000032,42.07473762500007],[27.027350115000047,42.06282337300007],[27.02580140300006,42.056579181000075],[27.00679026800003,42.03854542100004],[26.99967581800007,42.03664389200003],[26.993145307000077,42.03827817900003],[26.98267474200003,42.03696865100005],[26.983962105000046,42.01954559200004],[26.966991931000052,42.00275325400003],[26.96411118900005,41.99707332200006],[26.957184738000024,41.99712462900004],[26.94922850000006,42.00021349900004],[26.928453146000038,42.00034085900006],[26.921730255000057,41.994714628000054],[26.912724656000023,41.99437439500008],[26.90231977600007,41.98718597200008],[26.882826,41.98842599900007],[26.870942608000064,41.99054286200004],[26.85729504300008,41.983048920000044],[26.850997884000037,41.98293752600006],[26.84710444500007,41.97341026200007],[26.84569478700007,41.969960471000036],[26.83295938300006,41.96947456800007],[26.82771850000006,41.97350749900005],[26.813280477000035,41.974559390000024],[26.795879674000048,41.98313487300004],[26.792102296000053,41.98949460700004],[26.787407,41.98960099900006],[26.779300500000033,41.979175499000064],[26.776382,41.979370999000025],[26.773039,41.97959499900003],[26.76305750000006,41.96931449900006],[26.759308,41.97013099900005],[26.756143,41.963387999000076],[26.753818500000023,41.958434999000076],[26.745776486000068,41.95920593500006],[26.738082500000075,41.959943499000076],[26.728544,41.96085749900004],[26.723066,41.96339499900006],[26.71204,41.96850199900007],[26.70295550000003,41.966638499000055],[26.700901,41.96621699900004],[26.68255461900003,41.96788929100006],[26.679096,41.97102349900007],[26.67805779300005,41.96870909000006],[26.667376235000063,41.96533305500003],[26.65761556600006,41.96998175200008],[26.63717230900005,41.973079720000044],[26.62355032100004,41.978589913000064],[26.617600192000054,41.96532589200007],[26.586864827000056,41.94766175800004],[26.561544500000025,41.92627349900005],[26.561291,41.92667849900005],[26.55791148700007,41.93608117200006],[26.53953940300005,41.95653333300004],[26.522750692000045,41.966375421000066],[26.525286781000034,41.980038774000036],[26.515352634000067,41.98309407600004],[26.510412,41.98764149900006],[26.511357969000073,41.99095806400004],[26.50614482900005,41.99469189600006],[26.507864,41.999978999000064],[26.50925316300004,42.00101250600005],[26.50871397800006,42.00275325400003],[26.516470471000048,42.005578125000056],[26.51841306400007,42.01074074100006],[26.535623,42.02791599900007],[26.53288045900007,42.03293868500003],[26.534074,42.04721949900005],[26.52849328700006,42.05429166500005],[26.511345084000027,42.06089934700003],[26.50806055100003,42.06617277500004],[26.51299936600003,42.07019077700005],[26.510177500000054,42.075071999000045],[26.513930405000053,42.080234232000066],[26.507318161000057,42.09902039600007],[26.51986968400007,42.11059514300007],[26.51448537600004,42.118628009000076],[26.521399032000033,42.122664308000026],[26.52348272000006,42.126620142000036],[26.530526922000035,42.12795495800003],[26.529737031000025,42.13250152900008],[26.534202,42.135560499000064],[26.532529932000045,42.137946001000046],[26.529626999000072,42.13631039000006],[26.525017950000063,42.13873502600006],[26.52954055500004,42.14155735400004],[26.53968251200007,42.139506260000076],[26.537248138000052,42.144177641000056],[26.53167979600005,42.14565612700005],[26.538056,42.15419699900008],[26.517999660000044,42.15677915800006],[26.50448032500003,42.15131845600007],[26.501217370000063,42.14687523500004],[26.495158,42.145707499000025],[26.496294205000027,42.16631773300003],[26.48909750000007,42.171105999000076],[26.48936569600005,42.165237525000066],[26.472909513000047,42.162655947000076],[26.476280682000038,42.157365441000024],[26.469514031000074,42.15320535600006],[26.44992485800003,42.16327396100007],[26.44786350000004,42.17070299900007],[26.446070500000076,42.170964499000036],[26.443155,42.17003649900005],[26.439229,42.16751349900005],[26.431485,42.15943249900005],[26.42393750000008,42.15382449900005],[26.421203500000047,42.15341899900005],[26.416567,42.15160749900008],[26.412929,42.15194499900008],[26.407756121000034,42.15654499100003],[26.394588422000027,42.156703924000055],[26.393510243000037,42.160106616000064],[26.381058994000057,42.17052872700003],[26.371937500000058,42.170370999000056],[26.371143740000036,42.16148362500007],[26.354426500000045,42.16162349900003],[26.351235448000068,42.160893316000056],[26.347736282000028,42.16456789100005],[26.341937657000074,42.16355874300007],[26.342458500000077,42.161649999000076],[26.32385048900005,42.166863060000026],[26.310497500000054,42.17360749900007],[26.30503650000003,42.17474449900004],[26.298516651000057,42.17682671400007],[26.276568507000036,42.17773316900008],[26.265793813000073,42.18661145000004],[26.25207775100006,42.18742319200004],[26.24232950000004,42.19210899900003],[26.23583807400007,42.19427421600005],[26.218551,42.18783299900008],[26.21517564100003,42.192302694000034],[26.211862500000052,42.19668999900006],[26.208765,42.19939749900004],[26.198244,42.20726349900008],[26.196712,42.20606399900004],[26.19273350000003,42.20812999900005],[26.18924895400005,42.21439262000007],[26.169701,42.22083999900008],[26.175019097000074,42.22405904000004],[26.18193708700005,42.22235302300004],[26.185109366000063,42.22421093000003],[26.175855716000058,42.22822626800007],[26.171439930000076,42.23371273600003],[26.172178019000057,42.24633662100007],[26.169229579000046,42.25137792800007],[26.175732,42.261460999000064],[26.189507590000062,42.28464964300008],[26.20429850000005,42.28540749900003],[26.20446,42.303285999000025],[26.213393,42.30741799900005],[26.21268,42.31083999900005],[26.215849,42.313734999000076],[26.214679,42.31609099900004],[26.21551050000005,42.31766799900004],[26.225436500000058,42.317086999000026],[26.22529572800005,42.32766856300003],[26.23221417900004,42.34506536400005],[26.24941381700006,42.36005460900003],[26.251383498000052,42.364930627000035],[26.258597773000076,42.366243878000034],[26.257056500000033,42.36932899900006],[26.254705500000057,42.369687499000065],[26.239302257000077,42.37770433000003],[26.22597332500004,42.38069342400007],[26.219388516000038,42.37790972300007],[26.217680044000076,42.36599907400006],[26.19536957100007,42.359936609000044],[26.18612,42.36132699900003],[26.188123430000076,42.36973940000007],[26.18375424800007,42.37437892300005],[26.186954522000065,42.37736950800007],[26.18649527900004,42.39007006600008],[26.181036,42.40270049900005],[26.184353095000063,42.403797085000065],[26.179825102000052,42.413765151000064],[26.181575015000078,42.41517396900008],[26.188479062000056,42.413793928000075],[26.193381052000063,42.40839926000007],[26.21211831100004,42.40732633300007],[26.224340703000053,42.402370595000036],[26.234513547000063,42.40737173900004],[26.23673050000008,42.41072649900008],[26.24117042000006,42.41433647900004],[26.235464510000043,42.418142672000045],[26.236395311000024,42.42944481300003],[26.232668056000023,42.45221704700003],[26.22522550000008,42.45685399900003],[26.231637500000033,42.466848999000035],[26.232439500000055,42.46978099900008],[26.238484,42.46764199900008],[26.246954500000072,42.472439499000075],[26.252502,42.47044049900006],[26.251686500000062,42.468818499000065],[26.262562500000058,42.46515599900005],[26.264818,42.46009599900003],[26.271785,42.46113549900008],[26.27232,42.45901349900004],[26.271865,42.452323499000045],[26.28720750000008,42.45175349900006],[26.285719500000027,42.45986349900005],[26.296623500000067,42.45782349900003],[26.300586030000034,42.45682968700004],[26.30439444600006,42.44881166400006],[26.31407299700004,42.44891718300005],[26.31959755200006,42.452956019000055],[26.32463750000005,42.452547999000046],[26.32543050000004,42.449490499000035],[26.339529300000038,42.454186486000026],[26.33472485900006,42.45901433700004],[26.33871242600003,42.46418559600005],[26.361382500000047,42.46229549900005],[26.358454781000034,42.47532737800003],[26.361939,42.47776199900005],[26.369859060000067,42.47925055500008],[26.37780667000004,42.49393568100004],[26.404703,42.49755249900005],[26.409378459000038,42.508768376000035],[26.39799447000007,42.51815985200005],[26.396436100000074,42.52934147700006],[26.39245550000004,42.53357899900004],[26.39239720300003,42.53923831100008],[26.411818527000037,42.54773848000008],[26.410702814000047,42.55685223900008],[26.42200125900007,42.56169709100004],[26.419488672000057,42.56745519100008],[26.426252500000032,42.57423399900006],[26.426465,42.57419049900005],[26.43578350000007,42.56836949900003],[26.435914500000024,42.56525849900004],[26.439711,42.56153499900006],[26.44551750000005,42.55774949900007],[26.45672950000005,42.554250499000034],[26.461479,42.55035999900008],[26.47645175400004,42.55311655700007],[26.48028500500004,42.55642666000006],[26.488638885000057,42.558308553000074],[26.496629,42.557453999000074],[26.496027225000034,42.56101123000008],[26.50101522800003,42.56795419000008],[26.51407318400004,42.573065738000025],[26.516046122000034,42.57779439300003],[26.52123290700007,42.57794040600004],[26.52573269800007,42.57297941000007],[26.55164077300003,42.56885460700005],[26.562237500000037,42.57365449900004],[26.569093500000065,42.57726499900008],[26.582823553000026,42.58336273500004],[26.57771681500003,42.58610132300004],[26.576065288000052,42.59344846600004],[26.594511500000067,42.59655799900003],[26.61085573200006,42.604131669000026],[26.614114500000028,42.62401149900006],[26.623385753000036,42.62680317200005],[26.632842718000063,42.62540206500006],[26.634066618000077,42.62275855100006],[26.624871477000056,42.62189499800007],[26.61934192700005,42.614092656000025],[26.644989,42.611192999000025],[26.64573912800006,42.61729879400008],[26.659832073000075,42.61852006600003],[26.656673703000024,42.630786948000036],[26.663444792000064,42.63271369600005],[26.66569517000005,42.637092970000026],[26.671645935000072,42.63812884200007],[26.668381888000056,42.65836956100003],[26.67168338700003,42.668802836000054],[26.66873350000003,42.67681199900005],[26.65316010400005,42.67695211400007],[26.644121160000054,42.679889020000076],[26.637994311000057,42.68965543400003],[26.64059050000003,42.69343249900004],[26.642836500000044,42.69341249900003],[26.645915,42.692791499000066],[26.64872150000008,42.69138599900003],[26.651918,42.69128799900005],[26.651620625000078,42.69509389000007],[26.668119,42.69747349900007],[26.67315350000007,42.69742899900007],[26.677559,42.694582499000035],[26.682401500000026,42.693519999000046],[26.686664,42.69193299900007],[26.690672500000062,42.691448499000046]]]}},{"type":"Feature","id":"burgas","properties":{"id":"burgas","nuts_id":"BG341","name":"Burgas Oblast","description":"Black Sea coast — river-mouth flooding, storm-surge, Mandra-Poda wetlands","color":"#3B82F6"},"geometry":{"type":"MultiPolygon","coordinates":[[[[27.286481163000076,42.96961051200003],[27.287478,42.96428699900008],[27.29893936600007,42.96685561600003],[27.322473683000055,42.96311081700003],[27.325226272000066,42.95405789400007],[27.31421481700005,42.94458594200006],[27.312250290000065,42.93724321500008],[27.32938444900003,42.93782707100007],[27.338957521000054,42.93364229000008],[27.345893,42.92717699900004],[27.359673592000036,42.918758688000025],[27.362021500000026,42.91039999900005],[27.364883500000076,42.90965699900005],[27.367796500000054,42.90986249900004],[27.37049,42.91082749900005],[27.372717,42.91087699900004],[27.404074500000036,42.90442149900008],[27.415020500000026,42.88953949900008],[27.418510140000024,42.88802325800003],[27.426943962000053,42.889894930000025],[27.43479350000007,42.881793499000025],[27.454240178000077,42.88221084700007],[27.470346242000062,42.891913153000075],[27.48261892800008,42.88979723700004],[27.489302509000026,42.883864309000046],[27.496265,42.88525849900003],[27.510651832000065,42.88665776400006],[27.509479336000027,42.88085896900003],[27.512965,42.875522999000054],[27.52319497700006,42.87723613400004],[27.543969143000027,42.87336393100003],[27.54594152900006,42.88424765000008],[27.550718579000034,42.88365352200003],[27.558162880000054,42.88731858400007],[27.565333123000073,42.88663645200006],[27.57336831300006,42.88925270100003],[27.587131579000072,42.88495788700004],[27.595216100000073,42.88577533100005],[27.59911767500006,42.89547606100007],[27.609219,42.897080999000025],[27.62032754200004,42.89621349500004],[27.623784156000056,42.89816866900003],[27.629622,42.895073499000034],[27.639320206000036,42.89344437800003],[27.646417,42.88949799900007],[27.65700946100003,42.887888995000026],[27.664036742000064,42.884271151000064],[27.66955618000003,42.88554120600003],[27.68627886200005,42.88375093600007],[27.703357,42.87592899900005],[27.705072209000036,42.87356600700008],[27.700737,42.868682499000045],[27.706684540000026,42.86570254700007],[27.716424828000072,42.86082196900003],[27.719558500000062,42.85580099900005],[27.767395500000077,42.83842949900003],[27.773553158000027,42.83627094800005],[27.777765464000026,42.83396843700007],[27.782145941000067,42.83316133100004],[27.783391,42.83218399900005],[27.79758946900006,42.82794688400003],[27.816127547000065,42.82863503400006],[27.828447,42.82640099900004],[27.829446236000024,42.82915975600008],[27.84659711300003,42.83575925500003],[27.865496500000063,42.837585999000055],[27.87005350000004,42.83625449900006],[27.874112,42.84154149900007],[27.87961450000006,42.838774999000066],[27.88262,42.83841349900007],[27.88612550000005,42.81538749900005],[27.90081,42.771857999000076],[27.900434500000074,42.766650999000035],[27.889984,42.75503149900004],[27.89134450000006,42.74141699900008],[27.900753,42.719509499000026],[27.899067,42.70024549900006],[27.892957500000023,42.697726999000054],[27.879492,42.700679999000045],[27.840812500000027,42.70054999900003],[27.82245450000005,42.70442599900008],[27.810024,42.701385499000025],[27.78518150000008,42.704623999000034],[27.761616,42.70878199900005],[27.74119550000006,42.70763399900005],[27.73064228900006,42.70757211800003],[27.722137322000037,42.702286740000034],[27.71316951400007,42.67778308800007],[27.716885242000046,42.66646480500003],[27.72991688700006,42.658172411000066],[27.721562032000065,42.656871815000045],[27.709777793000057,42.64817618100005],[27.691223,42.650840999000025],[27.678789,42.63846949900005],[27.676660500000025,42.635661999000035],[27.66662050000008,42.63875949900006],[27.653801,42.63623799900006],[27.652063500000054,42.63890849900008],[27.646618,42.63852299900003],[27.63529,42.62537399900003],[27.630813500000045,42.60466749900007],[27.633594500000072,42.57825499900008],[27.640934,42.56530399900004],[27.65201,42.55582049900005],[27.64153650000003,42.55213549900003],[27.631832,42.561477499000034],[27.616941500000053,42.565368499000044],[27.607031,42.563697999000055],[27.600122500000055,42.55812849900008],[27.593560500000024,42.56376249900006],[27.583196500000042,42.56430799900005],[27.55896,42.55073549900004],[27.539982,42.55897899900003],[27.527113843000052,42.558944405000034],[27.509151692000046,42.54974555500007],[27.492606102000025,42.52985984400004],[27.48507846600006,42.51033933600007],[27.48128261200003,42.49081055200003],[27.471834456000067,42.48512494100004],[27.464772838000044,42.487394797000036],[27.460553943000036,42.483962044000066],[27.45364521500005,42.48491237600007],[27.447571246000052,42.47651854000003],[27.448251791000075,42.46248097600005],[27.451997825000035,42.45708885200003],[27.468554167000036,42.44583073300004],[27.474433330000068,42.449063016000025],[27.47440630500006,42.455436950000035],[27.48052689000008,42.459658930000046],[27.49210835300005,42.44669444600004],[27.507778329000075,42.43801919200007],[27.51330439800006,42.42914944300003],[27.52091185000006,42.43062138800008],[27.529123398000024,42.43629537700008],[27.53740276700006,42.448488747000056],[27.538845609000077,42.455637667000076],[27.570392500000025,42.44574749900005],[27.580905905000066,42.448822101000076],[27.580923089000066,42.45532044300006],[27.585103194000055,42.46088968600003],[27.598535424000033,42.45072229500005],[27.614534501000037,42.44494115300006],[27.624646093000024,42.44733491100004],[27.62814958900003,42.45559583600004],[27.63700563900005,42.44922420700004],[27.64868348400006,42.45006623900008],[27.648071273000028,42.43928422600004],[27.653800543000045,42.43131514800007],[27.646726012000045,42.426184987000056],[27.651232,42.41672149900006],[27.66186490700005,42.41105175100006],[27.673253079000062,42.40951174400004],[27.687706022000043,42.41696028500007],[27.69241540400003,42.42243534500005],[27.68876613200007,42.42551460000004],[27.694752704000052,42.426666451000074],[27.698908927000048,42.42550073000007],[27.69570095000006,42.420982081000034],[27.702181967000058,42.41912165600007],[27.706099374000075,42.40943696800008],[27.712095206000072,42.407098921000056],[27.728200396000034,42.40959172500004],[27.72417893200003,42.40086462100004],[27.710580179000033,42.40018867600003],[27.706887737000045,42.393237353000075],[27.709401298000046,42.38431352500004],[27.719553956000027,42.37868537800006],[27.710302488000025,42.36785810900005],[27.72160808500007,42.350353160000054],[27.729597381000076,42.34474594000005],[27.729456,42.33756249900006],[27.738703101000056,42.32910018600006],[27.74748863600007,42.32679534500005],[27.754012328000044,42.32808989100005],[27.75855243600006,42.33357268700007],[27.77073843100004,42.33626775600004],[27.773996906000036,42.33396191600008],[27.783611036000025,42.33533816600004],[27.779512916000044,42.32411712700008],[27.774617721000027,42.320914722000055],[27.780846431000043,42.31867224600006],[27.781090301000063,42.31384716500003],[27.79110527000006,42.30750857600003],[27.770258178000063,42.300604332000034],[27.771703373000037,42.294617929000026],[27.75503493100007,42.28532626500004],[27.75863697500006,42.27082656300007],[27.765357427000026,42.265983273000074],[27.752518757000075,42.26129098200005],[27.75153291500004,42.25528129700007],[27.756605,42.245498499000064],[27.76834850000006,42.24127599900004],[27.773552,42.24490349900003],[27.778347,42.23800299900006],[27.784731,42.23647299900006],[27.777704500000027,42.233054999000046],[27.778219,42.225959999000054],[27.782509,42.226157999000066],[27.79282950000004,42.215579999000056],[27.804441500000053,42.21612949900003],[27.806196,42.21134949900005],[27.818849500000056,42.20691749900004],[27.818174500000055,42.20330799900006],[27.824338198000078,42.19802354500007],[27.829376293000053,42.19796662700003],[27.829980136000074,42.19387536100004],[27.839250745000072,42.193103403000066],[27.83785120500005,42.189216704000046],[27.845536878000075,42.18580296400006],[27.844228888000032,42.18136538500005],[27.85141861900007,42.17861491100007],[27.852348767000024,42.17347627200007],[27.859327386000075,42.172310149000054],[27.858877146000054,42.17006288500005],[27.853176400000052,42.16908827200007],[27.853232998000067,42.165848968000034],[27.857875268000043,42.16391295100004],[27.862295962000076,42.16494314100004],[27.867600926000023,42.15892406300003],[27.872368985000037,42.15911107800008],[27.87785780400003,42.149781304000044],[27.885139500000037,42.14409249900007],[27.89559,42.14355849900005],[27.903608500000075,42.12887949900005],[27.908531,42.129199999000036],[27.912388,42.12586599900004],[27.913820500000043,42.122722499000076],[27.908214500000042,42.11884299900004],[27.913604500000076,42.115635499000064],[27.913519,42.11124399900007],[27.92283450000008,42.10509499900007],[27.928608483000062,42.10238441200005],[27.936481494000077,42.10446609100006],[27.94685458500004,42.103165571000034],[27.956288891000042,42.08601204400003],[27.963631297000063,42.08289167700008],[27.962724154000057,42.078124735000074],[27.968815500000062,42.07034699900004],[27.981672,42.06270199900007],[27.991539,42.063224999000056],[27.993271,42.05953999900004],[27.987117500000068,42.054073499000026],[27.992899,42.04606649900006],[27.998121500000025,42.04593299900006],[28.003931,42.04017999900003],[28.002926,42.035266499000045],[28.01516350000003,42.02748099900003],[28.010092,42.02257149900004],[28.017467500000066,42.02033249900006],[28.019703,42.008807999000055],[28.021736,42.00358199900006],[28.03093350000006,41.99726499900004],[28.03551250000004,41.98307949900004],[28.028860054000063,41.98300687400007],[28.022476418000053,41.98012345500007],[27.994414033000055,41.98032755500003],[27.976880791000042,41.98905345000003],[27.974897544000044,41.98370205900005],[27.95808172900007,41.97688272100004],[27.955194172000063,41.98051954400006],[27.943616273000032,41.977895095000065],[27.934060601000056,41.98401331700006],[27.93054979300007,41.978584684000054],[27.926029180000057,41.97692872500005],[27.921947500000044,41.98274549900003],[27.916605633000074,41.97378002100004],[27.909991061000028,41.97371923600008],[27.90069889800003,41.981588833000046],[27.898750895000035,41.99193825200007],[27.886194027000045,41.99561029200004],[27.879780769000035,41.995239309000056],[27.87662055000004,41.99936020900003],[27.86973585100003,41.99982141700008],[27.86466027800003,42.00527974100004],[27.859884500000078,42.00587849900006],[27.860512,41.99482596100006],[27.85581096800007,41.99163993800005],[27.85210932800004,41.99434588300005],[27.85636949600007,41.99783212700004],[27.85452759700007,42.00102933800008],[27.850952095000025,42.00037243600008],[27.849158638000063,41.99424939800008],[27.844789149000064,41.99117045200006],[27.828392,41.997802499000045],[27.819393439000066,41.986670109000045],[27.81920678000006,41.97834295900003],[27.82455856200005,41.973074035000025],[27.821846332000064,41.96324042400005],[27.825758886000074,41.960344891000034],[27.83303112400006,41.959873437000056],[27.835161645000028,41.950346710000076],[27.827480432000073,41.94855029900003],[27.81689241500004,41.952256308000074],[27.815104391000034,41.94421088100006],[27.803114377000043,41.951516810000044],[27.794606972000054,41.949535970000056],[27.789291460000072,41.95329489800008],[27.78117807500007,41.95414652900007],[27.784599811000078,41.960367259000066],[27.78283764100007,41.96354516000008],[27.776431066000043,41.96477412000007],[27.77041934700003,41.961613173000046],[27.765513510000062,41.96700122100003],[27.749124360000053,41.970267998000054],[27.737898906000055,41.978389985000035],[27.729522047000046,41.97427224300003],[27.70215147400006,41.976601489000075],[27.701252458000056,41.97270756000006],[27.68609088200003,41.97137241900003],[27.681093271000066,41.96513754800003],[27.671150324000052,41.959572706000074],[27.666335952000054,41.96070508100007],[27.658923542000025,41.958096477000026],[27.652803212000038,41.961303601000054],[27.642043435000062,41.95540180800003],[27.638185500000077,41.95945349900006],[27.633023286000025,41.95516729600007],[27.620913132000055,41.95729543500005],[27.62576283100003,41.94983711400005],[27.61283858200005,41.939153531000045],[27.60873912200003,41.93973738400007],[27.608672347000038,41.94474583700003],[27.604485367000052,41.946732061000034],[27.58873763300005,41.93204271400003],[27.58587438400008,41.932422651000024],[27.586187003000077,41.93643139300008],[27.574973060000048,41.93681591400008],[27.56758718800006,41.92451632600006],[27.57428338400007,41.92289601400006],[27.575767116000065,41.92035373700003],[27.566092403000027,41.91880230100003],[27.562460909000038,41.914662975000056],[27.563947143000064,41.912632089000056],[27.57112101900003,41.91191137700008],[27.571338268000034,41.905441093000036],[27.560816585000055,41.904868503000046],[27.548437903000035,41.91401617200006],[27.540365241000075,41.91699613000003],[27.528766077000057,41.93813860700004],[27.511410427000044,41.95723573500004],[27.505356144000075,41.95752700600008],[27.502650886000026,41.952948640000045],[27.490238718000057,41.95274584600003],[27.468830444000048,41.95861260600003],[27.46752525200003,41.965010875000075],[27.463929977000078,41.96813635500007],[27.448354218000077,41.967236455000034],[27.445423978000065,41.973769289000074],[27.438593515000036,41.97723420900007],[27.43256750000006,41.99115749900005],[27.42654650000003,41.98979899900007],[27.42054950000005,41.98844549900008],[27.418510140000024,41.989292471000056],[27.414846500000067,41.99081399900007],[27.413173500000028,41.999843499000065],[27.40825791000003,42.00275325400003],[27.39397235100006,42.00681548000006],[27.391565307000064,42.01783859100004],[27.38404673900004,42.02285026900006],[27.38156704900007,42.034100290000026],[27.37590415300008,42.04066774100005],[27.37642420900005,42.04614246800003],[27.363586500000054,42.058437499000036],[27.337080682000078,42.060229863000075],[27.335236774000066,42.06720867000007],[27.329466,42.071761999000046],[27.326824250000072,42.07315864000003],[27.325920738000036,42.07941965900005],[27.317421644000035,42.07904331000003],[27.310915972000032,42.086670266000056],[27.30025551400007,42.08702164500005],[27.293341724000072,42.096637988000055],[27.28205670400007,42.09573358200004],[27.273235500000055,42.099082999000075],[27.273033,42.101829499000075],[27.270666,42.10432049900004],[27.25369450000005,42.09926199900008],[27.240125500000033,42.10501499900005],[27.222082,42.09850299900006],[27.216535833000023,42.08597179900005],[27.203352489000054,42.08285645600006],[27.19897493900004,42.07839959200004],[27.19868305500006,42.073735707000026],[27.206396152000025,42.06240625800007],[27.203744500000028,42.059845557000074],[27.18984568700006,42.06081112500004],[27.181533727000044,42.06968406300007],[27.169449925000038,42.065367371000036],[27.15961736400004,42.06565917900008],[27.15279914900003,42.071333182000046],[27.141466798000067,42.066454786000065],[27.132866587000024,42.066813368000055],[27.125750235000055,42.076388449000035],[27.11501306300005,42.07947617900004],[27.112097,42.083545499000024],[27.10862750000007,42.08699799900006],[27.103496500000062,42.08517449900006],[27.075067500000046,42.08892049900004],[27.072954,42.089198999000075],[27.067093,42.093181499000025],[27.059650500000032,42.088336999000035],[27.053863500000034,42.090662999000074],[27.049239,42.09318299900008],[27.047409,42.096340499000064],[27.046642,42.09986249900004],[27.037601136000035,42.09826250800006],[27.020524438000052,42.10008993100007],[27.00587925600007,42.104943304000074],[27.001036296000052,42.10407902400004],[26.997147030000065,42.100107964000074],[26.992104709000046,42.09971080300005],[26.984823740000024,42.101259139000035],[26.97942850000004,42.10712949900005],[26.97610869700003,42.12512970000006],[26.969726257000048,42.12757563800005],[26.972333281000033,42.134094892000064],[26.959527628000046,42.13616509600007],[26.953868355000054,42.14474732000008],[26.943062500000053,42.144318499000065],[26.938363053000046,42.15309071900003],[26.937908,42.16020749900008],[26.935232374000066,42.179998874000034],[26.94110469700007,42.18339934100004],[26.941450109000073,42.18863780200007],[26.971303871000032,42.199065104000056],[26.975489259000028,42.20713696800004],[26.989860500000077,42.20717399900008],[26.988499500000046,42.20856099900004],[26.98645,42.20881749900008],[26.983782,42.21016799900008],[26.97646750000007,42.21501199900007],[26.959443746000034,42.21501718600007],[26.948316543000033,42.22405513000007],[26.940633305000063,42.23740030500005],[26.93681250000003,42.23981849900008],[26.95031,42.26033249900007],[26.952112,42.26657746700005],[26.96636132200007,42.27578370800006],[26.96818150000007,42.283340999000075],[26.957232043000033,42.28127368000003],[26.94066293900005,42.28279374400006],[26.932033089000072,42.28852594600005],[26.92581780100005,42.28974056800007],[26.921837,42.29431499900005],[26.91019781500006,42.30794184300004],[26.919776015000025,42.319752126000026],[26.918820624000034,42.32756109500008],[26.912546302000067,42.33635174600005],[26.917073,42.341521999000065],[26.90231977600007,42.346982911000055],[26.899978,42.347623499000065],[26.89906650000006,42.34977999900008],[26.894447,42.35226999900004],[26.891242500000033,42.35502299900003],[26.886424500000032,42.362813499000026],[26.879893,42.36707099900008],[26.87078,42.367930999000066],[26.866139,42.36758249900004],[26.86451950000003,42.36835099900003],[26.861327500000073,42.36760849900003],[26.867513892000034,42.37496452800008],[26.863294462000056,42.38007541200005],[26.862353,42.387679999000056],[26.868148778000034,42.38889861200005],[26.870251819000032,42.39514324100003],[26.90231977600007,42.40592908700006],[26.904447,42.40664449900004],[26.93845364300006,42.40623166300003],[26.956694308000067,42.41029549700005],[26.964537500000063,42.414878499000054],[26.966080500000032,42.41622549900006],[26.967949,42.416626499000074],[26.970529500000055,42.42028449900005],[26.96974750000004,42.43111349900005],[26.967122818000064,42.433702640000035],[26.948188560000062,42.43799102600008],[26.947260158000063,42.451692999000045],[26.941029,42.452378999000075],[26.90231977600007,42.45072098000003],[26.897782282000037,42.45052662400008],[26.898373,42.44461299900007],[26.88189950000003,42.450473499000054],[26.877358024000046,42.460588366000025],[26.883341518000066,42.476925847000075],[26.870438140000033,42.480756521000046],[26.881015500000046,42.49584899900003],[26.866337,42.49256349900003],[26.864385,42.494087499000045],[26.861845500000072,42.49694399900005],[26.854318,42.502950499000065],[26.84710444500007,42.504989798000054],[26.83868650000005,42.50736949900005],[26.844884162000028,42.51955443500003],[26.83106250000003,42.527261499000076],[26.807610182000076,42.545590805000074],[26.809238246000064,42.55551267700008],[26.806044661000044,42.56110403900004],[26.810728121000068,42.56812980600006],[26.787521639000033,42.581918237000025],[26.790587,42.58731749900005],[26.783835,42.589038499000026],[26.781533,42.601331499000025],[26.790648,42.60504999900007],[26.78416050000004,42.62024849900007],[26.783956500000045,42.62081549900006],[26.782727,42.62410899900004],[26.77631850000006,42.62298449900004],[26.77448050000004,42.62885249900006],[26.771738606000042,42.63618569800008],[26.757800092000025,42.63747998400004],[26.755926301000045,42.64813655100005],[26.74855672500007,42.649050560000035],[26.745776486000068,42.65266069100005],[26.741343897000036,42.65267753400008],[26.74035447700004,42.65441754600005],[26.740876945000025,42.65771081400004],[26.744462,42.66374049900003],[26.729958060000058,42.671514039000044],[26.718441,42.674787999000046],[26.720272305000037,42.681163929000036],[26.71400950000003,42.68456149900004],[26.713406861000067,42.688425841000026],[26.706720456000028,42.694971972000076],[26.705887215000075,42.700556574000075],[26.70707954200003,42.704608379000035],[26.713695889000064,42.70446111500007],[26.714148,42.71132649900005],[26.715039,42.71434099900006],[26.70908360900006,42.71475180500005],[26.70999477500004,42.722329020000075],[26.698370182000076,42.71900928500003],[26.68765499700004,42.72535699500003],[26.682754384000077,42.74004641300007],[26.685315046000028,42.74476085100008],[26.668323,42.74438349900004],[26.671940005000067,42.75127985700004],[26.666597500000023,42.75895399900003],[26.653601387000037,42.75696177200007],[26.648665910000034,42.76178439300003],[26.636448253000026,42.76594192400006],[26.62988552400003,42.771293867000054],[26.60678850000005,42.774559999000076],[26.597403540000073,42.781363363000025],[26.599340460000064,42.782831058000056],[26.605308500000035,42.781524999000055],[26.61043058200005,42.78146140900003],[26.611072512000078,42.78925368300003],[26.59547813900008,42.80028374900007],[26.600470510000036,42.80742767300006],[26.58811888400004,42.81456133200004],[26.578655,42.814857999000026],[26.603154500000073,42.82809799900008],[26.59198365000003,42.83454167100007],[26.59643820900004,42.83736083700006],[26.598186695000038,42.842156146000036],[26.59720155100007,42.85069350600003],[26.589245922000032,42.86082844400005],[26.589741873000037,42.86570254700007],[26.584516929000074,42.871336969000026],[26.584889565000026,42.87865861100005],[26.589290883000047,42.88525085600003],[26.596838971000068,42.88929889000008],[26.602429147000066,42.90935736500006],[26.60159122500005,42.91242597000007],[26.59405365500004,42.91539202800004],[26.58998850000006,42.92011849900007],[26.59711105100007,42.926545961000045],[26.612981174000026,42.927091301000075],[26.62655712000003,42.93098984400007],[26.633646868000028,42.92402853500005],[26.644847517000073,42.926059835000046],[26.651372008000067,42.93040516700006],[26.662614979000068,42.93177680500003],[26.666629475000036,42.929006134000076],[26.668647985000064,42.92211780900004],[26.663719465000042,42.92240058300007],[26.65089755300005,42.90564105000004],[26.663137,42.90016249900003],[26.66726250000005,42.89887699900004],[26.67557850000003,42.90006199900006],[26.67748,42.899837999000056],[26.68251950000007,42.896753999000055],[26.694435500000054,42.901973499000064],[26.69704450000006,42.90214699900008],[26.699992500000064,42.90568049900003],[26.70186750000005,42.90493349900004],[26.710503023000058,42.90161263600004],[26.723379409000074,42.901229691000026],[26.730371500000047,42.898022499000035],[26.734668999000064,42.903584109000064],[26.745776486000068,42.903204462000076],[26.748928,42.90334849900006],[26.75437050000005,42.90425199900005],[26.756393,42.905646999000055],[26.758707,42.90474749900005],[26.759625500000027,42.907222499000056],[26.768284435000055,42.91737932400008],[26.780226,42.92160799900006],[26.78298657700003,42.93240446200008],[26.78924727200007,42.939709030000074],[26.79499247700005,42.94176315500005],[26.796365738000077,42.94872711800008],[26.818822500000067,42.946210499000074],[26.830594526000027,42.94553416200006],[26.855358,42.93921049900007],[26.858822,42.941966499000046],[26.861676,42.94505449900004],[26.865257,42.94574299900006],[26.869283,42.94552249900005],[26.897111739000024,42.94874155900004],[26.90231977600007,42.94197551900004],[26.90637866800006,42.936701879000054],[26.916742500000055,42.93532199900005],[26.920322885000076,42.940343882000036],[26.937668260000066,42.93598654900006],[26.95416037800004,42.945097831000055],[26.977084046000073,42.94257964900004],[26.986558,42.94663199900003],[26.993889160000037,42.94531647200006],[26.994566345000067,42.940708889000064],[27.002294074000076,42.93342853200005],[27.002188610000076,42.92696563000004],[27.006058,42.92162099900003],[27.007501,42.92575849900004],[27.013272,42.926982999000074],[27.020426,42.92675649900008],[27.023752500000057,42.927065999000035],[27.025946500000032,42.92808399900008],[27.030715500000042,42.93169349900006],[27.033504,42.93257099900006],[27.036140500000045,42.93435749900004],[27.03878050000003,42.935185499000056],[27.04607050000004,42.93385449900006],[27.050838,42.934131499000046],[27.05479950000006,42.93533199900003],[27.058244500000058,42.936991499000044],[27.060610500000053,42.93711199900008],[27.09100950000004,42.94763699900005],[27.091539150000074,42.952293],[27.094433500000036,42.953910499000074],[27.103833052000027,42.95617785500008],[27.109667500000057,42.95464499900004],[27.116742893000037,42.95532965500007],[27.12624808000004,42.95384082800007],[27.129594035000025,42.95603352300003],[27.13464750000003,42.95708999900006],[27.146407305000025,42.95868988400008],[27.15576,42.967846499000075],[27.158705,42.96943649900004],[27.16982050000007,42.97307199900007],[27.171898,42.97455049900003],[27.173181500000055,42.97650699900004],[27.177752500000054,42.97752199900003],[27.182196500000032,42.97791599900006],[27.193812,42.98096299900004],[27.198318,42.98122099900007],[27.20799050000005,42.984706999000025],[27.221442,42.98405549900008],[27.240635,42.98274749900003],[27.27076550000004,42.97950549900003],[27.27243261700005,42.97531807900003],[27.286481163000076,42.96961051200003]]],[[[26.670085226000026,42.92080314200007],[26.670851321000043,42.91611474600006],[26.66632588600004,42.91628816300005],[26.667673457000035,42.92015807200005],[26.670085226000026,42.92080314200007]]]]}}]}